{"type":"FeatureCollection","features":[{"type":"Feature","geometry":{"coordinates":[[[-0.564099,44.839466],[-0.566126,44.841124],[-0.567291,44.844433],[-0.574983,44.843772],[-0.576694,44.845003],[-0.577449,44.845001],[-0.577721,44.845463],[-0.578484,44.845275],[-0.578389,44.844872],[-0.577942,44.844685],[-0.577564,44.841831],[-0.576338,44.841921],[-0.576421,44.840952],[-0.57594,44.83887],[-0.574035,44.839037],[-0.573802,44.83759],[-0.570931,44.837797],[-0.570811,44.836676],[-0.56967,44.835845],[-0.567051,44.836485],[-0.566587,44.836206],[-0.562821,44.838436],[-0.564099,44.839466]]],"type":"Polygon"},"properties":{"geo_point_2d":{"lon":-0.5706743914001468,"lat":44.84059252540415},"gid":"48","geom_err":null,"nom":"Vieux Bordeaux-Pas Saint Georges","type":["MATERNELLE","ELEMENTAIRE"],"insee":["33063"],"cdate":"2020-02-20T23:00:00+00:00","mdate":"2020-02-20T23:00:00+00:00"}},{"type":"Feature","geometry":{"coordinates":[[[-0.5484,44.859816],[-0.543066,44.86397],[-0.542034,44.866595],[-0.554778,44.868944],[-0.555253,44.868346],[-0.556545,44.869208],[-0.559637,44.866837],[-0.5484,44.859816]]],"type":"Polygon"},"properties":{"geo_point_2d":{"lon":-0.550375574245003,"lat":44.865108592337286},"gid":"53","geom_err":null,"nom":"Bassins A Flot 2","type":["MATERNELLE","ELEMENTAIRE"],"insee":["33063"],"cdate":"2020-02-20T23:00:00+00:00","mdate":"2020-02-20T23:00:00+00:00"}},{"type":"Feature","geometry":{"coordinates":[[[-0.554069,44.82983],[-0.554931,44.82855],[-0.556681,44.823503],[-0.558845,44.82021],[-0.561064,44.818413],[-0.565726,44.816609],[-0.563055,44.816133],[-0.559877,44.813797],[-0.559481,44.812469],[-0.557842,44.812311],[-0.556544,44.812652],[-0.537603,44.822817],[-0.545216,44.828239],[-0.552167,44.83175],[-0.554069,44.82983]]],"type":"Polygon"},"properties":{"geo_point_2d":{"lon":-0.5512261674602762,"lat":44.8216996383258},"gid":"24","geom_err":null,"nom":"Belcier","type":["MATERNELLE","ELEMENTAIRE"],"insee":["33063"],"cdate":"2020-02-20T23:00:00+00:00","mdate":"2020-02-20T23:00:00+00:00"}},{"type":"Feature","geometry":{"coordinates":[[[-0.550803,44.845811],[-0.552866,44.844542],[-0.548492,44.840873],[-0.547743,44.841033],[-0.547917,44.838136],[-0.545849,44.837976],[-0.540041,44.843833],[-0.539983,44.844281],[-0.541265,44.844598],[-0.540809,44.846244],[-0.545557,44.849392],[-0.546906,44.84856],[-0.547855,44.849127],[-0.548981,44.848379],[-0.549652,44.848852],[-0.551341,44.847664],[-0.549813,44.846418],[-0.550803,44.845811]]],"type":"Polygon"},"properties":{"geo_point_2d":{"lon":-0.5462057318106953,"lat":44.844189587382495},"gid":"17","geom_err":null,"nom":"Benauge","type":["MATERNELLE","ELEMENTAIRE"],"insee":["33063"],"cdate":"2020-02-20T23:00:00+00:00","mdate":"2020-02-20T23:00:00+00:00"}},{"type":"Feature","geometry":{"coordinates":[[[-0.606452,44.853082],[-0.604839,44.853878],[-0.604535,44.855359],[-0.601048,44.855529],[-0.60342,44.857357],[-0.606387,44.858867],[-0.608246,44.857155],[-0.609404,44.855494],[-0.613702,44.85551],[-0.614263,44.85513],[-0.620184,44.856889],[-0.62102,44.854136],[-0.62186,44.853342],[-0.620875,44.8528],[-0.621646,44.851649],[-0.61949,44.851371],[-0.619468,44.85036],[-0.620076,44.849391],[-0.618304,44.848303],[-0.616469,44.848489],[-0.613466,44.847522],[-0.612737,44.846093],[-0.612431,44.846526],[-0.611776,44.846303],[-0.611387,44.847313],[-0.609946,44.847136],[-0.609353,44.848931],[-0.607971,44.850844],[-0.606544,44.850425],[-0.605263,44.852603],[-0.606452,44.853082]]],"type":"Polygon"},"properties":{"geo_point_2d":{"lon":-0.6124963157811584,"lat":44.852660191356456},"gid":"45","geom_err":null,"nom":"Saint Andre","type":["MATERNELLE","ELEMENTAIRE"],"insee":["33063"],"cdate":"2020-02-20T23:00:00+00:00","mdate":"2020-02-20T23:00:00+00:00"}},{"type":"Feature","geometry":{"coordinates":[[[-0.577459,44.817656],[-0.575744,44.816563],[-0.57485,44.815303],[-0.574126,44.812909],[-0.573625,44.812753],[-0.573907,44.810783],[-0.57126,44.811175],[-0.56737,44.812557],[-0.565391,44.812536],[-0.564416,44.813276],[-0.559481,44.812469],[-0.559877,44.813797],[-0.563055,44.816133],[-0.565957,44.816721],[-0.566158,44.81911],[-0.565815,44.821183],[-0.572084,44.819452],[-0.572335,44.819439],[-0.572432,44.821162],[-0.574465,44.821058],[-0.577626,44.820521],[-0.577513,44.820171],[-0.57934,44.820051],[-0.579052,44.818664],[-0.577459,44.817656]]],"type":"Polygon"},"properties":{"geo_point_2d":{"lon":-0.5700738390667344,"lat":44.8162361823244},"gid":"25","geom_err":null,"nom":"Somme-Paul Antin","type":["MATERNELLE","ELEMENTAIRE"],"insee":["33063"],"cdate":"2020-02-20T23:00:00+00:00","mdate":"2023-02-12T23:00:00+00:00"}},{"type":"Feature","geometry":{"coordinates":[[[-0.592941,44.823243],[-0.58923,44.82538],[-0.592242,44.827356],[-0.590657,44.827799],[-0.593601,44.831244],[-0.594823,44.833273],[-0.598723,44.833221],[-0.598609,44.832013],[-0.602529,44.831329],[-0.603165,44.829756],[-0.601667,44.827188],[-0.599845,44.826606],[-0.596236,44.826625],[-0.59463,44.822668],[-0.593717,44.822113],[-0.592941,44.823243]]],"type":"Polygon"},"properties":{"geo_point_2d":{"lon":-0.5962204460668963,"lat":44.828474883533005},"gid":"23","geom_err":null,"nom":"Albert Thomas","type":["MATERNELLE","ELEMENTAIRE"],"insee":["33063"],"cdate":"2020-02-20T23:00:00+00:00","mdate":"2020-02-20T23:00:00+00:00"}},{"type":"Feature","geometry":{"coordinates":[[[-0.572445,44.821378],[-0.572564,44.825288],[-0.571061,44.825236],[-0.571329,44.825694],[-0.571457,44.828104],[-0.571732,44.828117],[-0.571546,44.82911],[-0.572545,44.829129],[-0.572578,44.828544],[-0.57873,44.828854],[-0.578838,44.828352],[-0.579411,44.828401],[-0.580628,44.826065],[-0.57784,44.82543],[-0.580106,44.823162],[-0.577992,44.821372],[-0.577626,44.820521],[-0.572432,44.821162],[-0.572445,44.821378]]],"type":"Polygon"},"properties":{"geo_point_2d":{"lon":-0.5756759460470066,"lat":44.82506115152371},"gid":"2","geom_err":null,"nom":"Deyries Sablieres-Argonne","type":["MATERNELLE","ELEMENTAIRE"],"insee":["33063"],"cdate":"2020-02-20T23:00:00+00:00","mdate":"2020-02-20T23:00:00+00:00"}},{"type":"Feature","geometry":{"coordinates":[[[-0.592399,44.833331],[-0.586262,44.835012],[-0.587253,44.836495],[-0.587505,44.837864],[-0.586004,44.837997],[-0.586339,44.839779],[-0.585198,44.841459],[-0.592202,44.840908],[-0.594227,44.842157],[-0.595532,44.842061],[-0.596419,44.840435],[-0.596754,44.84041],[-0.597515,44.838482],[-0.599183,44.838431],[-0.598723,44.833221],[-0.592399,44.833331]]],"type":"Polygon"},"properties":{"geo_point_2d":{"lon":-0.59267598022692,"lat":44.837394693559396},"gid":"37","geom_err":null,"nom":"Saint Bruno","type":["MATERNELLE","ELEMENTAIRE"],"insee":["33063"],"cdate":"2020-02-20T23:00:00+00:00","mdate":"2020-02-20T23:00:00+00:00"}},{"type":"Feature","geometry":{"coordinates":[[[-0.615618,44.839461],[-0.615273,44.838452],[-0.610012,44.838171],[-0.605027,44.836435],[-0.602944,44.836219],[-0.601338,44.836475],[-0.601659,44.835159],[-0.598893,44.83513],[-0.599183,44.838431],[-0.597515,44.838482],[-0.596754,44.84041],[-0.612037,44.83939],[-0.613391,44.841552],[-0.615807,44.839561],[-0.615618,44.839461]]],"type":"Polygon"},"properties":{"geo_point_2d":{"lon":-0.6050396777065439,"lat":44.83845920698118},"gid":"13","geom_err":null,"nom":"Belair-Bernard Adour","type":["MATERNELLE","ELEMENTAIRE"],"insee":["33063"],"cdate":"2020-02-20T23:00:00+00:00","mdate":"2020-02-20T23:00:00+00:00"}},{"type":"Feature","geometry":{"coordinates":[[[-0.625131,44.847558],[-0.622704,44.847485],[-0.621237,44.847106],[-0.619468,44.85036],[-0.61949,44.851371],[-0.621646,44.851649],[-0.620875,44.8528],[-0.62186,44.853342],[-0.62102,44.854136],[-0.620184,44.856889],[-0.62364,44.858165],[-0.62849,44.858741],[-0.634086,44.859926],[-0.636035,44.857689],[-0.637335,44.858198],[-0.638563,44.856837],[-0.636957,44.85615],[-0.637384,44.855175],[-0.636055,44.855053],[-0.636447,44.853761],[-0.63707,44.853776],[-0.637142,44.851995],[-0.632116,44.851444],[-0.633551,44.848325],[-0.63276,44.848001],[-0.632972,44.846988],[-0.633488,44.846375],[-0.631194,44.846489],[-0.627225,44.847673],[-0.625131,44.847558]]],"type":"Polygon"},"properties":{"geo_point_2d":{"lon":-0.6284626759370324,"lat":44.853311511628746},"gid":"30","geom_err":null,"nom":"Stehelin Elementaire","type":["ELEMENTAIRE"],"insee":["33063"],"cdate":"2020-02-20T23:00:00+00:00","mdate":"2020-02-20T23:00:00+00:00"}},{"type":"Feature","geometry":{"coordinates":[[[-0.598921,44.854459],[-0.601048,44.855529],[-0.604535,44.855359],[-0.604839,44.853878],[-0.606533,44.852908],[-0.605263,44.852603],[-0.606544,44.850425],[-0.607971,44.850844],[-0.609353,44.848931],[-0.609946,44.847136],[-0.602099,44.845937],[-0.598162,44.846051],[-0.597238,44.848295],[-0.593666,44.85312],[-0.598921,44.854459]]],"type":"Polygon"},"properties":{"geo_point_2d":{"lon":-0.601784781167539,"lat":44.85047546731786},"gid":"12","geom_err":null,"nom":"Jean Cocteau","type":["MATERNELLE","ELEMENTAIRE"],"insee":["33063"],"cdate":"2020-02-20T23:00:00+00:00","mdate":"2020-02-20T23:00:00+00:00"}},{"type":"Feature","geometry":{"coordinates":[[[-0.606452,44.853082],[-0.604839,44.853878],[-0.604535,44.855359],[-0.601048,44.855529],[-0.60342,44.857357],[-0.606387,44.858867],[-0.608246,44.857155],[-0.609404,44.855494],[-0.613702,44.85551],[-0.614263,44.85513],[-0.620184,44.856889],[-0.62102,44.854136],[-0.62186,44.853342],[-0.620875,44.8528],[-0.621646,44.851649],[-0.61949,44.851371],[-0.619468,44.85036],[-0.620076,44.849391],[-0.618304,44.848303],[-0.616469,44.848489],[-0.613466,44.847522],[-0.612737,44.846093],[-0.612431,44.846526],[-0.611776,44.846303],[-0.611387,44.847313],[-0.609946,44.847136],[-0.609353,44.848931],[-0.607971,44.850844],[-0.606544,44.850425],[-0.605263,44.852603],[-0.606452,44.853082]]],"type":"Polygon"},"properties":{"geo_point_2d":{"lon":-0.6124963157811584,"lat":44.852660191356456},"gid":"38","geom_err":null,"nom":"Paul Lapie","type":["MATERNELLE","ELEMENTAIRE"],"insee":["33063"],"cdate":"2020-02-20T23:00:00+00:00","mdate":"2020-02-20T23:00:00+00:00"}},{"type":"Feature","geometry":{"coordinates":[[[-0.616327,44.85575],[-0.614263,44.85513],[-0.613702,44.85551],[-0.609404,44.855494],[-0.608246,44.857155],[-0.606387,44.858867],[-0.608715,44.859933],[-0.614029,44.860953],[-0.618514,44.863307],[-0.619783,44.856803],[-0.616327,44.85575]]],"type":"Polygon"},"properties":{"geo_point_2d":{"lon":-0.6140089137065395,"lat":44.85853977969145},"gid":"40","geom_err":null,"nom":"Paul Doumer","type":["MATERNELLE","ELEMENTAIRE"],"insee":["33063"],"cdate":"2020-02-20T23:00:00+00:00","mdate":"2020-02-20T23:00:00+00:00"}},{"type":"Feature","geometry":{"coordinates":[[[-0.631015,44.871619],[-0.632972,44.866551],[-0.63405,44.865361],[-0.632068,44.864775],[-0.631269,44.864216],[-0.631442,44.863853],[-0.633345,44.861914],[-0.63473,44.862397],[-0.636568,44.860495],[-0.638314,44.860722],[-0.638673,44.859999],[-0.638266,44.859939],[-0.638701,44.859163],[-0.637007,44.858578],[-0.637335,44.858198],[-0.636035,44.857689],[-0.634086,44.859926],[-0.62849,44.858741],[-0.62364,44.858165],[-0.619783,44.856803],[-0.618514,44.863307],[-0.620096,44.863955],[-0.623675,44.866772],[-0.631015,44.871619]]],"type":"Polygon"},"properties":{"geo_point_2d":{"lon":-0.6274041376273152,"lat":44.863048356830674},"gid":"26","geom_err":null,"nom":"Pins Francs","type":["MATERNELLE","ELEMENTAIRE"],"insee":["33063"],"cdate":"2020-02-20T23:00:00+00:00","mdate":"2020-02-20T23:00:00+00:00"}},{"type":"Feature","geometry":{"coordinates":[[[-0.6307,44.845618],[-0.63044,44.845509],[-0.631544,44.844044],[-0.629317,44.843637],[-0.628492,44.840562],[-0.627885,44.84027],[-0.627623,44.839585],[-0.626847,44.838911],[-0.625611,44.838765],[-0.62541,44.839512],[-0.626168,44.841097],[-0.625243,44.843682],[-0.62695,44.844462],[-0.627371,44.845152],[-0.625464,44.847541],[-0.627861,44.847564],[-0.632008,44.846412],[-0.632266,44.846269],[-0.6307,44.845618]]],"type":"Polygon"},"properties":{"geo_point_2d":{"lon":-0.627943830432608,"lat":44.8437330063143},"gid":"34","geom_err":null,"nom":"Clos Montesquieu Maternelle","type":["MATERNELLE"],"insee":["33063"],"cdate":"2020-02-20T23:00:00+00:00","mdate":"2020-02-20T23:00:00+00:00"}},{"type":"Feature","geometry":{"coordinates":[[[-0.558673,44.911869],[-0.553479,44.902826],[-0.552346,44.899182],[-0.550803,44.896311],[-0.565772,44.895442],[-0.565589,44.89279],[-0.56679,44.892733],[-0.566672,44.891503],[-0.565644,44.891541],[-0.564878,44.891956],[-0.560913,44.890031],[-0.559577,44.888552],[-0.561036,44.884847],[-0.554179,44.883017],[-0.553423,44.878944],[-0.544994,44.876389],[-0.545519,44.875422],[-0.54245,44.874914],[-0.53981,44.873988],[-0.536349,44.88031],[-0.535554,44.885655],[-0.535466,44.889138],[-0.535796,44.890985],[-0.538742,44.899333],[-0.54329,44.908757],[-0.547425,44.916178],[-0.550255,44.915434],[-0.550744,44.914507],[-0.551523,44.914093],[-0.554009,44.915015],[-0.557373,44.913762],[-0.560334,44.914067],[-0.561066,44.913487],[-0.559498,44.912779],[-0.558673,44.911869]]],"type":"Polygon"},"properties":{"geo_point_2d":{"lon":-0.548140919115333,"lat":44.89387968778992},"gid":"49","geom_err":null,"nom":"Anne Sylvestre-Le Point Du Jour","type":["MATERNELLE","ELEMENTAIRE"],"insee":["33063"],"cdate":"2020-02-20T23:00:00+00:00","mdate":"2020-02-20T23:00:00+00:00"}},{"type":"Feature","geometry":{"coordinates":[[[-0.546771,44.873044],[-0.546873,44.872786],[-0.549405,44.87343],[-0.549828,44.872318],[-0.551061,44.872492],[-0.550529,44.873856],[-0.552873,44.874457],[-0.553311,44.873595],[-0.554247,44.873529],[-0.553544,44.874624],[-0.553516,44.875354],[-0.565261,44.870351],[-0.559637,44.866837],[-0.556545,44.869208],[-0.555253,44.868346],[-0.554778,44.868944],[-0.542034,44.866595],[-0.541378,44.868265],[-0.540839,44.871935],[-0.53981,44.873988],[-0.54245,44.874914],[-0.545519,44.875422],[-0.546771,44.873044]]],"type":"Polygon"},"properties":{"geo_point_2d":{"lon":-0.5510278432426577,"lat":44.870890967643184},"gid":"31","geom_err":null,"nom":"Achard","type":["MATERNELLE","ELEMENTAIRE"],"insee":["33063"],"cdate":"2020-02-20T23:00:00+00:00","mdate":"2020-02-20T23:00:00+00:00"}},{"type":"Feature","geometry":{"coordinates":[[[-0.570059,44.861028],[-0.56688,44.858316],[-0.560308,44.862965],[-0.563537,44.864634],[-0.561232,44.865891],[-0.56664,44.869726],[-0.57571,44.865995],[-0.570059,44.861028]]],"type":"Polygon"},"properties":{"geo_point_2d":{"lon":-0.5675925225380932,"lat":44.86437139387384},"gid":"16","geom_err":null,"nom":"Aristide Sousa Mendes","type":["MATERNELLE","ELEMENTAIRE"],"insee":["33063"],"cdate":"2020-02-20T23:00:00+00:00","mdate":"2020-02-20T23:00:00+00:00"}},{"type":"Feature","geometry":{"coordinates":[[[-0.606758,44.821792],[-0.605029,44.81967],[-0.60386,44.820005],[-0.602998,44.818328],[-0.601199,44.81881],[-0.599249,44.818766],[-0.595684,44.820561],[-0.593717,44.822113],[-0.59463,44.822668],[-0.596236,44.826625],[-0.599845,44.826606],[-0.601667,44.827188],[-0.604028,44.827191],[-0.608575,44.826305],[-0.611254,44.82665],[-0.611243,44.82703],[-0.612719,44.826946],[-0.612688,44.826671],[-0.61377,44.826494],[-0.614091,44.825306],[-0.614976,44.825292],[-0.615036,44.823072],[-0.61317,44.823109],[-0.613146,44.822514],[-0.611886,44.822885],[-0.610181,44.822257],[-0.609656,44.822379],[-0.608466,44.821371],[-0.606758,44.821792]]],"type":"Polygon"},"properties":{"geo_point_2d":{"lon":-0.6035855023157978,"lat":44.823455090189114},"gid":"35","geom_err":null,"nom":"Loucheur-Bechade","type":["MATERNELLE","ELEMENTAIRE"],"insee":["33063"],"cdate":"2020-02-20T23:00:00+00:00","mdate":"2020-02-20T23:00:00+00:00"}},{"type":"Feature","geometry":{"coordinates":[[[-0.555821,44.842731],[-0.562821,44.838436],[-0.557392,44.834523],[-0.545216,44.828239],[-0.537603,44.822817],[-0.534653,44.824421],[-0.536647,44.826179],[-0.533684,44.827842],[-0.548064,44.835715],[-0.545849,44.837976],[-0.547917,44.838136],[-0.547743,44.841033],[-0.548492,44.840873],[-0.552866,44.844542],[-0.555821,44.842731]]],"type":"Polygon"},"properties":{"geo_point_2d":{"lon":-0.5486507151220588,"lat":44.83415853294986},"gid":"18","geom_err":null,"nom":"Montaud-Nuits-Franc Sanson","type":["MATERNELLE","ELEMENTAIRE"],"insee":["33063"],"cdate":"2020-02-20T23:00:00+00:00","mdate":"2025-07-03T22:00:00+00:00"}},{"type":"Feature","geometry":{"coordinates":[[[-0.572432,44.821162],[-0.572335,44.819439],[-0.565815,44.821183],[-0.5658,44.823578],[-0.56723,44.825719],[-0.567839,44.828499],[-0.569507,44.828645],[-0.569991,44.829081],[-0.571546,44.82911],[-0.571732,44.828117],[-0.571457,44.828104],[-0.571329,44.825694],[-0.571061,44.825236],[-0.572564,44.825288],[-0.572432,44.821162]]],"type":"Polygon"},"properties":{"geo_point_2d":{"lon":-0.5694544036420437,"lat":44.823999182215424},"gid":"19","geom_err":null,"nom":"Cazemajor-Yser","type":["MATERNELLE","ELEMENTAIRE"],"insee":["33063"],"cdate":"2020-02-20T23:00:00+00:00","mdate":"2023-02-12T23:00:00+00:00"}},{"type":"Feature","geometry":{"coordinates":[[[-0.627371,44.845152],[-0.62695,44.844462],[-0.625243,44.843682],[-0.626168,44.841097],[-0.62541,44.839512],[-0.625611,44.838765],[-0.615273,44.838452],[-0.615807,44.839561],[-0.613391,44.841552],[-0.614451,44.842546],[-0.61445,44.84562],[-0.613009,44.846188],[-0.613466,44.847522],[-0.616469,44.848489],[-0.618304,44.848303],[-0.620076,44.849391],[-0.621237,44.847106],[-0.622704,44.847485],[-0.625464,44.847541],[-0.627371,44.845152]]],"type":"Polygon"},"properties":{"geo_point_2d":{"lon":-0.6200348236867972,"lat":44.84352864702064},"gid":"4","geom_err":null,"nom":"Raymond Poincare Maternelle","type":["MATERNELLE"],"insee":["33063"],"cdate":"2020-02-20T23:00:00+00:00","mdate":"2020-02-20T23:00:00+00:00"}},{"type":"Feature","geometry":{"coordinates":[[[-0.574597,44.834829],[-0.573325,44.834697],[-0.572982,44.832531],[-0.571203,44.832596],[-0.571526,44.835009],[-0.566587,44.836206],[-0.567051,44.836485],[-0.56967,44.835845],[-0.570811,44.836676],[-0.570931,44.837797],[-0.573802,44.83759],[-0.574035,44.839037],[-0.57594,44.83887],[-0.576421,44.840952],[-0.576338,44.841921],[-0.578428,44.841774],[-0.577423,44.837101],[-0.578893,44.836872],[-0.578521,44.834614],[-0.574597,44.834829]]],"type":"Polygon"},"properties":{"geo_point_2d":{"lon":-0.5745356588047807,"lat":44.836762343888445},"gid":"36","geom_err":null,"nom":"Paul Bert","type":["MATERNELLE","ELEMENTAIRE"],"insee":["33063"],"cdate":"2020-02-20T23:00:00+00:00","mdate":"2020-02-20T23:00:00+00:00"}},{"type":"Feature","geometry":{"coordinates":[[[-0.566737,44.853669],[-0.564334,44.851807],[-0.561648,44.853648],[-0.56688,44.858316],[-0.570111,44.856055],[-0.566737,44.853669]]],"type":"Polygon"},"properties":{"geo_point_2d":{"lon":-0.5657925824232717,"lat":44.855059175751414},"gid":"7","geom_err":null,"nom":"Stendhal","type":["MATERNELLE","ELEMENTAIRE"],"insee":["33063"],"cdate":"2020-02-20T23:00:00+00:00","mdate":"2020-02-20T23:00:00+00:00"}},{"type":"Feature","geometry":{"coordinates":[[[-0.556742,44.859241],[-0.560308,44.862965],[-0.56688,44.858316],[-0.561648,44.853648],[-0.554759,44.856994],[-0.556742,44.859241]]],"type":"Polygon"},"properties":{"geo_point_2d":{"lon":-0.5608191219704348,"lat":44.85813391363144},"gid":"5","geom_err":null,"nom":"Dupaty-Josephine","type":["MATERNELLE","ELEMENTAIRE"],"insee":["33063"],"cdate":"2020-02-20T23:00:00+00:00","mdate":"2020-02-20T23:00:00+00:00"}},{"type":"Feature","geometry":{"coordinates":[[[-0.593587,44.853898],[-0.591385,44.85244],[-0.583121,44.855061],[-0.589566,44.859337],[-0.593587,44.853898]]],"type":"Polygon"},"properties":{"geo_point_2d":{"lon":-0.5889547333164753,"lat":44.85547269272193},"gid":"51","geom_err":null,"nom":"Tivoli Riviere","type":["MATERNELLE","ELEMENTAIRE"],"insee":["33063"],"cdate":"2020-02-20T23:00:00+00:00","mdate":"2020-02-20T23:00:00+00:00"}},{"type":"Feature","geometry":{"coordinates":[[[-0.590562,44.827825],[-0.584861,44.829947],[-0.583753,44.831273],[-0.582799,44.831715],[-0.583896,44.832912],[-0.584182,44.832754],[-0.586262,44.835012],[-0.591844,44.833422],[-0.594823,44.833273],[-0.593601,44.831244],[-0.590562,44.827825]]],"type":"Polygon"},"properties":{"geo_point_2d":{"lon":-0.5887522525307276,"lat":44.83154231503435},"gid":"43","geom_err":null,"nom":"Alphonse Dupeux","type":["MATERNELLE","ELEMENTAIRE"],"insee":["33063"],"cdate":"2020-02-20T23:00:00+00:00","mdate":"2020-02-20T23:00:00+00:00"}},{"type":"Feature","geometry":{"coordinates":[[[-0.5484,44.859816],[-0.565261,44.870351],[-0.566703,44.869632],[-0.56126,44.865931],[-0.563537,44.864634],[-0.56014,44.862892],[-0.554759,44.856994],[-0.5484,44.859816]]],"type":"Polygon"},"properties":{"geo_point_2d":{"lon":-0.5570288862319525,"lat":44.862822334627154},"gid":"52","geom_err":null,"nom":"Jean-Jacques Sempe","type":["MATERNELLE","ELEMENTAIRE"],"insee":["33063"],"cdate":"2020-02-20T23:00:00+00:00","mdate":"2020-02-20T23:00:00+00:00"}},{"type":"Feature","geometry":{"coordinates":[[[-0.565841,44.823675],[-0.565794,44.820588],[-0.566189,44.817598],[-0.565726,44.816609],[-0.563421,44.817292],[-0.56041,44.818847],[-0.558179,44.821035],[-0.556681,44.823503],[-0.562959,44.825262],[-0.565841,44.823675]]],"type":"Polygon"},"properties":{"geo_point_2d":{"lon":-0.5623001646501992,"lat":44.82124706106226},"gid":"11","geom_err":null,"nom":"Francin-Fieffe","type":["MATERNELLE","ELEMENTAIRE"],"insee":["33063"],"cdate":"2020-02-20T23:00:00+00:00","mdate":"2025-07-03T22:00:00+00:00"}},{"type":"Feature","geometry":{"coordinates":[[[-0.610015,44.834855],[-0.61138,44.833229],[-0.613086,44.832317],[-0.613684,44.831545],[-0.613924,44.82975],[-0.612719,44.826946],[-0.611243,44.82703],[-0.611254,44.82665],[-0.608575,44.826305],[-0.604028,44.827191],[-0.601846,44.827087],[-0.601667,44.827188],[-0.603165,44.829756],[-0.602529,44.831329],[-0.598609,44.832013],[-0.598893,44.83513],[-0.601659,44.835159],[-0.601338,44.836475],[-0.603373,44.836237],[-0.6068,44.836966],[-0.608473,44.836799],[-0.608985,44.836599],[-0.610015,44.834855]]],"type":"Polygon"},"properties":{"geo_point_2d":{"lon":-0.6067009761465597,"lat":44.83155293462799},"gid":"21","geom_err":null,"nom":"Flornoy","type":["MATERNELLE","ELEMENTAIRE"],"insee":["33063"],"cdate":"2020-02-20T23:00:00+00:00","mdate":"2020-02-20T23:00:00+00:00"}},{"type":"Feature","geometry":{"coordinates":[[[-0.625131,44.847558],[-0.622704,44.847485],[-0.621237,44.847106],[-0.619468,44.85036],[-0.61949,44.851371],[-0.621646,44.851649],[-0.620875,44.8528],[-0.62186,44.853342],[-0.62102,44.854136],[-0.620184,44.856889],[-0.62364,44.858165],[-0.62849,44.858741],[-0.634086,44.859926],[-0.636035,44.857689],[-0.637335,44.858198],[-0.638563,44.856837],[-0.636957,44.85615],[-0.637384,44.855175],[-0.636055,44.855053],[-0.636447,44.853761],[-0.63707,44.853776],[-0.637142,44.851995],[-0.632116,44.851444],[-0.633551,44.848325],[-0.63276,44.848001],[-0.632972,44.846988],[-0.633488,44.846375],[-0.631194,44.846489],[-0.627225,44.847673],[-0.625131,44.847558]]],"type":"Polygon"},"properties":{"geo_point_2d":{"lon":-0.6284626759370324,"lat":44.853311511628746},"gid":"50","geom_err":null,"nom":"Stehelin Maternelle","type":["MATERNELLE"],"insee":["33063"],"cdate":"2020-02-20T23:00:00+00:00","mdate":"2020-02-20T23:00:00+00:00"}},{"type":"Feature","geometry":{"coordinates":[[[-0.559595,44.854706],[-0.565401,44.851076],[-0.567037,44.849001],[-0.567781,44.846449],[-0.566126,44.841124],[-0.562821,44.838436],[-0.549813,44.846418],[-0.551341,44.847664],[-0.551111,44.847826],[-0.557099,44.852063],[-0.559595,44.854706]]],"type":"Polygon"},"properties":{"geo_point_2d":{"lon":-0.5601991762376907,"lat":44.84656195012542},"gid":"22","geom_err":null,"nom":"Nuyens","type":["MATERNELLE","ELEMENTAIRE"],"insee":["33063"],"cdate":"2020-02-20T23:00:00+00:00","mdate":"2025-07-03T22:00:00+00:00"}},{"type":"Feature","geometry":{"coordinates":[[[-0.568556,44.828559],[-0.567839,44.828499],[-0.56723,44.825719],[-0.565841,44.823675],[-0.562959,44.825262],[-0.556681,44.823503],[-0.555397,44.826963],[-0.569008,44.83002],[-0.569597,44.828694],[-0.568556,44.828559]]],"type":"Polygon"},"properties":{"geo_point_2d":{"lon":-0.5624122032242738,"lat":44.82659872783878},"gid":"6","geom_err":null,"nom":"Barbey","type":["MATERNELLE","ELEMENTAIRE"],"insee":["33063"],"cdate":"2020-02-20T23:00:00+00:00","mdate":"2025-07-03T22:00:00+00:00"}},{"type":"Feature","geometry":{"coordinates":[[[-0.551111,44.847826],[-0.543097,44.853183],[-0.540347,44.856044],[-0.53902,44.855898],[-0.538793,44.859077],[-0.536978,44.866509],[-0.53689,44.868432],[-0.541378,44.868265],[-0.543066,44.86397],[-0.5484,44.859816],[-0.559595,44.854706],[-0.557099,44.852063],[-0.551111,44.847826]]],"type":"Polygon"},"properties":{"geo_point_2d":{"lon":-0.5467054087467959,"lat":44.857218356759844},"gid":"89","geom_err":null,"nom":"Elsa Triolet","type":["MATERNELLE","ELEMENTAIRE"],"insee":["33063"],"cdate":"2025-07-03T22:00:00+00:00","mdate":"2025-07-03T22:00:00+00:00"}},{"type":"Feature","geometry":{"coordinates":[[[-0.552686,44.878706],[-0.553379,44.875932],[-0.553967,44.875547],[-0.553349,44.875269],[-0.554247,44.873529],[-0.553311,44.873595],[-0.552873,44.874457],[-0.550529,44.873856],[-0.551061,44.872492],[-0.549828,44.872318],[-0.549405,44.87343],[-0.546873,44.872786],[-0.544994,44.876389],[-0.552686,44.878706]]],"type":"Polygon"},"properties":{"geo_point_2d":{"lon":-0.5497483494536306,"lat":44.87555583826749},"gid":"20","geom_err":null,"nom":"Charles Martin","type":["MATERNELLE","ELEMENTAIRE"],"insee":["33063"],"cdate":"2020-02-20T23:00:00+00:00","mdate":"2020-02-20T23:00:00+00:00"}},{"type":"Feature","geometry":{"coordinates":[[[-0.570966,44.832504],[-0.570042,44.831642],[-0.567118,44.831238],[-0.565888,44.831417],[-0.56348,44.833779],[-0.559786,44.836248],[-0.562821,44.838436],[-0.567137,44.83598],[-0.571526,44.835009],[-0.571203,44.832596],[-0.570966,44.832504]]],"type":"Polygon"},"properties":{"geo_point_2d":{"lon":-0.5660369679760273,"lat":44.834554341780304},"gid":"39","geom_err":null,"nom":"Menuts","type":["MATERNELLE","ELEMENTAIRE"],"insee":["33063"],"cdate":"2020-02-20T23:00:00+00:00","mdate":"2020-02-20T23:00:00+00:00"}},{"type":"Feature","geometry":{"coordinates":[[[-0.584332,44.862675],[-0.587752,44.861251],[-0.589566,44.859337],[-0.587539,44.857945],[-0.581554,44.860705],[-0.580918,44.860088],[-0.579906,44.86056],[-0.579169,44.860223],[-0.575127,44.860803],[-0.575812,44.866035],[-0.584332,44.862675]]],"type":"Polygon"},"properties":{"geo_point_2d":{"lon":-0.5814551127643163,"lat":44.86181104321199},"gid":"32","geom_err":null,"nom":"Albert Schweitzer Elementaire","type":["ELEMENTAIRE"],"insee":["33063"],"cdate":"2020-02-20T23:00:00+00:00","mdate":"2020-02-20T23:00:00+00:00"}},{"type":"Feature","geometry":{"coordinates":[[[-0.567291,44.844433],[-0.567781,44.846449],[-0.566671,44.849465],[-0.5739,44.851641],[-0.574036,44.851419],[-0.574845,44.85166],[-0.574443,44.852309],[-0.574703,44.854906],[-0.582899,44.854864],[-0.580013,44.853101],[-0.580466,44.852761],[-0.579523,44.850457],[-0.578841,44.850601],[-0.575268,44.849489],[-0.577745,44.845472],[-0.577449,44.845001],[-0.576694,44.845003],[-0.574983,44.843772],[-0.567291,44.844433]]],"type":"Polygon"},"properties":{"geo_point_2d":{"lon":-0.5738521329822401,"lat":44.84905661379229},"gid":"9","geom_err":null,"nom":"Montgolfier","type":["MATERNELLE","ELEMENTAIRE"],"insee":["33063"],"cdate":"2020-02-20T23:00:00+00:00","mdate":"2020-02-20T23:00:00+00:00"}},{"type":"Feature","geometry":{"coordinates":[[[-0.587483,44.857965],[-0.581554,44.860705],[-0.582446,44.861768],[-0.582219,44.86197],[-0.583302,44.863074],[-0.588085,44.861026],[-0.589566,44.859337],[-0.587483,44.857965]]],"type":"Polygon"},"properties":{"geo_point_2d":{"lon":-0.5855637355913598,"lat":44.860495500307316},"gid":"10","geom_err":null,"nom":"Pierre Trebod Maternelle","type":["MATERNELLE"],"insee":["33063"],"cdate":"2020-02-20T23:00:00+00:00","mdate":"2020-02-20T23:00:00+00:00"}},{"type":"Feature","geometry":{"coordinates":[[[-0.570741,44.850596],[-0.566671,44.849465],[-0.565401,44.851076],[-0.564334,44.851807],[-0.570111,44.856055],[-0.56688,44.858316],[-0.57571,44.865995],[-0.575127,44.860803],[-0.573798,44.861369],[-0.572875,44.860291],[-0.574181,44.859795],[-0.575075,44.860364],[-0.574503,44.855045],[-0.57472,44.855045],[-0.574443,44.852309],[-0.574845,44.85166],[-0.574036,44.851419],[-0.5739,44.851641],[-0.570741,44.850596]]],"type":"Polygon"},"properties":{"geo_point_2d":{"lon":-0.5710934565116289,"lat":44.85623360852965},"gid":"29","geom_err":null,"nom":"Balguerie-Paul Berthelot","type":["MATERNELLE","ELEMENTAIRE"],"insee":["33063"],"cdate":"2020-02-20T23:00:00+00:00","mdate":"2020-02-20T23:00:00+00:00"}},{"type":"Feature","geometry":{"coordinates":[[[-0.582779,44.862554],[-0.582215,44.861961],[-0.582446,44.861768],[-0.580918,44.860088],[-0.579906,44.86056],[-0.579169,44.860223],[-0.575127,44.860803],[-0.57571,44.865995],[-0.583302,44.863074],[-0.582779,44.862554]]],"type":"Polygon"},"properties":{"geo_point_2d":{"lon":-0.5785854299538533,"lat":44.862729889019704},"gid":"3","geom_err":null,"nom":"Albert Schweitzer Maternelle","type":["MATERNELLE"],"insee":["33063"],"cdate":"2020-02-20T23:00:00+00:00","mdate":"2020-02-20T23:00:00+00:00"}},{"type":"Feature","geometry":{"coordinates":[[[-0.569074,44.829873],[-0.555397,44.826963],[-0.554478,44.829347],[-0.552167,44.83175],[-0.557392,44.834523],[-0.559786,44.836248],[-0.56348,44.833779],[-0.565888,44.831417],[-0.567118,44.831238],[-0.569554,44.831585],[-0.569733,44.830021],[-0.569074,44.829873]]],"type":"Polygon"},"properties":{"geo_point_2d":{"lon":-0.5600191436629698,"lat":44.83123601937443},"gid":"44","geom_err":null,"nom":"Andre Meunier-Noviciat","type":["MATERNELLE","ELEMENTAIRE"],"insee":["33063"],"cdate":"2020-02-20T23:00:00+00:00","mdate":"2020-02-20T23:00:00+00:00"}},{"type":"Feature","geometry":{"coordinates":[[[-0.569592,44.886918],[-0.571345,44.885048],[-0.57177,44.883294],[-0.573654,44.878869],[-0.577059,44.8773],[-0.57571,44.865995],[-0.56664,44.869726],[-0.559577,44.888552],[-0.560913,44.890031],[-0.564878,44.891956],[-0.565644,44.891541],[-0.567052,44.891403],[-0.567124,44.890683],[-0.566425,44.889969],[-0.566639,44.889546],[-0.568077,44.888541],[-0.569592,44.886918]]],"type":"Polygon"},"properties":{"geo_point_2d":{"lon":-0.5686522751756528,"lat":44.878874381454985},"gid":"27","geom_err":null,"nom":"Lac","type":["MATERNELLE","ELEMENTAIRE"],"insee":["33063"],"cdate":"2020-02-20T23:00:00+00:00","mdate":"2020-02-20T23:00:00+00:00"}},{"type":"Feature","geometry":{"coordinates":[[[-0.580444,44.841835],[-0.578423,44.84491],[-0.578375,44.845414],[-0.583054,44.848766],[-0.590524,44.851885],[-0.593587,44.853898],[-0.594085,44.853202],[-0.593666,44.85312],[-0.597238,44.848295],[-0.598312,44.845677],[-0.595858,44.844856],[-0.596881,44.843938],[-0.595473,44.842455],[-0.596742,44.842248],[-0.596654,44.841912],[-0.594227,44.842157],[-0.592202,44.840908],[-0.580444,44.841835]]],"type":"Polygon"},"properties":{"geo_point_2d":{"lon":-0.5890042399237196,"lat":44.846181830521815},"gid":"46","geom_err":null,"nom":"Albert Barraud-Paix-Naujac","type":["MATERNELLE","ELEMENTAIRE"],"insee":["33063"],"cdate":"2020-02-20T23:00:00+00:00","mdate":"2020-02-20T23:00:00+00:00"}},{"type":"Feature","geometry":{"coordinates":[[[-0.583808,44.821703],[-0.579052,44.818664],[-0.57934,44.820051],[-0.577513,44.820171],[-0.577992,44.821372],[-0.580106,44.823162],[-0.57784,44.82543],[-0.580628,44.826065],[-0.579477,44.828279],[-0.579893,44.828295],[-0.581501,44.829834],[-0.582082,44.830465],[-0.581814,44.830641],[-0.582799,44.831715],[-0.583753,44.831273],[-0.584861,44.829947],[-0.585852,44.829484],[-0.592242,44.827356],[-0.583808,44.821703]]],"type":"Polygon"},"properties":{"geo_point_2d":{"lon":-0.5837047311221266,"lat":44.825564562352625},"gid":"41","geom_err":null,"nom":"Prevert-Solferino","type":["MATERNELLE","ELEMENTAIRE"],"insee":["33063"],"cdate":"2020-02-20T23:00:00+00:00","mdate":"2020-02-20T23:00:00+00:00"}},{"type":"Feature","geometry":{"coordinates":[[[-0.584739,44.856053],[-0.582899,44.854864],[-0.574703,44.854906],[-0.574503,44.855045],[-0.575075,44.860364],[-0.574181,44.859795],[-0.572875,44.860291],[-0.573798,44.861369],[-0.575194,44.860787],[-0.579169,44.860223],[-0.579871,44.860564],[-0.580918,44.860088],[-0.581554,44.860705],[-0.587539,44.857945],[-0.584739,44.856053]]],"type":"Polygon"},"properties":{"geo_point_2d":{"lon":-0.5797968378002906,"lat":44.85774813430329},"gid":"8","geom_err":null,"nom":"Condorcet","type":["MATERNELLE","ELEMENTAIRE"],"insee":["33063"],"cdate":"2020-02-20T23:00:00+00:00","mdate":"2020-02-20T23:00:00+00:00"}},{"type":"Feature","geometry":{"coordinates":[[[-0.53902,44.855898],[-0.540347,44.856044],[-0.543097,44.853183],[-0.549652,44.848852],[-0.548981,44.848379],[-0.547855,44.849127],[-0.546906,44.84856],[-0.545557,44.849392],[-0.540809,44.846244],[-0.541265,44.844598],[-0.539983,44.844281],[-0.538054,44.846403],[-0.53741,44.848302],[-0.537473,44.849879],[-0.53883,44.854343],[-0.53902,44.855898]]],"type":"Polygon"},"properties":{"geo_point_2d":{"lon":-0.5414924947518563,"lat":44.85017931694421},"gid":"28","geom_err":null,"nom":"Thiers","type":["MATERNELLE","ELEMENTAIRE"],"insee":["33063"],"cdate":"2020-02-20T23:00:00+00:00","mdate":"2020-02-20T23:00:00+00:00"}},{"type":"Feature","geometry":{"coordinates":[[[-0.626285,44.847622],[-0.627861,44.847564],[-0.632266,44.846269],[-0.63044,44.845509],[-0.631544,44.844044],[-0.629317,44.843637],[-0.628492,44.840562],[-0.627885,44.84027],[-0.627378,44.839339],[-0.626847,44.838911],[-0.625611,44.838765],[-0.615273,44.838452],[-0.615807,44.839561],[-0.613391,44.841552],[-0.614451,44.842546],[-0.61445,44.84562],[-0.613009,44.846188],[-0.613466,44.847522],[-0.616469,44.848489],[-0.618304,44.848303],[-0.620076,44.849391],[-0.621237,44.847106],[-0.622704,44.847485],[-0.626285,44.847622]]],"type":"Polygon"},"properties":{"geo_point_2d":{"lon":-0.6216869570829534,"lat":44.843571336175486},"gid":"14","geom_err":null,"nom":"Raymond Poincare Elementaire","type":["ELEMENTAIRE"],"insee":["33063"],"cdate":"2020-02-20T23:00:00+00:00","mdate":"2020-02-20T23:00:00+00:00"}},{"type":"Feature","geometry":{"coordinates":[[[-0.57938,44.843355],[-0.580386,44.841848],[-0.585198,44.841459],[-0.586339,44.839779],[-0.586004,44.837997],[-0.587505,44.837864],[-0.587036,44.836096],[-0.584182,44.832754],[-0.580476,44.834963],[-0.580562,44.835255],[-0.578641,44.835355],[-0.578893,44.836872],[-0.577423,44.837101],[-0.578428,44.841774],[-0.577564,44.841831],[-0.577942,44.844685],[-0.578423,44.84491],[-0.57938,44.843355]]],"type":"Polygon"},"properties":{"geo_point_2d":{"lon":-0.5821831699714978,"lat":44.83823986462314},"gid":"47","geom_err":null,"nom":"Anatole France","type":["MATERNELLE","ELEMENTAIRE"],"insee":["33063"],"cdate":"2020-02-20T23:00:00+00:00","mdate":"2020-02-20T23:00:00+00:00"}},{"type":"Feature","geometry":{"coordinates":[[[-0.583023,44.831959],[-0.581814,44.830641],[-0.582082,44.830465],[-0.579893,44.828295],[-0.578838,44.828352],[-0.57873,44.828854],[-0.572578,44.828544],[-0.572545,44.829129],[-0.569991,44.829081],[-0.569597,44.828694],[-0.569074,44.829873],[-0.569733,44.830021],[-0.569554,44.831585],[-0.570042,44.831642],[-0.571203,44.832596],[-0.572982,44.832531],[-0.573325,44.834697],[-0.575142,44.834898],[-0.578521,44.834614],[-0.578641,44.835355],[-0.580562,44.835255],[-0.580476,44.834963],[-0.583896,44.832912],[-0.583023,44.831959]]],"type":"Polygon"},"properties":{"geo_point_2d":{"lon":-0.5766431108153327,"lat":44.83162728291573},"gid":"1","geom_err":null,"nom":"Henri Iv-F. De Pressence","type":["MATERNELLE","ELEMENTAIRE"],"insee":["33063"],"cdate":"2020-02-20T23:00:00+00:00","mdate":"2020-02-20T23:00:00+00:00"}},{"type":"Feature","geometry":{"coordinates":[[[-0.589968,44.851647],[-0.583054,44.848766],[-0.578375,44.845414],[-0.577745,44.845472],[-0.575268,44.849489],[-0.578841,44.850601],[-0.579523,44.850457],[-0.580466,44.852761],[-0.580013,44.853101],[-0.583123,44.855003],[-0.591385,44.85244],[-0.589968,44.851647]]],"type":"Polygon"},"properties":{"geo_point_2d":{"lon":-0.582453320344498,"lat":44.85066373256786},"gid":"42","geom_err":null,"nom":"David Johnston-Lagrange","type":["MATERNELLE","ELEMENTAIRE"],"insee":["33063"],"cdate":"2020-02-20T23:00:00+00:00","mdate":"2020-02-20T23:00:00+00:00"}},{"type":"Feature","geometry":{"coordinates":[[[-0.599204,44.840225],[-0.596419,44.840435],[-0.595532,44.842061],[-0.596654,44.841912],[-0.596742,44.842248],[-0.595473,44.842455],[-0.596881,44.843938],[-0.595858,44.844856],[-0.598312,44.845677],[-0.598162,44.846051],[-0.602099,44.845937],[-0.603831,44.846397],[-0.611387,44.847313],[-0.611776,44.846303],[-0.612431,44.846526],[-0.612737,44.846093],[-0.61445,44.84562],[-0.614451,44.842546],[-0.613081,44.841245],[-0.612037,44.83939],[-0.599204,44.840225]]],"type":"Polygon"},"properties":{"geo_point_2d":{"lon":-0.6055570888509728,"lat":44.84323044428044},"gid":"15","geom_err":null,"nom":"Jules Ferry","type":["MATERNELLE","ELEMENTAIRE"],"insee":["33063"],"cdate":"2020-02-20T23:00:00+00:00","mdate":"2020-02-20T23:00:00+00:00"}}]}