{"type":"FeatureCollection","features":[{"type":"Feature","geometry":{"coordinates":[[[3.089649,45.758867],[3.088715,45.760624],[3.088043,45.7603],[3.087839,45.761479],[3.086779,45.762429],[3.087019,45.76248],[3.086758,45.763714],[3.087088,45.765592],[3.086662,45.765636],[3.086698,45.76587],[3.087666,45.76616],[3.087848,45.766883],[3.087341,45.767766],[3.08965,45.767767],[3.091781,45.768468],[3.09258,45.767664],[3.092239,45.766971],[3.092777,45.76594],[3.094925,45.766182],[3.092922,45.765685],[3.093232,45.765124],[3.09151,45.764059],[3.091696,45.76373],[3.093336,45.764773],[3.094086,45.763186],[3.091325,45.762348],[3.091564,45.761945],[3.092205,45.761889],[3.092716,45.760773],[3.090091,45.757711],[3.089649,45.758867]]],"type":"Polygon"},"properties":{"iddecsco":99,"creation_date":"2024-02-01T01:00:00+00:00","modification_date":"2024-02-01T01:00:00+00:00","nom":"Jean Jaurès","type":"Maternelle-Elementaire","shape_area":816546.6824951172,"shape_length":5658.285260820765,"geo_point_2d":{"lon":3.0901827174039083,"lat":45.76378957733499}}},{"type":"Feature","geometry":{"coordinates":[[[3.133007,45.813625],[3.133323,45.811753],[3.131522,45.811565],[3.129734,45.809613],[3.127741,45.806623],[3.126625,45.805999],[3.123449,45.806317],[3.123581,45.807644],[3.124279,45.807896],[3.123968,45.807899],[3.123226,45.809648],[3.124174,45.810529],[3.124846,45.810698],[3.124998,45.811483],[3.12442,45.811557],[3.124641,45.81259],[3.128825,45.812898],[3.12883,45.813511],[3.128237,45.813631],[3.128238,45.813909],[3.128921,45.814576],[3.132512,45.814416],[3.133007,45.813625]]],"type":"Polygon"},"properties":{"iddecsco":100,"creation_date":"2024-02-01T01:00:00+00:00","modification_date":"2024-02-01T01:00:00+00:00","nom":"Jules Verne","type":"Maternelle-Elementaire","shape_area":845397.3228759766,"shape_length":4649.957607905466,"geo_point_2d":{"lon":3.127822885780936,"lat":45.81044253056533}}},{"type":"Feature","geometry":{"coordinates":[[[3.143032,45.78719],[3.141926,45.785788],[3.141164,45.786348],[3.142161,45.787377],[3.14274,45.788546],[3.142339,45.789088],[3.139855,45.787136],[3.141305,45.784063],[3.1407,45.778672],[3.131403,45.779721],[3.128321,45.778859],[3.126633,45.778821],[3.126562,45.779991],[3.121624,45.780236],[3.121074,45.779703],[3.117707,45.77997],[3.117676,45.779594],[3.121234,45.779262],[3.121903,45.778595],[3.121951,45.777646],[3.121147,45.777455],[3.119196,45.778598],[3.117313,45.779064],[3.115837,45.778057],[3.113298,45.777145],[3.110851,45.776484],[3.108379,45.77634],[3.107805,45.777113],[3.106295,45.776596],[3.104419,45.776457],[3.10395,45.777462],[3.102927,45.777404],[3.101635,45.778561],[3.107103,45.780776],[3.108352,45.780479],[3.109542,45.780809],[3.10827,45.781469],[3.119303,45.787957],[3.120013,45.787346],[3.120092,45.786848],[3.125267,45.787238],[3.125184,45.786934],[3.122209,45.78635],[3.122173,45.785447],[3.121571,45.785067],[3.121619,45.782411],[3.122773,45.781749],[3.12456,45.782898],[3.136911,45.78827],[3.139461,45.788116],[3.139629,45.788668],[3.14581,45.792381],[3.14598,45.797346],[3.147813,45.797369],[3.146786,45.792309],[3.144764,45.787775],[3.143032,45.78719]]],"type":"Polygon"},"properties":{"iddecsco":101,"creation_date":"2024-02-01T01:00:00+00:00","modification_date":"2024-02-01T01:00:00+00:00","nom":"Anatole France","type":"Maternelle-Elementaire","shape_area":4689229.034790039,"shape_length":19831.861794297693,"geo_point_2d":{"lon":3.1257088720237225,"lat":45.782848095002656}}},{"type":"Feature","geometry":{"coordinates":[[[3.102867,45.812103],[3.102926,45.815944],[3.104204,45.816055],[3.104516,45.815298],[3.105254,45.815292],[3.105057,45.816241],[3.104452,45.816463],[3.109454,45.816997],[3.10942,45.81504],[3.113245,45.814982],[3.113272,45.814692],[3.109406,45.814755],[3.109382,45.812635],[3.108921,45.81261],[3.108862,45.810844],[3.107164,45.810753],[3.107169,45.811194],[3.103837,45.811214],[3.102867,45.812103]]],"type":"Polygon"},"properties":{"iddecsco":103,"creation_date":"2024-02-01T01:00:00+00:00","modification_date":"2024-02-01T01:00:00+00:00","nom":"Alphonse Daudet","type":"Maternelle-Elementaire","shape_area":612853.4569091797,"shape_length":4479.594526626179,"geo_point_2d":{"lon":3.1064757648771764,"lat":45.81388174086959}}},{"type":"Feature","geometry":{"coordinates":[[[3.107129,45.766474],[3.105104,45.765586],[3.105987,45.765456],[3.10635,45.764746],[3.106058,45.763866],[3.106383,45.763759],[3.107722,45.765618],[3.108187,45.765538],[3.107845,45.763409],[3.105048,45.763609],[3.104892,45.76146],[3.103935,45.761065],[3.10146,45.759049],[3.100191,45.758535],[3.098977,45.75867],[3.098593,45.758426],[3.097953,45.759192],[3.097349,45.758972],[3.096877,45.75991],[3.098385,45.760787],[3.09749,45.762112],[3.099388,45.762875],[3.096486,45.765737],[3.095888,45.766793],[3.097002,45.7672],[3.099335,45.767294],[3.103492,45.7685],[3.104559,45.768364],[3.107129,45.766474]]],"type":"Polygon"},"properties":{"iddecsco":104,"creation_date":"2024-02-01T01:00:00+00:00","modification_date":"2024-02-01T01:00:00+00:00","nom":"Pierre Mendes-France","type":"Maternelle-Elementaire","shape_area":1223917.9871826172,"shape_length":6293.601884643747,"geo_point_2d":{"lon":3.1016866413556508,"lat":45.763897995246374}}},{"type":"Feature","geometry":{"coordinates":[[[3.104363,45.792511],[3.106108,45.793337],[3.10647,45.792316],[3.107815,45.792301],[3.108094,45.791489],[3.114904,45.792368],[3.114988,45.79203],[3.116403,45.792383],[3.116488,45.792135],[3.117728,45.792608],[3.117793,45.792268],[3.118337,45.792381],[3.121354,45.79355],[3.122512,45.794348],[3.123243,45.795608],[3.125905,45.795131],[3.147168,45.797638],[3.161389,45.797809],[3.160093,45.797142],[3.159337,45.794818],[3.159511,45.791828],[3.146786,45.792309],[3.147813,45.797369],[3.14598,45.797346],[3.14581,45.792381],[3.139629,45.788668],[3.139461,45.788116],[3.136911,45.78827],[3.12456,45.782898],[3.122773,45.781749],[3.121619,45.782411],[3.121571,45.785067],[3.122173,45.785447],[3.122209,45.78635],[3.125184,45.786934],[3.125267,45.787238],[3.120092,45.786848],[3.120013,45.787346],[3.119303,45.787957],[3.110543,45.782777],[3.105935,45.787344],[3.106201,45.790382],[3.104363,45.792511]]],"type":"Polygon"},"properties":{"iddecsco":108,"creation_date":"2024-02-01T01:00:00+00:00","modification_date":"2024-02-01T01:00:00+00:00","nom":"Jules Michelet","type":"Maternelle-Elementaire","shape_area":7147076.186279297,"shape_length":19613.409437876206,"geo_point_2d":{"lon":3.130945579384305,"lat":45.79113166754872}}},{"type":"Feature","geometry":{"coordinates":[[[3.111182,45.801426],[3.106961,45.801981],[3.107306,45.80322],[3.107179,45.805182],[3.106544,45.805718],[3.106625,45.806914],[3.109496,45.806527],[3.112341,45.806718],[3.112894,45.809096],[3.114917,45.808752],[3.114516,45.806677],[3.116115,45.806445],[3.119492,45.80742],[3.123357,45.807672],[3.123716,45.807059],[3.123449,45.806317],[3.126625,45.805999],[3.117198,45.803165],[3.11202,45.800118],[3.111182,45.801426]]],"type":"Polygon"},"properties":{"iddecsco":110,"creation_date":"2024-02-01T01:00:00+00:00","modification_date":"2024-02-01T01:00:00+00:00","nom":"Diderot","type":"Maternelle-Elementaire","shape_area":1409327.5859375,"shape_length":6656.772453510951,"geo_point_2d":{"lon":3.114560152696869,"lat":45.80480120121094}}},{"type":"Feature","geometry":{"coordinates":[[[3.07158,45.766029],[3.073782,45.768088],[3.07616,45.768645],[3.075177,45.769369],[3.075457,45.769722],[3.074836,45.770518],[3.074804,45.772039],[3.075194,45.773509],[3.074613,45.773606],[3.073231,45.776323],[3.075121,45.776488],[3.075549,45.773657],[3.079553,45.774657],[3.081371,45.774366],[3.081653,45.774843],[3.081707,45.774488],[3.083075,45.774516],[3.083284,45.773726],[3.083984,45.773734],[3.083484,45.775747],[3.084798,45.775875],[3.085553,45.775783],[3.08555,45.775527],[3.086826,45.775748],[3.08684,45.773776],[3.087098,45.773444],[3.087712,45.773441],[3.087744,45.77149],[3.089997,45.77216],[3.08965,45.767767],[3.081904,45.767698],[3.081879,45.767159],[3.08069,45.766837],[3.080965,45.766509],[3.07934,45.766128],[3.077595,45.766075],[3.077236,45.766399],[3.07304,45.766261],[3.070949,45.765582],[3.07158,45.766029]]],"type":"Polygon"},"properties":{"iddecsco":116,"creation_date":"2024-02-01T01:00:00+00:00","modification_date":"2024-02-01T01:00:00+00:00","nom":"Aristide Briand","type":"Maternelle-Elementaire","shape_area":1998806.5737304688,"shape_length":8953.98285929855,"geo_point_2d":{"lon":3.081333137508673,"lat":45.77073395205972}}},{"type":"Feature","geometry":{"coordinates":[[[3.118867,45.768269],[3.119367,45.768627],[3.121494,45.768086],[3.122769,45.768329],[3.123615,45.767282],[3.124545,45.767537],[3.12501,45.765367],[3.133384,45.767497],[3.152268,45.757059],[3.151706,45.756338],[3.151068,45.756424],[3.143498,45.759261],[3.133235,45.760968],[3.133522,45.760466],[3.132417,45.759508],[3.130622,45.758988],[3.129007,45.75789],[3.128063,45.756767],[3.126992,45.757605],[3.120369,45.761047],[3.118032,45.763667],[3.116515,45.763816],[3.116825,45.764984],[3.11642,45.765504],[3.117912,45.765371],[3.117899,45.765605],[3.1206,45.766813],[3.118664,45.76803],[3.118867,45.768269]]],"type":"Polygon"},"properties":{"iddecsco":118,"creation_date":"2024-02-01T01:00:00+00:00","modification_date":"2024-02-01T01:00:00+00:00","nom":"Victor Hugo","type":"Maternelle-Elementaire","shape_area":3193276.405517578,"shape_length":11156.676105741815,"geo_point_2d":{"lon":3.1309487162451557,"lat":45.76259692832903}}},{"type":"Feature","geometry":{"coordinates":[[[3.096206,45.777277],[3.095946,45.777415],[3.095201,45.781779],[3.09365,45.781276],[3.094955,45.782117],[3.093558,45.782388],[3.092945,45.782774],[3.093025,45.783063],[3.094273,45.783637],[3.096174,45.783591],[3.099657,45.785165],[3.098765,45.786235],[3.098825,45.787399],[3.106126,45.790553],[3.105935,45.787344],[3.110543,45.782777],[3.10827,45.781469],[3.109542,45.780809],[3.108352,45.780479],[3.107103,45.780776],[3.099197,45.777491],[3.097349,45.777014],[3.096206,45.777277]]],"type":"Polygon"},"properties":{"iddecsco":119,"creation_date":"2024-02-01T01:00:00+00:00","modification_date":"2024-02-01T01:00:00+00:00","nom":"Victor Duruy","type":"Maternelle-Elementaire","shape_area":2047712.2805175781,"shape_length":7251.96261476812,"geo_point_2d":{"lon":3.1019664716326814,"lat":45.783163262993}}},{"type":"Feature","geometry":{"coordinates":[[[3.100139,45.809795],[3.101254,45.808941],[3.10175,45.807716],[3.102094,45.80767],[3.101925,45.808487],[3.105056,45.809102],[3.105306,45.807459],[3.106281,45.807062],[3.109093,45.806877],[3.106625,45.806914],[3.106544,45.805718],[3.107179,45.805182],[3.107306,45.80322],[3.106987,45.802332],[3.106961,45.801981],[3.107364,45.801946],[3.10695,45.799997],[3.105998,45.798892],[3.105464,45.798725],[3.104104,45.799071],[3.103685,45.798465],[3.104523,45.798228],[3.104089,45.797657],[3.103702,45.79781],[3.103247,45.797307],[3.104,45.796942],[3.103764,45.796173],[3.10279,45.795429],[3.102802,45.795054],[3.100924,45.795203],[3.102193,45.796124],[3.098636,45.798146],[3.096891,45.800847],[3.087427,45.805033],[3.087827,45.809635],[3.096968,45.809975],[3.097694,45.80911],[3.098218,45.809051],[3.09949,45.809316],[3.100139,45.809795]]],"type":"Polygon"},"properties":{"iddecsco":121,"creation_date":"2024-02-01T01:00:00+00:00","modification_date":"2024-02-01T01:00:00+00:00","nom":"George Sand","type":"Maternelle-Elementaire","shape_area":3099043.6600341797,"shape_length":9348.675809957118,"geo_point_2d":{"lon":3.0985292135891433,"lat":45.80430273519664}}},{"type":"Feature","geometry":{"coordinates":[[[3.095888,45.766793],[3.095283,45.767923],[3.094716,45.767923],[3.094554,45.76823],[3.092303,45.768143],[3.091781,45.768468],[3.08965,45.767767],[3.089997,45.77216],[3.095609,45.775467],[3.095864,45.776939],[3.096206,45.777277],[3.097349,45.777014],[3.101635,45.778561],[3.102927,45.777404],[3.10395,45.777462],[3.104419,45.776457],[3.106295,45.776596],[3.107805,45.777113],[3.108846,45.775173],[3.104392,45.773727],[3.103569,45.772926],[3.103863,45.772638],[3.103807,45.771884],[3.106104,45.770648],[3.106073,45.770313],[3.105085,45.770465],[3.104961,45.770088],[3.103623,45.770146],[3.103177,45.76966],[3.104559,45.768364],[3.103492,45.7685],[3.099335,45.767294],[3.097002,45.7672],[3.095888,45.766793]]],"type":"Polygon"},"properties":{"iddecsco":122,"creation_date":"2024-02-01T01:00:00+00:00","modification_date":"2024-02-01T01:00:00+00:00","nom":"Paul Bert","type":"Maternelle-Elementaire","shape_area":2270122.3345947266,"shape_length":7819.4819854569705,"geo_point_2d":{"lon":3.0986297082918295,"lat":45.77239340334639}}},{"type":"Feature","geometry":{"coordinates":[[[3.087797,45.760112],[3.087913,45.758972],[3.086593,45.758504],[3.085785,45.757965],[3.085782,45.757657],[3.083142,45.756788],[3.083187,45.756527],[3.080783,45.756463],[3.080757,45.756797],[3.077445,45.756067],[3.07689,45.756802],[3.076944,45.758189],[3.074568,45.759899],[3.073507,45.761165],[3.073587,45.762074],[3.073186,45.76252],[3.073022,45.763467],[3.071763,45.764592],[3.070219,45.764973],[3.070648,45.765521],[3.07304,45.766261],[3.077236,45.766399],[3.077595,45.766075],[3.07934,45.766128],[3.080965,45.766509],[3.08069,45.766837],[3.081879,45.767159],[3.081746,45.767676],[3.087341,45.767766],[3.087848,45.766883],[3.087666,45.76616],[3.086698,45.76587],[3.086662,45.765636],[3.087088,45.765592],[3.086758,45.763714],[3.087019,45.76248],[3.086779,45.762429],[3.087839,45.761479],[3.088043,45.7603],[3.087797,45.760112]]],"type":"Polygon"},"properties":{"iddecsco":126,"creation_date":"2024-02-01T01:00:00+00:00","modification_date":"2024-02-01T01:00:00+00:00","nom":"Edouard Herriot","type":"Maternelle-Elementaire","shape_area":2397584.821533203,"shape_length":7131.578770075942,"geo_point_2d":{"lon":3.0806294720397847,"lat":45.762270837782516}}},{"type":"Feature","geometry":{"coordinates":[[[3.07151,45.779875],[3.070769,45.781505],[3.06945,45.781222],[3.068708,45.781748],[3.066193,45.781126],[3.067438,45.781554],[3.067629,45.781718],[3.067313,45.782291],[3.067846,45.782544],[3.068511,45.781954],[3.068123,45.782816],[3.069391,45.78332],[3.069812,45.782397],[3.070643,45.782697],[3.070007,45.783348],[3.067101,45.784108],[3.067226,45.784539],[3.068744,45.784147],[3.070946,45.784792],[3.070323,45.78542],[3.071008,45.785539],[3.071059,45.785927],[3.070342,45.786238],[3.070565,45.786917],[3.073173,45.78611],[3.079074,45.787313],[3.079002,45.787896],[3.078193,45.78792],[3.077955,45.788564],[3.078379,45.789344],[3.079001,45.78935],[3.080058,45.789034],[3.079619,45.788285],[3.079574,45.785986],[3.082431,45.786911],[3.084221,45.786995],[3.084032,45.785323],[3.086761,45.785001],[3.086455,45.782595],[3.085184,45.78204],[3.085196,45.780914],[3.085986,45.779985],[3.085821,45.779468],[3.084429,45.779683],[3.084384,45.779261],[3.083554,45.779305],[3.083311,45.778645],[3.081475,45.77859],[3.081537,45.779613],[3.079881,45.779414],[3.078851,45.779781],[3.078372,45.779633],[3.077992,45.778358],[3.077395,45.778952],[3.07428,45.7785],[3.073861,45.780132],[3.075377,45.780551],[3.074978,45.780849],[3.07151,45.779875]]],"type":"Polygon"},"properties":{"iddecsco":128,"creation_date":"2024-02-01T01:00:00+00:00","modification_date":"2024-02-01T01:00:00+00:00","nom":"Edgard Quinet","type":"Maternelle-Elementaire","shape_area":2091027.829711914,"shape_length":10548.620649509527,"geo_point_2d":{"lon":3.0779054105328716,"lat":45.783070082908345}}},{"type":"Feature","geometry":{"coordinates":[[[3.098416,45.776423],[3.099197,45.777491],[3.101635,45.778561],[3.102927,45.777404],[3.10395,45.777462],[3.104419,45.776457],[3.106295,45.776596],[3.107805,45.777113],[3.108846,45.775173],[3.104392,45.773727],[3.103569,45.772926],[3.103863,45.772638],[3.103162,45.772607],[3.100674,45.773082],[3.098846,45.774183],[3.098153,45.775205],[3.098064,45.775936],[3.098416,45.776423]]],"type":"Polygon"},"properties":{"iddecsco":98,"creation_date":"2024-02-01T01:00:00+00:00","modification_date":"2024-02-01T01:00:00+00:00","nom":"La Pradelle","type":"Maternelle","shape_area":641109.8896484375,"shape_length":3582.45317304648,"geo_point_2d":{"lon":3.1026933785787474,"lat":45.77547344569096}}},{"type":"Feature","geometry":{"coordinates":[[[3.108094,45.791489],[3.107815,45.792301],[3.10647,45.792316],[3.106108,45.793337],[3.102802,45.795054],[3.10279,45.795429],[3.103764,45.796173],[3.104,45.796942],[3.103247,45.797307],[3.103702,45.79781],[3.104089,45.797657],[3.104523,45.798228],[3.103685,45.798465],[3.104104,45.799071],[3.105464,45.798725],[3.105998,45.798892],[3.10695,45.799997],[3.107364,45.801946],[3.111182,45.801426],[3.11202,45.800118],[3.116615,45.796669],[3.117325,45.795322],[3.11746,45.794308],[3.113066,45.795017],[3.113232,45.79214],[3.108094,45.791489]]],"type":"Polygon"},"properties":{"iddecsco":105,"creation_date":"2024-02-01T01:00:00+00:00","modification_date":"2024-02-01T01:00:00+00:00","nom":"Ferdinand Buisson","type":"Maternelle-Elementaire","shape_area":1574920.849243164,"shape_length":5927.807861681221,"geo_point_2d":{"lon":3.1097483350480974,"lat":45.796478110741866}}},{"type":"Feature","geometry":{"coordinates":[[[3.091093,45.803526],[3.096891,45.800847],[3.098636,45.798146],[3.102193,45.796124],[3.100924,45.795203],[3.102802,45.795054],[3.106108,45.793337],[3.104363,45.792511],[3.106126,45.790553],[3.098825,45.787399],[3.098765,45.786235],[3.099657,45.785165],[3.096174,45.783591],[3.094637,45.78369],[3.094102,45.784639],[3.092787,45.785785],[3.092964,45.788704],[3.094405,45.78861],[3.094513,45.789717],[3.095806,45.789678],[3.095755,45.790571],[3.092776,45.790688],[3.092835,45.791653],[3.091535,45.791887],[3.09184,45.792701],[3.091486,45.79273],[3.091472,45.794073],[3.091099,45.794292],[3.091234,45.794739],[3.090615,45.795574],[3.091976,45.799137],[3.088954,45.799189],[3.091093,45.803526]]],"type":"Polygon"},"properties":{"iddecsco":106,"creation_date":"2024-02-01T01:00:00+00:00","modification_date":"2024-02-01T01:00:00+00:00","nom":"Chanteranne","type":"Maternelle-Elementaire","shape_area":2924331.2955322266,"shape_length":9669.025929894726,"geo_point_2d":{"lon":3.0968045273569658,"lat":45.79342510470382}}},{"type":"Feature","geometry":{"coordinates":[[[3.105056,45.809102],[3.101925,45.808487],[3.102094,45.80767],[3.10175,45.807716],[3.101254,45.808941],[3.100139,45.809795],[3.100384,45.810129],[3.10169,45.810309],[3.101468,45.811116],[3.107169,45.811194],[3.107164,45.810753],[3.108862,45.810844],[3.108921,45.81261],[3.109382,45.812635],[3.109406,45.814755],[3.109809,45.814746],[3.109623,45.809183],[3.112894,45.809096],[3.112341,45.806718],[3.109496,45.806527],[3.109093,45.806877],[3.106281,45.807062],[3.105306,45.807459],[3.105056,45.809102]]],"type":"Polygon"},"properties":{"iddecsco":107,"creation_date":"2024-02-01T01:00:00+00:00","modification_date":"2024-02-01T01:00:00+00:00","nom":"Jules Valles","type":"Maternelle-Elementaire","shape_area":660388.7052001953,"shape_length":5662.3406730408105,"geo_point_2d":{"lon":3.1070331047809447,"lat":45.80923176270221}}},{"type":"Feature","geometry":{"coordinates":[[[3.100139,45.809795],[3.09949,45.809316],[3.098218,45.809051],[3.097694,45.80911],[3.096968,45.809975],[3.085243,45.809701],[3.086358,45.811052],[3.086863,45.812027],[3.086711,45.812492],[3.087516,45.813725],[3.089407,45.81508],[3.08971,45.81466],[3.091696,45.815819],[3.095376,45.81652],[3.097888,45.816419],[3.099877,45.815914],[3.104452,45.816463],[3.105057,45.816241],[3.105254,45.815292],[3.104516,45.815298],[3.104204,45.816055],[3.102926,45.815944],[3.102867,45.812103],[3.103674,45.811093],[3.101468,45.811116],[3.10169,45.810309],[3.100384,45.810129],[3.100139,45.809795]]],"type":"Polygon"},"properties":{"iddecsco":109,"creation_date":"2024-02-01T01:00:00+00:00","modification_date":"2024-02-01T01:00:00+00:00","nom":"Philippe Arbos","type":"Maternelle-Elementaire","shape_area":1747638.5552978516,"shape_length":6670.792510275918,"geo_point_2d":{"lon":3.0952598037079775,"lat":45.81283312191501}}},{"type":"Feature","geometry":{"coordinates":[[[3.128921,45.814576],[3.128238,45.813909],[3.128237,45.813631],[3.12883,45.813511],[3.128825,45.812898],[3.126873,45.812937],[3.126891,45.812593],[3.116068,45.813218],[3.116145,45.814106],[3.117227,45.814059],[3.117314,45.814724],[3.123275,45.814663],[3.124497,45.816629],[3.124492,45.817699],[3.126415,45.817133],[3.12609,45.815638],[3.12798,45.81543],[3.127912,45.814871],[3.128921,45.814576]]],"type":"Polygon"},"properties":{"iddecsco":111,"creation_date":"2024-02-01T01:00:00+00:00","modification_date":"2024-02-01T01:00:00+00:00","nom":"Romain Rolland","type":"Maternelle-Elementaire","shape_area":518646.9150390625,"shape_length":4364.544552178054,"geo_point_2d":{"lon":3.123579178342681,"lat":45.814272341684635}}},{"type":"Feature","geometry":{"coordinates":[[[3.075304,45.786415],[3.073878,45.789507],[3.067223,45.789775],[3.06625,45.79083],[3.06614,45.79234],[3.064248,45.792929],[3.063504,45.793561],[3.063053,45.793513],[3.062344,45.794242],[3.061903,45.795515],[3.060929,45.796335],[3.062166,45.796072],[3.06297,45.796436],[3.063692,45.796299],[3.064477,45.798203],[3.070114,45.800726],[3.072423,45.801323],[3.072044,45.801775],[3.072428,45.802159],[3.074249,45.803088],[3.076149,45.804657],[3.077061,45.804732],[3.078052,45.805762],[3.080728,45.805826],[3.083456,45.806848],[3.085243,45.809701],[3.087827,45.809635],[3.087427,45.805033],[3.091093,45.803526],[3.088954,45.799189],[3.091976,45.799137],[3.090615,45.795574],[3.091234,45.794739],[3.091099,45.794292],[3.091472,45.794073],[3.091443,45.792546],[3.084221,45.790626],[3.080058,45.789034],[3.078379,45.789344],[3.077955,45.788564],[3.078193,45.78792],[3.079002,45.787896],[3.079074,45.787313],[3.075304,45.786415]]],"type":"Polygon"},"properties":{"iddecsco":123,"creation_date":"2024-02-01T01:00:00+00:00","modification_date":"2024-02-01T01:00:00+00:00","nom":"Pierre et Marie Curie","type":"Maternelle-Elementaire","shape_area":6713398.475952148,"shape_length":12759.205648110568,"geo_point_2d":{"lon":3.0785951074884057,"lat":45.79718148659987}}},{"type":"Feature","geometry":{"coordinates":[[[3.086455,45.782595],[3.088338,45.782482],[3.088548,45.781673],[3.091256,45.78142],[3.092945,45.782774],[3.094955,45.782117],[3.093547,45.781437],[3.095201,45.781779],[3.095946,45.777415],[3.096206,45.777277],[3.095864,45.776939],[3.095609,45.775467],[3.090305,45.772229],[3.087744,45.77149],[3.087712,45.773441],[3.087098,45.773444],[3.08684,45.773776],[3.086826,45.775748],[3.08555,45.775527],[3.085067,45.778354],[3.083375,45.778453],[3.084954,45.778655],[3.083554,45.778829],[3.083554,45.779305],[3.084384,45.779261],[3.084429,45.779683],[3.085821,45.779468],[3.085986,45.779985],[3.085196,45.780914],[3.085184,45.78204],[3.086455,45.782595]]],"type":"Polygon"},"properties":{"iddecsco":124,"creation_date":"2024-02-01T01:00:00+00:00","modification_date":"2024-02-01T01:00:00+00:00","nom":"Jules Ferry","type":"Maternelle-Elementaire","shape_area":1575963.3129882812,"shape_length":6767.032381633061,"geo_point_2d":{"lon":3.090300296833043,"lat":45.777761480097205}}},{"type":"Feature","geometry":{"coordinates":[[[3.066193,45.781126],[3.065067,45.783011],[3.064864,45.784175],[3.062798,45.785636],[3.060162,45.786522],[3.056573,45.786588],[3.054321,45.786326],[3.053295,45.785771],[3.054385,45.789434],[3.055123,45.789506],[3.055603,45.79007],[3.056849,45.790587],[3.058845,45.791],[3.058607,45.792377],[3.059449,45.792368],[3.059267,45.792818],[3.061509,45.793376],[3.061385,45.793971],[3.062413,45.794166],[3.063053,45.793513],[3.063504,45.793561],[3.064248,45.792929],[3.06614,45.79234],[3.06625,45.79083],[3.067223,45.789775],[3.073878,45.789507],[3.075304,45.786415],[3.073173,45.78611],[3.070565,45.786917],[3.070342,45.786238],[3.071059,45.785927],[3.071008,45.785539],[3.070323,45.78542],[3.070946,45.784792],[3.068744,45.784147],[3.067226,45.784539],[3.067101,45.784108],[3.070007,45.783348],[3.070643,45.782697],[3.069812,45.782397],[3.069391,45.78332],[3.068123,45.782816],[3.068511,45.781954],[3.067846,45.782544],[3.067313,45.782291],[3.067629,45.781718],[3.067438,45.781554],[3.066193,45.781126]]],"type":"Polygon"},"properties":{"iddecsco":129,"creation_date":"2024-02-01T01:00:00+00:00","modification_date":"2024-02-01T01:00:00+00:00","nom":"Jean Zay","type":"Maternelle-Elementaire","shape_area":2169575.585571289,"shape_length":9514.701626049715,"geo_point_2d":{"lon":3.064227891650248,"lat":45.78807833578583}}},{"type":"Feature","geometry":{"coordinates":[[[3.07151,45.779875],[3.070771,45.781505],[3.069452,45.781222],[3.06871,45.781748],[3.066194,45.781125],[3.065067,45.783011],[3.064853,45.784024],[3.065266,45.783707],[3.06725,45.783417],[3.067226,45.784539],[3.068474,45.784287],[3.070555,45.78497],[3.073002,45.784895],[3.074491,45.783407],[3.074969,45.783599],[3.075328,45.783328],[3.075112,45.783127],[3.076079,45.782189],[3.074646,45.781586],[3.075724,45.780949],[3.07151,45.779875]]],"type":"Polygon"},"properties":{"iddecsco":102,"creation_date":"2024-02-01T01:00:00+00:00","modification_date":"2024-02-01T01:00:00+00:00","nom":"Jean-Philippe Rameau","type":"Maternelle","shape_area":591478.236328125,"shape_length":4038.1378548416824,"geo_point_2d":{"lon":3.070742968126244,"lat":45.782672027384216}}},{"type":"Feature","geometry":{"coordinates":[[[3.086392,45.782913],[3.086761,45.785001],[3.084032,45.785323],[3.084221,45.786995],[3.082431,45.786911],[3.079574,45.785986],[3.079619,45.788285],[3.080058,45.789034],[3.082046,45.789934],[3.091486,45.79273],[3.09184,45.792701],[3.091535,45.791887],[3.092835,45.791653],[3.092776,45.790688],[3.095755,45.790571],[3.095806,45.789678],[3.094513,45.789717],[3.094405,45.78861],[3.092964,45.788704],[3.092787,45.785785],[3.094102,45.784639],[3.094634,45.783695],[3.093272,45.783341],[3.091256,45.78142],[3.088548,45.781673],[3.088338,45.782482],[3.086455,45.782595],[3.086392,45.782913]]],"type":"Polygon"},"properties":{"iddecsco":112,"creation_date":"2024-02-01T01:00:00+00:00","modification_date":"2024-02-01T01:00:00+00:00","nom":"Jean Butez","type":"Maternelle-Elementaire","shape_area":1738889.228881836,"shape_length":6966.066634009788,"geo_point_2d":{"lon":3.088296630524997,"lat":45.78735002707399}}},{"type":"Feature","geometry":{"coordinates":[[[3.161391,45.797809],[3.147168,45.797638],[3.125905,45.795131],[3.123243,45.795608],[3.121431,45.796749],[3.121271,45.799251],[3.121002,45.799425],[3.118873,45.797622],[3.117983,45.798817],[3.114777,45.798942],[3.114788,45.799579],[3.113589,45.799894],[3.113048,45.800667],[3.117198,45.803165],[3.12726,45.806326],[3.128425,45.807329],[3.129734,45.809613],[3.131783,45.811712],[3.133323,45.811753],[3.133404,45.811179],[3.138731,45.809993],[3.139374,45.809736],[3.139268,45.808815],[3.156543,45.810913],[3.15691,45.810106],[3.15634,45.805641],[3.162199,45.80661],[3.161286,45.803238],[3.16222,45.799809],[3.16198,45.798575],[3.161391,45.797809]]],"type":"Polygon"},"properties":{"iddecsco":113,"creation_date":"2024-02-01T01:00:00+00:00","modification_date":"2024-02-01T01:00:00+00:00","nom":"Jean de La Fontaine","type":"Maternelle-Elementaire","shape_area":9208659.474365234,"shape_length":15289.227396114933,"geo_point_2d":{"lon":3.1397223189285914,"lat":45.802829278474704}}},{"type":"Feature","geometry":{"coordinates":[[[3.116115,45.806445],[3.114516,45.806677],[3.114917,45.808752],[3.109623,45.809183],[3.109809,45.814746],[3.113272,45.814692],[3.113245,45.814982],[3.10942,45.81504],[3.109454,45.816997],[3.115666,45.817518],[3.118252,45.817596],[3.119752,45.817317],[3.121313,45.818282],[3.124492,45.817699],[3.124497,45.816629],[3.123275,45.814663],[3.117314,45.814724],[3.117227,45.814059],[3.116145,45.814106],[3.116068,45.813218],[3.12089,45.813083],[3.120739,45.812887],[3.124641,45.81259],[3.12442,45.811557],[3.124998,45.811483],[3.124846,45.810698],[3.124174,45.810529],[3.123226,45.809648],[3.124191,45.807669],[3.119492,45.80742],[3.116115,45.806445]]],"type":"Polygon"},"properties":{"iddecsco":114,"creation_date":"2024-02-01T01:00:00+00:00","modification_date":"2024-02-01T01:00:00+00:00","nom":"Mercoeur - Fousson","type":"Maternelle-Elementaire","shape_area":2251821.784790039,"shape_length":9436.103233259058,"geo_point_2d":{"lon":3.1169643577714328,"lat":45.81255673892961}}},{"type":"Feature","geometry":{"coordinates":[[[3.114788,45.799579],[3.114777,45.798942],[3.117983,45.798817],[3.118873,45.797622],[3.121002,45.799425],[3.121271,45.799251],[3.121431,45.796749],[3.122984,45.795944],[3.123243,45.795608],[3.122939,45.794907],[3.121354,45.79355],[3.118337,45.792381],[3.117793,45.792268],[3.117728,45.792608],[3.116488,45.792135],[3.116403,45.792383],[3.114988,45.79203],[3.114904,45.792368],[3.113232,45.79214],[3.113066,45.795017],[3.11746,45.794308],[3.117108,45.795857],[3.115897,45.797436],[3.11202,45.800118],[3.113048,45.800667],[3.113589,45.799894],[3.114788,45.799579]]],"type":"Polygon"},"properties":{"iddecsco":115,"creation_date":"2024-02-01T01:00:00+00:00","modification_date":"2024-02-01T01:00:00+00:00","nom":"Charles Perrault","type":"Maternelle-Elementaire","shape_area":781802.9512939453,"shape_length":5852.402932105424,"geo_point_2d":{"lon":3.117969230213178,"lat":45.795597744730806}}},{"type":"Feature","geometry":{"coordinates":[[[3.116728,45.764601],[3.116515,45.763816],[3.110922,45.764237],[3.10857,45.763205],[3.107314,45.763379],[3.107845,45.763409],[3.108158,45.764108],[3.108187,45.765538],[3.107722,45.765618],[3.106383,45.763759],[3.106058,45.763866],[3.10635,45.764746],[3.105987,45.765456],[3.105104,45.765586],[3.107129,45.766474],[3.104558,45.768251],[3.10456,45.768581],[3.103177,45.76966],[3.103623,45.770146],[3.104961,45.770088],[3.105085,45.770465],[3.106073,45.770313],[3.106104,45.770648],[3.107696,45.770289],[3.108816,45.771049],[3.111105,45.771054],[3.111909,45.769834],[3.113825,45.770689],[3.113341,45.771715],[3.114128,45.772062],[3.11893,45.772337],[3.118881,45.77196],[3.118366,45.771805],[3.116657,45.771963],[3.115971,45.771161],[3.114887,45.770682],[3.115287,45.769697],[3.118867,45.768269],[3.118664,45.76803],[3.1206,45.766813],[3.117899,45.765605],[3.117912,45.765371],[3.11642,45.765504],[3.116786,45.765165],[3.116728,45.764601]]],"type":"Polygon"},"properties":{"iddecsco":117,"creation_date":"2024-02-01T01:00:00+00:00","modification_date":"2024-02-01T01:00:00+00:00","nom":"Albert Bayet","type":"Maternelle-Elementaire","shape_area":1521171.0834960938,"shape_length":8156.942117422173,"geo_point_2d":{"lon":3.1118427164303246,"lat":45.76758057021411}}},{"type":"Feature","geometry":{"coordinates":[[[3.152397,45.792032],[3.159511,45.791828],[3.158581,45.788864],[3.158567,45.786227],[3.159287,45.784192],[3.161908,45.78189],[3.162356,45.779223],[3.162135,45.777711],[3.163609,45.777158],[3.163461,45.775447],[3.162432,45.774448],[3.162493,45.771716],[3.166342,45.769799],[3.167875,45.768349],[3.17045,45.764582],[3.1722,45.763348],[3.171195,45.761639],[3.168732,45.760971],[3.169049,45.759894],[3.166604,45.759272],[3.15949,45.760057],[3.153068,45.759657],[3.152544,45.759137],[3.153449,45.758561],[3.152268,45.757059],[3.133384,45.767497],[3.12501,45.765367],[3.124545,45.767537],[3.123615,45.767282],[3.122769,45.768329],[3.121494,45.768086],[3.119367,45.768627],[3.118867,45.768269],[3.115287,45.769697],[3.114887,45.770682],[3.115971,45.771161],[3.116657,45.771963],[3.118366,45.771805],[3.118881,45.77196],[3.11893,45.772337],[3.114128,45.772062],[3.113341,45.771715],[3.113825,45.770689],[3.111909,45.769834],[3.111105,45.771054],[3.108816,45.771049],[3.107696,45.770289],[3.106547,45.77041],[3.103807,45.771884],[3.103863,45.772638],[3.103569,45.772926],[3.103956,45.773453],[3.108846,45.775173],[3.10815,45.776361],[3.112172,45.776807],[3.115837,45.778057],[3.117313,45.779064],[3.119196,45.778598],[3.121147,45.777455],[3.121951,45.777646],[3.121903,45.778595],[3.121234,45.779262],[3.117676,45.779594],[3.117707,45.77997],[3.121074,45.779703],[3.121624,45.780236],[3.126562,45.779991],[3.126633,45.778821],[3.128321,45.778859],[3.131403,45.779721],[3.1407,45.778672],[3.141305,45.784063],[3.139855,45.787136],[3.142339,45.789088],[3.14274,45.788546],[3.142161,45.787377],[3.141164,45.786348],[3.141443,45.786001],[3.141926,45.785788],[3.143032,45.78719],[3.144764,45.787775],[3.146786,45.792309],[3.152397,45.792032]]],"type":"Polygon"},"properties":{"iddecsco":120,"creation_date":"2024-02-01T01:00:00+00:00","modification_date":"2024-02-01T01:00:00+00:00","nom":"Jean Moulin","type":"Maternelle-Elementaire","shape_area":19323408.55029297,"shape_length":28302.394469474668,"geo_point_2d":{"lon":3.1439944616479663,"lat":45.77355334585624}}},{"type":"Feature","geometry":{"coordinates":[[[3.075549,45.773657],[3.075121,45.776488],[3.073231,45.776323],[3.07151,45.779875],[3.074978,45.780849],[3.075377,45.780551],[3.073861,45.780132],[3.07428,45.7785],[3.077395,45.778952],[3.077992,45.778358],[3.078372,45.779633],[3.078851,45.779781],[3.079881,45.779414],[3.081537,45.779613],[3.081475,45.77859],[3.084956,45.778836],[3.083387,45.778597],[3.085067,45.778354],[3.08543,45.777371],[3.085553,45.775783],[3.083484,45.775747],[3.083984,45.773734],[3.083284,45.773726],[3.083075,45.774516],[3.081707,45.774488],[3.081653,45.774843],[3.081371,45.774366],[3.079553,45.774657],[3.075549,45.773657]]],"type":"Polygon"},"properties":{"iddecsco":125,"creation_date":"2024-02-01T01:00:00+00:00","modification_date":"2024-02-01T01:00:00+00:00","nom":"Nestor Perret","type":"Maternelle-Elementaire","shape_area":965424.7485351562,"shape_length":6485.967184606839,"geo_point_2d":{"lon":3.0787529904945194,"lat":45.777027537013005}}},{"type":"Feature","geometry":{"coordinates":[[[3.095888,45.766793],[3.096486,45.765737],[3.099388,45.762875],[3.09749,45.762112],[3.098385,45.760787],[3.096877,45.75991],[3.097349,45.758972],[3.097953,45.759192],[3.098593,45.758426],[3.098977,45.75867],[3.100191,45.758535],[3.09796,45.755705],[3.096441,45.75599],[3.096549,45.756265],[3.090829,45.757001],[3.090091,45.757711],[3.092716,45.760773],[3.092205,45.761889],[3.091564,45.761945],[3.091325,45.762348],[3.094086,45.763186],[3.093336,45.764773],[3.091696,45.76373],[3.09151,45.764059],[3.093232,45.765124],[3.092922,45.765685],[3.094925,45.766182],[3.092777,45.76594],[3.092239,45.766971],[3.09258,45.767664],[3.092303,45.768143],[3.094554,45.76823],[3.094716,45.767923],[3.095283,45.767923],[3.095888,45.766793]]],"type":"Polygon"},"properties":{"iddecsco":127,"creation_date":"2024-02-01T01:00:00+00:00","modification_date":"2024-02-01T01:00:00+00:00","nom":"Jean Macé","type":"Maternelle-Elementaire","shape_area":1154997.1170654297,"shape_length":7183.488910785712,"geo_point_2d":{"lon":3.095107339518041,"lat":45.76121977241754}}}]}