{"type":"FeatureCollection","features":[{"type":"Feature","geometry":{"type":"Polygon","coordinates":[[[55.55222,-21.07304],[55.55287,-21.0716],[55.55455,-21.07095],[55.55874,-21.06754],[55.56023,-21.06486],[55.56167,-21.06378],[55.5613,-21.0628],[55.56168,-21.05692],[55.56066,-21.0506],[55.56154,-21.04943],[55.56081,-21.04888],[55.56154,-21.04663],[55.56086,-21.04418],[55.55975,-21.04333],[55.55965,-21.04115],[55.55862,-21.0411],[55.5577,-21.04185],[55.55701,-21.0409],[55.55547,-21.0405],[55.55532,-21.03908],[55.55407,-21.03647],[55.55503,-21.03561],[55.55757,-21.03136],[55.55868,-21.02807],[55.55872,-21.0246],[55.55989,-21.02224],[55.56084,-21.02174],[55.56195,-21.01885],[55.56321,-21.01899],[55.56753,-21.01772],[55.56998,-21.01505],[55.56964,-21.01424],[55.57036,-21.01312],[55.5722,-21.01271],[55.572,-21.01085],[55.57344,-21.00986],[55.57638,-21.00986],[55.57787,-21.00886],[55.58032,-21.00814],[55.58152,-21.00679],[55.58465,-21.00539],[55.58412,-21.00235],[55.58498,-21.00137],[55.58923,-21.00294],[55.59542,-21.00168],[55.59652,-21.00232],[55.59906,-21.0026],[55.60129,-21.00212],[55.60402,-21.00064],[55.60865,-20.99905],[55.61177,-20.99722],[55.61301,-20.99518],[55.6138,-20.99249],[55.61521,-20.99066],[55.62207,-20.9909],[55.62393,-20.99167],[55.62489,-20.98977],[55.62632,-20.98846],[55.62907,-20.98706],[55.6306,-20.98512],[55.63377,-20.98345],[55.63953,-20.97856],[55.64247,-20.97778],[55.64543,-20.9777],[55.65527,-20.97886],[55.66022,-20.98239],[55.66871,-20.98488],[55.67265,-20.98525],[55.68716,-20.97971],[55.69106,-20.98007],[55.70069,-20.97861],[55.69989,-20.98491],[55.70069,-21.0059],[55.69901,-21.00501],[55.69569,-21.00668],[55.69247,-21.00591],[55.69131,-21.00805],[55.68578,-21.00918],[55.68227,-21.00886],[55.678,-21.01027],[55.67713,-21.01185],[55.67747,-21.01339],[55.67512,-21.01284],[55.6741,-21.01339],[55.67483,-21.01678],[55.67377,-21.01836],[55.67089,-21.01795],[55.66959,-21.01841],[55.6692,-21.01931],[55.66974,-21.02247],[55.67113,-21.02482],[55.67128,-21.02663],[55.67254,-21.02934],[55.67139,-21.03096],[55.66874,-21.0325],[55.66162,-21.03413],[55.65922,-21.03549],[55.65561,-21.03378],[55.65037,-21.03441],[55.64893,-21.03537],[55.64301,-21.0337],[55.64152,-21.03515],[55.63844,-21.03546],[55.63537,-21.03687],[55.63426,-21.03763],[55.6346,-21.03854],[55.63349,-21.03971],[55.63224,-21.04003],[55.63166,-21.04089],[55.62969,-21.0408],[55.62676,-21.04161],[55.62575,-21.04062],[55.62407,-21.04031],[55.61901,-21.04099],[55.61849,-21.04298],[55.61604,-21.04497],[55.61594,-21.04605],[55.61469,-21.04772],[55.61324,-21.04822],[55.61315,-21.05035],[55.61195,-21.05129],[55.61246,-21.05309],[55.61176,-21.05576],[55.60974,-21.05658],[55.60902,-21.05812],[55.60796,-21.05857],[55.60508,-21.06186],[55.60446,-21.06412],[55.60311,-21.0657],[55.60094,-21.06629],[55.59768,-21.06913],[55.5971,-21.07067],[55.59393,-21.07411],[55.59244,-21.07506],[55.59095,-21.07908],[55.58811,-21.08098],[55.58725,-21.0835],[55.58758,-21.08563],[55.58359,-21.085],[55.58229,-21.08572],[55.57695,-21.08338],[55.57464,-21.08229],[55.57271,-21.07959],[55.57079,-21.07823],[55.56901,-21.07747],[55.5666,-21.0776],[55.56564,-21.07679],[55.56285,-21.07575],[55.55953,-21.07313],[55.55784,-21.07305],[55.55631,-21.07399],[55.55222,-21.07304]]]},"properties":{"code_insee":"97402","nom_commune":"Bras-Panon","code_rne":"9740046G","nom_college":"Collège Fanny Desjardins"}},{"type":"Feature","geometry":{"type":"Polygon","coordinates":[[[55.46232,-21.19517],[55.46348,-21.19413],[55.4653,-21.19354],[55.46666,-21.19196],[55.46877,-21.19115],[55.4708,-21.1893],[55.47436,-21.19042],[55.47835,-21.18907],[55.47903,-21.18825],[55.48178,-21.18754],[55.48745,-21.18437],[55.49323,-21.18022],[55.49487,-21.17828],[55.49665,-21.172],[55.49805,-21.16956],[55.49777,-21.16649],[55.49824,-21.16491],[55.5018,-21.15922],[55.50113,-21.15416],[55.50184,-21.14706],[55.50445,-21.14455],[55.50628,-21.14183],[55.50675,-21.13976],[55.50792,-21.14014],[55.50992,-21.13948],[55.51118,-21.13832],[55.51325,-21.13814],[55.51504,-21.13877],[55.52062,-21.13745],[55.52308,-21.1361],[55.52695,-21.13581],[55.52666,-21.13674],[55.52558,-21.13711],[55.52372,-21.13969],[55.52485,-21.14129],[55.525,-21.14242],[55.52245,-21.14228],[55.52115,-21.14351],[55.52201,-21.14531],[55.52452,-21.14788],[55.52548,-21.15195],[55.52438,-21.15549],[55.52784,-21.16315],[55.52847,-21.16346],[55.52818,-21.16892],[55.53161,-21.17435],[55.53185,-21.1761],[55.5305,-21.18157],[55.53067,-21.18387],[55.53011,-21.18405],[55.53022,-21.18609],[55.52829,-21.18481],[55.52799,-21.18341],[55.52378,-21.18281],[55.51953,-21.18367],[55.51752,-21.18519],[55.51635,-21.18536],[55.51567,-21.18658],[55.51539,-21.19083],[55.51577,-21.19408],[55.51515,-21.1976],[55.51417,-21.19912],[55.51539,-21.20031],[55.51563,-21.20122],[55.51442,-21.2032],[55.51085,-21.20556],[55.5078,-21.2043],[55.50676,-21.2057],[55.50817,-21.20751],[55.50855,-21.20931],[55.51073,-21.21172],[55.51166,-21.21171],[55.51387,-21.21406],[55.51259,-21.2177],[55.51101,-21.21991],[55.51226,-21.21991],[55.51303,-21.22131],[55.51288,-21.22253],[55.51079,-21.22351],[55.51188,-21.22592],[55.51168,-21.22713],[55.5085,-21.22971],[55.50696,-21.23012],[55.50465,-21.2298],[55.50214,-21.23188],[55.50108,-21.23184],[55.49979,-21.23301],[55.49978,-21.23446],[55.50046,-21.23617],[55.49753,-21.23865],[55.49588,-21.23929],[55.49256,-21.23965],[55.49092,-21.23884],[55.48806,-21.23885],[55.48919,-21.24353],[55.49135,-21.24398],[55.4904,-21.24633],[55.48972,-21.24656],[55.48861,-21.24855],[55.48515,-21.24994],[55.4837,-21.25193],[55.48269,-21.25207],[55.4797,-21.2546],[55.4785,-21.25527],[55.47701,-21.25527],[55.47609,-21.2564],[55.47107,-21.25771],[55.46997,-21.26299],[55.47094,-21.26462],[55.47123,-21.26738],[55.4706,-21.26954],[55.46736,-21.27085],[55.46665,-21.27311],[55.46708,-21.27478],[55.46515,-21.27763],[55.46307,-21.2793],[55.46226,-21.28137],[55.46009,-21.28386],[55.45552,-21.28602],[55.45532,-21.2843],[55.45667,-21.28074],[55.4573,-21.28078],[55.45855,-21.27902],[55.46047,-21.27455],[55.46014,-21.27361],[55.45701,-21.2713],[55.45735,-21.2708],[55.46058,-21.26994],[55.46159,-21.26818],[55.46158,-21.26696],[55.46327,-21.26318],[55.46399,-21.25956],[55.46385,-21.25744],[55.46443,-21.25672],[55.46443,-21.25446],[55.46218,-21.25176],[55.46142,-21.24978],[55.46215,-21.24849],[55.46226,-21.24635],[55.46072,-21.24344],[55.45962,-21.24258],[55.46015,-21.23915],[55.45952,-21.23789],[55.45932,-21.23495],[55.46096,-21.23102],[55.46131,-21.22691],[55.46059,-21.22479],[55.46078,-21.2214],[55.46347,-21.21571],[55.46304,-21.21165],[55.46241,-21.21048],[55.46207,-21.20754],[55.46145,-21.20673],[55.46077,-21.20099],[55.46232,-21.19828],[55.46232,-21.19517]]]},"properties":{"code_insee":"97403","nom_commune":"Entre-Deux","code_rne":"9740006N","nom_college":"Collège le Dimitile"}},{"type":"Feature","geometry":{"type":"MultiPolygon","coordinates":[[[[55.5831,-21.37256],[55.582,-21.37265],[55.57853,-21.37446],[55.57727,-21.37428],[55.57564,-21.37563],[55.57197,-21.37601],[55.56855,-21.37518],[55.56729,-21.37393],[55.56301,-21.37235],[55.56122,-21.37298],[55.55913,-21.37298],[55.55808,-21.37181],[55.55655,-21.37213],[55.55549,-21.37122],[55.55404,-21.3714],[55.5511,-21.37447],[55.54999,-21.37348],[55.5495,-21.37059],[55.54608,-21.36779],[55.54512,-21.36743],[55.54304,-21.3677],[55.54203,-21.36657],[55.53894,-21.36504],[55.53856,-21.36396],[55.53614,-21.36305],[55.53576,-21.36169],[55.53711,-21.35976],[55.53832,-21.35596],[55.53745,-21.35529],[55.53788,-21.35186],[55.5387,-21.35077],[55.53904,-21.34852],[55.54034,-21.34788],[55.54173,-21.344],[55.54188,-21.34215],[55.54279,-21.34151],[55.54332,-21.34006],[55.54294,-21.33912],[55.54423,-21.3361],[55.54385,-21.3351],[55.54476,-21.3342],[55.54511,-21.33257],[55.54379,-21.32679],[55.54683,-21.32259],[55.54885,-21.32114],[55.54953,-21.32146],[55.5517,-21.32064],[55.55382,-21.31884],[55.55507,-21.31875],[55.55709,-21.31753],[55.55994,-21.31685],[55.56076,-21.31613],[55.56519,-21.31612],[55.56808,-21.31662],[55.57058,-21.31391],[55.57193,-21.31404],[55.57242,-21.31269],[55.57502,-21.31156],[55.57916,-21.31106],[55.57974,-21.31002],[55.58061,-21.3098],[55.58106,-21.30569],[55.58243,-21.30379],[55.5845,-21.30447],[55.586,-21.30207],[55.58764,-21.30103],[55.58764,-21.29981],[55.58835,-21.29845],[55.58966,-21.29782],[55.59086,-21.29633],[55.59231,-21.29602],[55.59314,-21.29233],[55.5944,-21.29163],[55.59369,-21.29032],[55.59626,-21.28912],[55.6043,-21.2882],[55.60378,-21.2909],[55.60459,-21.2926],[55.6055,-21.29759],[55.60376,-21.29896],[55.60396,-21.29971],[55.60292,-21.30093],[55.60099,-21.30211],[55.60041,-21.30328],[55.60089,-21.30504],[55.60036,-21.3063],[55.59921,-21.30752],[55.59772,-21.30744],[55.59593,-21.31024],[55.59295,-21.31115],[55.59242,-21.31186],[55.59039,-21.31268],[55.58958,-21.31381],[55.59073,-21.31435],[55.58813,-21.31647],[55.58895,-21.31728],[55.58838,-21.31833],[55.58881,-21.3194],[55.58732,-21.32031],[55.58712,-21.32383],[55.58799,-21.32446],[55.58732,-21.32528],[55.58732,-21.32709],[55.58611,-21.32826],[55.58515,-21.3284],[55.58506,-21.33187],[55.58583,-21.33377],[55.58988,-21.33634],[55.58935,-21.33905],[55.58993,-21.34009],[55.58892,-21.34226],[55.58984,-21.34677],[55.58917,-21.34758],[55.58965,-21.35255],[55.58912,-21.35526],[55.58912,-21.35716],[55.5898,-21.35852],[55.58556,-21.36389],[55.58411,-21.36461],[55.58319,-21.36407],[55.58224,-21.36647],[55.58233,-21.36958],[55.5833,-21.37094],[55.5831,-21.37256]]],[[[55.56891,-21.3767],[55.56843,-21.37745],[55.56725,-21.37728],[55.56819,-21.37591],[55.56891,-21.3767]]]]},"properties":{"code_insee":"97405","nom_commune":"Petite-Île","code_rne":"9740654T","nom_college":"Collège Joseph Suacot"}},{"type":"Feature","geometry":{"type":"Polygon","coordinates":[[[55.66072,-21.20316],[55.6557,-21.19779],[55.6557,-21.19707],[55.6543,-21.19562],[55.65367,-21.19337],[55.65214,-21.19265],[55.65228,-21.19084],[55.65054,-21.18836],[55.65034,-21.18727],[55.64634,-21.18272],[55.64634,-21.18128],[55.64542,-21.17997],[55.64518,-21.1778],[55.64403,-21.1764],[55.64186,-21.17504],[55.63849,-21.16968],[55.63887,-21.16877],[55.63771,-21.16701],[55.63405,-21.16773],[55.6296,-21.1705],[55.62967,-21.17261],[55.62717,-21.17384],[55.62592,-21.17565],[55.62477,-21.18048],[55.62352,-21.18161],[55.61654,-21.18292],[55.61559,-21.18106],[55.61139,-21.18153],[55.61134,-21.18274],[55.60888,-21.18207],[55.60792,-21.18122],[55.60682,-21.18122],[55.60551,-21.18004],[55.6031,-21.17996],[55.60041,-21.17738],[55.60038,-21.17405],[55.59744,-21.17509],[55.59559,-21.17481],[55.59472,-21.17386],[55.59304,-21.17441],[55.5913,-21.17318],[55.59125,-21.16908],[55.58991,-21.16863],[55.58812,-21.16701],[55.58696,-21.16366],[55.58904,-21.16294],[55.58985,-21.15738],[55.5859,-21.15255],[55.58725,-21.15048],[55.58263,-21.14845],[55.58279,-21.14692],[55.57997,-21.14515],[55.58037,-21.14285],[55.58136,-21.14257],[55.58189,-21.13932],[55.58044,-21.13702],[55.57689,-21.13697],[55.57506,-21.13634],[55.5727,-21.13373],[55.57352,-21.13247],[55.57356,-21.13098],[55.57578,-21.12944],[55.57847,-21.12926],[55.57996,-21.12677],[55.5827,-21.12555],[55.58698,-21.12478],[55.59161,-21.12609],[55.59314,-21.12875],[55.59431,-21.12902],[55.59565,-21.13039],[55.59679,-21.13074],[55.59797,-21.12992],[55.60001,-21.12994],[55.60068,-21.12748],[55.60308,-21.12559],[55.60627,-21.12539],[55.60982,-21.12686],[55.61175,-21.12619],[55.61225,-21.12486],[55.61345,-21.12431],[55.61514,-21.12142],[55.61658,-21.12102],[55.61826,-21.11979],[55.6201,-21.11907],[55.62265,-21.11898],[55.62418,-21.11775],[55.62525,-21.11811],[55.62878,-21.11736],[55.63043,-21.11765],[55.63125,-21.11575],[55.63318,-21.11391],[55.63361,-21.11174],[55.63433,-21.11115],[55.63453,-21.10993],[55.63548,-21.10849],[55.63621,-21.10812],[55.63682,-21.10596],[55.63793,-21.10505],[55.64159,-21.10455],[55.64539,-21.10256],[55.65068,-21.10328],[55.65174,-21.10432],[55.65554,-21.10526],[55.71566,-21.17239],[55.71157,-21.1737],[55.70926,-21.17515],[55.70642,-21.17574],[55.7033,-21.17782],[55.69849,-21.18343],[55.69493,-21.186],[55.69248,-21.18601],[55.68911,-21.1871],[55.68284,-21.18462],[55.67957,-21.18498],[55.67668,-21.18688],[55.67495,-21.18982],[55.67428,-21.19227],[55.67019,-21.19606],[55.66818,-21.19679],[55.6651,-21.19963],[55.66437,-21.2009],[55.66211,-21.20175],[55.66072,-21.20316]]]},"properties":{"code_insee":"97406","nom_commune":"Plaine-des-Palmistes","code_rne":"9740037X","nom_college":"Collège Gaston Crochet"}},{"type":"Feature","geometry":{"type":"Polygon","coordinates":[[[55.7005,-21.37657],[55.70411,-21.37299],[55.70498,-21.37294],[55.7058,-21.3714],[55.70512,-21.36992],[55.70569,-21.36671],[55.70424,-21.36093],[55.70028,-21.35692],[55.70033,-21.35488],[55.69927,-21.35398],[55.69931,-21.35114],[55.69806,-21.34911],[55.69752,-21.34617],[55.69852,-21.34513],[55.69858,-21.34161],[55.6978,-21.34075],[55.69746,-21.33837],[55.69895,-21.33827],[55.69967,-21.33474],[55.69875,-21.33389],[55.69919,-21.33317],[55.69648,-21.33064],[55.69508,-21.32486],[55.69338,-21.32342],[55.6932,-21.3208],[55.69261,-21.32008],[55.6929,-21.319],[55.69194,-21.31837],[55.69188,-21.31656],[55.69092,-21.31548],[55.69082,-21.3139],[55.69029,-21.31312],[55.68865,-21.31254],[55.68757,-21.30932],[55.68795,-21.30798],[55.6873,-21.30516],[55.68772,-21.30148],[55.68849,-21.30076],[55.69097,-21.2936],[55.69011,-21.29222],[55.69035,-21.28947],[55.69098,-21.28811],[55.69035,-21.28612],[55.69097,-21.2836],[55.69063,-21.28251],[55.69313,-21.27824],[55.6942,-21.27754],[55.6947,-21.27528],[55.68932,-21.27361],[55.68662,-21.27145],[55.68397,-21.26784],[55.6828,-21.26482],[55.68145,-21.26284],[55.68048,-21.25787],[55.68053,-21.25561],[55.6799,-21.25425],[55.67918,-21.24879],[55.6783,-21.24595],[55.67815,-21.24355],[55.67877,-21.24021],[55.80427,-21.25231],[55.80159,-21.25972],[55.80175,-21.26229],[55.80319,-21.26554],[55.80334,-21.26865],[55.80417,-21.27213],[55.80321,-21.27502],[55.80322,-21.27642],[55.80378,-21.27886],[55.80461,-21.27948],[55.80494,-21.28152],[55.80655,-21.28535],[55.80828,-21.28731],[55.80756,-21.29063],[55.80564,-21.29255],[55.80528,-21.29552],[55.80563,-21.29809],[55.80458,-21.30193],[55.80496,-21.30346],[55.80458,-21.30496],[55.80507,-21.30572],[55.80444,-21.30884],[55.80382,-21.30976],[55.80473,-21.31372],[55.80494,-21.31728],[55.8057,-21.31887],[55.80497,-21.31962],[55.80621,-21.32629],[55.80925,-21.33084],[55.80821,-21.33286],[55.80729,-21.33676],[55.80451,-21.33967],[55.80045,-21.34532],[55.79916,-21.34791],[55.79744,-21.34925],[55.79693,-21.35058],[55.79566,-21.35069],[55.79248,-21.35238],[55.79133,-21.35397],[55.78884,-21.35455],[55.7886,-21.35528],[55.78631,-21.35744],[55.78601,-21.35724],[55.78322,-21.35939],[55.78124,-21.3616],[55.77989,-21.36191],[55.7781,-21.36333],[55.77732,-21.36322],[55.77558,-21.3645],[55.77525,-21.36552],[55.77231,-21.36503],[55.77081,-21.36569],[55.76701,-21.36521],[55.76664,-21.36444],[55.76399,-21.3641],[55.76334,-21.36353],[55.76029,-21.36442],[55.75949,-21.36371],[55.75639,-21.363],[55.75469,-21.3637],[55.75295,-21.36635],[55.7505,-21.36779],[55.74844,-21.36768],[55.74744,-21.36852],[55.74613,-21.36834],[55.73979,-21.36935],[55.73714,-21.36872],[55.73467,-21.3692],[55.73392,-21.36881],[55.73281,-21.3696],[55.73101,-21.36986],[55.73028,-21.36933],[55.72708,-21.36985],[55.72334,-21.3722],[55.71829,-21.37402],[55.71719,-21.37487],[55.71443,-21.37524],[55.71127,-21.37492],[55.70919,-21.37579],[55.70879,-21.37657],[55.70608,-21.37604],[55.70255,-21.37689],[55.7005,-21.37657]]]},"properties":{"code_insee":"97417","nom_commune":"Saint-Philippe","code_rne":"9740468R","nom_college":"Collège Bory de Saint-Vincent"}},{"type":"Feature","geometry":{"type":"Polygon","coordinates":[[[55.66072,-21.20316],[55.66211,-21.20175],[55.66437,-21.2009],[55.6651,-21.19963],[55.66818,-21.19679],[55.67019,-21.19606],[55.67428,-21.19227],[55.67495,-21.18982],[55.67668,-21.18688],[55.67957,-21.18498],[55.68284,-21.18462],[55.68911,-21.1871],[55.69248,-21.18601],[55.69493,-21.186],[55.69849,-21.18343],[55.7033,-21.17782],[55.70642,-21.17574],[55.70926,-21.17515],[55.71157,-21.1737],[55.72003,-21.17039],[55.72153,-21.1693],[55.72442,-21.16885],[55.72606,-21.16795],[55.73097,-21.16816],[55.73154,-21.16662],[55.7363,-21.16179],[55.73547,-21.15791],[55.73585,-21.15605],[55.74002,-21.15597],[55.73975,-21.15399],[55.74091,-21.1537],[55.74121,-21.15228],[55.74289,-21.15205],[55.74366,-21.1513],[55.74368,-21.14959],[55.74224,-21.14796],[55.74339,-21.14737],[55.74402,-21.14584],[55.74513,-21.14611],[55.74661,-21.14443],[55.74676,-21.14339],[55.74603,-21.1424],[55.74469,-21.14195],[55.74248,-21.1429],[55.74141,-21.14042],[55.74006,-21.13876],[55.74059,-21.13803],[55.73972,-21.13681],[55.74083,-21.13636],[55.7429,-21.13654],[55.74308,-21.13586],[55.74227,-21.13424],[55.74135,-21.13401],[55.74072,-21.13274],[55.74106,-21.13189],[55.74218,-21.13173],[55.74146,-21.13038],[55.74311,-21.12899],[55.74485,-21.12605],[55.7461,-21.12592],[55.74653,-21.12461],[55.74913,-21.12234],[55.75056,-21.11774],[55.76233,-21.10792],[55.76531,-21.10607],[55.76729,-21.10363],[55.77144,-21.10697],[55.78003,-21.12198],[55.78152,-21.1227],[55.78157,-21.12329],[55.78354,-21.12473],[55.786,-21.12573],[55.78819,-21.12551],[55.78941,-21.12462],[55.79158,-21.12431],[55.80006,-21.12728],[55.80276,-21.13011],[55.80652,-21.1325],[55.80753,-21.13385],[55.80739,-21.13507],[55.8098,-21.13733],[55.81433,-21.13939],[55.81621,-21.13948],[55.81726,-21.13871],[55.82074,-21.14119],[55.82194,-21.14105],[55.82257,-21.14245],[55.82589,-21.14362],[55.82705,-21.14532],[55.82586,-21.14683],[55.82759,-21.14795],[55.8273,-21.14885],[55.82799,-21.15255],[55.82938,-21.15278],[55.82972,-21.15403],[55.83069,-21.15467],[55.83078,-21.15584],[55.83189,-21.15726],[55.83193,-21.15822],[55.83498,-21.16044],[55.8347,-21.16254],[55.83511,-21.16414],[55.83282,-21.16556],[55.83348,-21.17071],[55.8331,-21.17137],[55.83389,-21.17684],[55.83483,-21.17996],[55.83668,-21.18259],[55.83663,-21.18341],[55.8342,-21.18454],[55.8333,-21.18573],[55.83188,-21.18645],[55.82868,-21.18642],[55.82663,-21.18571],[55.82584,-21.1861],[55.82478,-21.18974],[55.82473,-21.19314],[55.82534,-21.19408],[55.8252,-21.19604],[55.82465,-21.19659],[55.8254,-21.1981],[55.82495,-21.1988],[55.82553,-21.20049],[55.82471,-21.20325],[55.82275,-21.20618],[55.82122,-21.20775],[55.81873,-21.20878],[55.81658,-21.21081],[55.81406,-21.21429],[55.81403,-21.21662],[55.81344,-21.21712],[55.81251,-21.22204],[55.81135,-21.2226],[55.80852,-21.22753],[55.80785,-21.23252],[55.80856,-21.23476],[55.80805,-21.23883],[55.80584,-21.24211],[55.80534,-21.24363],[55.80472,-21.2477],[55.8048,-21.25081],[55.80427,-21.25231],[55.64867,-21.23736],[55.64727,-21.23659],[55.64708,-21.23509],[55.6475,-21.23374],[55.6489,-21.23239],[55.65015,-21.23018],[55.65035,-21.22836],[55.65106,-21.22819],[55.65203,-21.22606],[55.65299,-21.22561],[55.65457,-21.22118],[55.654,-21.21911],[55.65481,-21.21734],[55.65412,-21.21219],[55.65442,-21.2108],[55.65826,-21.20447],[55.66072,-21.20316]]]},"properties":{"code_insee":"97419","nom_commune":"Sainte-Rose","code_rne":"9740044E","nom_college":"Collège Thérésien Cadet"}},{"type":"Feature","geometry":{"type":"Polygon","coordinates":[[[55.55222,-21.07304],[55.55062,-21.07549],[55.54759,-21.07553],[55.54257,-21.07771],[55.53848,-21.07687],[55.53595,-21.07864],[55.53509,-21.08123],[55.53234,-21.08204],[55.52955,-21.0838],[55.52835,-21.08367],[55.52605,-21.08005],[55.52402,-21.07983],[55.52258,-21.08159],[55.52238,-21.08268],[55.52042,-21.08583],[55.52051,-21.08782],[55.51874,-21.09135],[55.51733,-21.09288],[55.51489,-21.0941],[55.51002,-21.09478],[55.50901,-21.09627],[55.50275,-21.10034],[55.50112,-21.10218],[55.50122,-21.10368],[55.49684,-21.10846],[55.49535,-21.11145],[55.49481,-21.11167],[55.49347,-21.11023],[55.49137,-21.10543],[55.49016,-21.10435],[55.48656,-21.10196],[55.48252,-21.10019],[55.48096,-21.10056],[55.48009,-21.09948],[55.47964,-21.09757],[55.48,-21.09575],[55.4784,-21.09329],[55.47696,-21.09216],[55.47605,-21.09211],[55.47542,-21.09117],[55.47417,-21.09126],[55.47364,-21.09045],[55.4697,-21.08797],[55.46763,-21.0872],[55.46705,-21.08642],[55.46436,-21.08575],[55.46316,-21.08308],[55.45859,-21.08209],[55.45705,-21.07996],[55.45507,-21.07929],[55.45387,-21.07829],[55.44978,-21.07184],[55.44695,-21.06939],[55.44608,-21.06949],[55.44401,-21.06664],[55.44598,-21.06492],[55.45263,-21.06086],[55.45271,-21.05978],[55.45426,-21.05793],[55.45436,-21.05711],[55.45349,-21.05535],[55.45436,-21.0535],[55.4546,-21.04885],[55.45383,-21.04497],[55.45455,-21.03893],[55.45407,-21.03657],[55.45422,-21.03052],[55.45994,-21.02812],[55.4621,-21.02654],[55.46206,-21.02528],[55.46066,-21.02266],[55.46028,-21.02076],[55.46114,-21.01512],[55.46278,-21.01449],[55.4659,-21.01128],[55.46889,-21.00993],[55.4723,-21.01033],[55.47482,-21.00873],[55.48085,-21.00754],[55.48788,-21.00496],[55.48879,-21.00424],[55.49376,-21.00342],[55.49491,-21.00247],[55.49817,-21.00126],[55.50775,-21.00009],[55.51102,-21.00125],[55.51395,-21.00329],[55.51626,-21.00749],[55.51742,-21.00875],[55.52386,-21.0064],[55.53184,-21.00573],[55.53285,-21.00503],[55.53751,-21.0047],[55.53839,-21.00412],[55.54069,-21.00427],[55.54324,-21.00554],[55.54588,-21.00572],[55.54771,-21.00648],[55.54997,-21.0059],[55.55348,-21.00657],[55.55468,-21.00639],[55.55742,-21.00332],[55.56122,-21.00255],[55.56281,-21.00065],[55.56732,-20.99893],[55.57017,-20.99627],[55.5742,-20.99364],[55.57837,-20.9976],[55.5814,-20.99964],[55.58309,-20.99985],[55.58417,-20.9991],[55.58534,-21.00012],[55.58412,-21.00235],[55.58465,-21.00539],[55.58152,-21.00679],[55.58032,-21.00814],[55.57787,-21.00886],[55.57638,-21.00986],[55.57344,-21.00986],[55.572,-21.01085],[55.5722,-21.01271],[55.57036,-21.01312],[55.56964,-21.01424],[55.56998,-21.01505],[55.56753,-21.01772],[55.56321,-21.01899],[55.56195,-21.01885],[55.56084,-21.02174],[55.55989,-21.02224],[55.55872,-21.0246],[55.55868,-21.02807],[55.55757,-21.03136],[55.55503,-21.03561],[55.55407,-21.03647],[55.55532,-21.03908],[55.55547,-21.0405],[55.55701,-21.0409],[55.5577,-21.04185],[55.55862,-21.0411],[55.55965,-21.04115],[55.55975,-21.04333],[55.56086,-21.04418],[55.56154,-21.04663],[55.56081,-21.04888],[55.56154,-21.04943],[55.56066,-21.0506],[55.56168,-21.05692],[55.5613,-21.0628],[55.56167,-21.06378],[55.56023,-21.06486],[55.55874,-21.06754],[55.55455,-21.07095],[55.55287,-21.0716],[55.55222,-21.07304]]]},"properties":{"code_insee":"97421","nom_commune":"Salazie","code_rne":"9740651P","nom_college":"Collège Auguste Lacaussade"}},{"type":"Feature","geometry":{"type":"Polygon","coordinates":[[[55.27139,-21.13542],[55.27067,-21.13285],[55.27101,-21.13172],[55.26797,-21.13037],[55.26798,-21.12793],[55.26587,-21.12675],[55.26409,-21.12684],[55.26327,-21.12521],[55.26081,-21.12272],[55.25984,-21.1206],[55.25621,-21.11716],[55.25607,-21.11631],[55.25375,-21.11404],[55.25289,-21.11273],[55.25472,-21.11088],[55.25415,-21.10974],[55.25656,-21.10993],[55.25881,-21.10931],[55.26007,-21.10981],[55.26532,-21.10774],[55.267,-21.1086],[55.2682,-21.10639],[55.27257,-21.10476],[55.27631,-21.10247],[55.27822,-21.10261],[55.27923,-21.10166],[55.28203,-21.10053],[55.28766,-21.09981],[55.29276,-21.09806],[55.29415,-21.09806],[55.29757,-21.09662],[55.29974,-21.09459],[55.30104,-21.09504],[55.30248,-21.09446],[55.3046,-21.0946],[55.30715,-21.09383],[55.30774,-21.09298],[55.30966,-21.09225],[55.31047,-21.09257],[55.31341,-21.09203],[55.31456,-21.09257],[55.3224,-21.09213],[55.32673,-21.09399],[55.32948,-21.09381],[55.33515,-21.09504],[55.33708,-21.0949],[55.33929,-21.0939],[55.34401,-21.09364],[55.35219,-21.09482],[55.35541,-21.09447],[55.35724,-21.09514],[55.35907,-21.09415],[55.3609,-21.09383],[55.36388,-21.0951],[55.36484,-21.09627],[55.36918,-21.097],[55.37052,-21.09782],[55.37528,-21.09926],[55.37856,-21.09913],[55.38395,-21.09737],[55.38496,-21.09791],[55.38967,-21.0986],[55.39545,-21.09837],[55.39752,-21.09928],[55.39968,-21.09941],[55.40219,-21.10271],[55.40492,-21.10447],[55.40555,-21.1056],[55.40805,-21.10714],[55.41032,-21.10949],[55.4145,-21.11148],[55.41695,-21.11342],[55.42214,-21.11518],[55.42273,-21.11649],[55.42186,-21.11744],[55.41998,-21.11798],[55.41815,-21.12114],[55.41593,-21.12272],[55.41127,-21.12204],[55.40848,-21.12212],[55.4061,-21.12143],[55.40506,-21.1201],[55.40342,-21.11938],[55.40236,-21.11938],[55.40107,-21.12023],[55.39957,-21.12023],[55.39837,-21.11937],[55.39597,-21.11914],[55.39394,-21.11833],[55.39313,-21.11878],[55.38885,-21.11778],[55.38605,-21.11801],[55.38384,-21.11891],[55.3797,-21.11922],[55.37546,-21.11732],[55.37383,-21.11597],[55.37056,-21.11502],[55.36964,-21.11551],[55.36839,-21.11497],[55.36469,-21.11547],[55.36272,-21.11461],[55.35872,-21.11555],[55.35554,-21.11428],[55.35352,-21.11487],[55.35068,-21.11419],[55.34156,-21.11528],[55.34055,-21.1161],[55.33441,-21.11747],[55.33239,-21.11755],[55.33016,-21.11666],[55.32707,-21.11756],[55.32541,-21.11711],[55.32305,-21.11823],[55.32228,-21.11936],[55.31661,-21.11967],[55.31506,-21.12012],[55.31396,-21.12147],[55.3062,-21.12377],[55.30206,-21.12675],[55.2919,-21.12818],[55.28906,-21.13053],[55.28492,-21.13296],[55.28391,-21.13291],[55.2828,-21.1339],[55.27957,-21.13376],[55.27774,-21.13421],[55.27712,-21.13381],[55.27485,-21.13498],[55.27346,-21.13475],[55.27187,-21.1357],[55.27139,-21.13542]]]},"properties":{"code_insee":"97423","nom_commune":"Trois-Bassins","code_rne":"9740085Z","nom_college":"Collège Jeanne BARRET - Trois Bassins"}},{"type":"Feature","geometry":{"type":"Polygon","coordinates":[[[55.41593,-21.12272],[55.41815,-21.12114],[55.41998,-21.11798],[55.42186,-21.11744],[55.42273,-21.11649],[55.4245,-21.11708],[55.42576,-21.11686],[55.42774,-21.11537],[55.4283,-21.11371],[55.43231,-21.11369],[55.43269,-21.11288],[55.43567,-21.1123],[55.44033,-21.1079],[55.44298,-21.10715],[55.45006,-21.10336],[55.45175,-21.10187],[55.45415,-21.10106],[55.45531,-21.10016],[55.45599,-21.09889],[55.45488,-21.09374],[55.45637,-21.09316],[55.45738,-21.09329],[55.45834,-21.09248],[55.45916,-21.09072],[55.46205,-21.08895],[55.46344,-21.08643],[55.46436,-21.08575],[55.46705,-21.08642],[55.46763,-21.0872],[55.4697,-21.08797],[55.47364,-21.09045],[55.47417,-21.09126],[55.47542,-21.09117],[55.47605,-21.09211],[55.47696,-21.09216],[55.4784,-21.09329],[55.48,-21.09575],[55.47964,-21.09757],[55.48009,-21.09948],[55.48096,-21.10056],[55.48252,-21.10019],[55.48656,-21.10196],[55.49016,-21.10435],[55.49137,-21.10543],[55.49251,-21.10743],[55.49347,-21.11023],[55.49481,-21.11167],[55.49535,-21.11145],[55.49568,-21.11234],[55.49838,-21.11379],[55.50213,-21.11813],[55.50671,-21.13041],[55.50738,-21.13461],[55.50729,-21.13899],[55.50628,-21.14183],[55.50445,-21.14455],[55.50184,-21.14706],[55.50113,-21.15416],[55.5018,-21.15922],[55.49824,-21.16491],[55.49777,-21.16649],[55.49805,-21.16956],[55.49665,-21.172],[55.49487,-21.17828],[55.49083,-21.18212],[55.48423,-21.18631],[55.47436,-21.19042],[55.4708,-21.1893],[55.46877,-21.19115],[55.46666,-21.19196],[55.4653,-21.19354],[55.46348,-21.19413],[55.46232,-21.19517],[55.45649,-21.19304],[55.45568,-21.19187],[55.45428,-21.19196],[55.45298,-21.1934],[55.45197,-21.19363],[55.44961,-21.19124],[55.44533,-21.19164],[55.44475,-21.19082],[55.43762,-21.18993],[55.43766,-21.18744],[55.43714,-21.1864],[55.43242,-21.18487],[55.4304,-21.18193],[55.42992,-21.17912],[55.42804,-21.17768],[55.42646,-21.17714],[55.42212,-21.17163],[55.41644,-21.1681],[55.41332,-21.16453],[55.41129,-21.15948],[55.41139,-21.15776],[55.41068,-21.15681],[55.41101,-21.15515],[55.41,-21.15343],[55.40769,-21.15121],[55.40538,-21.1471],[55.40553,-21.14453],[55.4038,-21.14015],[55.40418,-21.13821],[55.40626,-21.13604],[55.40818,-21.13564],[55.40842,-21.1331],[55.40991,-21.12922],[55.40983,-21.12841],[55.41064,-21.12723],[55.41257,-21.1266],[55.41445,-21.12394],[55.41593,-21.12272]]]},"properties":{"code_insee":"97424","nom_commune":"Cilaos","code_rne":"9740096L","nom_college":"Collège Alsace Corré"}}]}