{"type":"FeatureCollection","features":[{"type":"Feature","geometry":{"type":"Polygon","coordinates":[[[3.13724,44.40826],[3.13715,44.41091],[3.13238,44.41072],[3.12672,44.41396],[3.12938,44.41601],[3.13027,44.42208],[3.13758,44.42347],[3.1417,44.42635],[3.14198,44.4283],[3.141,44.43068],[3.1422,44.43594],[3.14185,44.43829],[3.14093,44.4392],[3.13762,44.44062],[3.13487,44.44126],[3.13528,44.44342],[3.13637,44.44539],[3.14253,44.44148],[3.14317,44.44188],[3.14667,44.44141],[3.15031,44.4403],[3.15083,44.44205],[3.14845,44.44166],[3.147,44.4427],[3.14702,44.44383],[3.15066,44.44786],[3.15168,44.44996],[3.15204,44.45244],[3.15468,44.45241],[3.15759,44.45307],[3.15851,44.45171],[3.1599,44.4518],[3.16138,44.4507],[3.1632,44.45073],[3.16261,44.44876],[3.16068,44.44599],[3.16048,44.44464],[3.16268,44.44493],[3.17041,44.44451],[3.17165,44.44811],[3.17137,44.45036],[3.17294,44.45053],[3.17343,44.45471],[3.17299,44.45832],[3.17632,44.45875],[3.18084,44.45876],[3.18416,44.45765],[3.18369,44.4554],[3.18805,44.45348],[3.19003,44.455],[3.19129,44.45454],[3.19349,44.45511],[3.19694,44.45485],[3.20123,44.4563],[3.20224,44.45707],[3.20631,44.45533],[3.20667,44.45352],[3.2118,44.45308],[3.211,44.45051],[3.20795,44.44798],[3.21102,44.44728],[3.21173,44.4439],[3.2055,44.44364],[3.19849,44.44044],[3.20477,44.43536],[3.20404,44.43366],[3.2101,44.43185],[3.21009,44.43104],[3.20201,44.42827],[3.20641,44.42445],[3.20719,44.4222],[3.20463,44.42263],[3.20232,44.42368],[3.20041,44.42558],[3.19455,44.4249],[3.18931,44.4266],[3.18829,44.42584],[3.18894,44.41905],[3.18747,44.41726],[3.18622,44.41322],[3.18443,44.41075],[3.18062,44.40749],[3.1792,44.40526],[3.17603,44.40321],[3.17164,44.40364],[3.16968,44.40278],[3.16664,44.40044],[3.16451,44.40059],[3.16606,44.40361],[3.16394,44.40478],[3.15798,44.40487],[3.15536,44.40588],[3.15307,44.40783],[3.14805,44.40903],[3.14446,44.40817],[3.13724,44.40826]]]},"properties":{"code_insee":"48017","nom_commune":"Banassac-Canilhac","code_rne":"0480006W","nom_college":"Collège Sport Nature"}},{"type":"Feature","geometry":{"type":"Polygon","coordinates":[[[3.21387,44.39516],[3.2131,44.39558],[3.21217,44.40586],[3.21297,44.40833],[3.21424,44.41008],[3.21364,44.41202],[3.21229,44.41405],[3.21078,44.41802],[3.20728,44.41904],[3.20719,44.4222],[3.20641,44.42445],[3.20201,44.42827],[3.21009,44.43104],[3.2101,44.43185],[3.20404,44.43366],[3.20477,44.43536],[3.19849,44.44044],[3.2055,44.44364],[3.21173,44.4439],[3.21102,44.44728],[3.20795,44.44798],[3.211,44.45051],[3.2118,44.45308],[3.20667,44.45352],[3.20631,44.45533],[3.20224,44.45707],[3.2027,44.45841],[3.19994,44.45998],[3.19871,44.46397],[3.19681,44.46337],[3.19529,44.46643],[3.19476,44.46945],[3.19578,44.47016],[3.19628,44.47412],[3.19536,44.47575],[3.19367,44.47616],[3.19187,44.47825],[3.19006,44.47889],[3.19053,44.48136],[3.1895,44.48303],[3.1892,44.48867],[3.19005,44.49059],[3.19007,44.49262],[3.18864,44.49452],[3.18932,44.49771],[3.18872,44.49942],[3.18746,44.49966],[3.18901,44.50167],[3.19206,44.50385],[3.1917,44.50533],[3.19193,44.50849],[3.19502,44.50869],[3.19846,44.5115],[3.20339,44.51299],[3.20421,44.51362],[3.20727,44.51283],[3.20607,44.50771],[3.20379,44.5017],[3.20382,44.4994],[3.20569,44.49862],[3.20477,44.49643],[3.20549,44.49385],[3.21153,44.49326],[3.21389,44.49212],[3.21579,44.489],[3.21692,44.4885],[3.22031,44.48829],[3.22202,44.48891],[3.22261,44.49084],[3.22814,44.49076],[3.22929,44.49219],[3.23168,44.49176],[3.23445,44.48806],[3.23733,44.48686],[3.23903,44.48699],[3.24018,44.48913],[3.2428,44.48962],[3.24141,44.48701],[3.24337,44.48353],[3.24975,44.48141],[3.24985,44.47551],[3.25228,44.47427],[3.25332,44.47265],[3.25503,44.47263],[3.26109,44.4707],[3.26356,44.46856],[3.26608,44.46804],[3.26559,44.46562],[3.26798,44.4651],[3.26973,44.46154],[3.27207,44.46219],[3.27386,44.45992],[3.27774,44.45922],[3.28287,44.45414],[3.27956,44.4515],[3.27859,44.44971],[3.27439,44.44971],[3.27127,44.44753],[3.26852,44.44372],[3.26765,44.44089],[3.26989,44.44007],[3.27795,44.44107],[3.28491,44.44013],[3.28384,44.43554],[3.28558,44.43449],[3.28814,44.43397],[3.28949,44.43238],[3.29376,44.43109],[3.30732,44.43174],[3.30961,44.42921],[3.31198,44.42838],[3.31176,44.42635],[3.31059,44.42456],[3.31326,44.42228],[3.3151,44.41877],[3.31338,44.41779],[3.31361,44.41653],[3.31668,44.41596],[3.32326,44.40825],[3.32236,44.40686],[3.32306,44.40335],[3.3246,44.4023],[3.32464,44.39996],[3.3265,44.39882],[3.32665,44.39711],[3.32901,44.39633],[3.32828,44.39427],[3.32891,44.39231],[3.32808,44.38966],[3.32982,44.38734],[3.32792,44.38638],[3.32573,44.38649],[3.32301,44.38544],[3.32324,44.38408],[3.32541,44.38249],[3.32649,44.38001],[3.32551,44.37709],[3.32618,44.37596],[3.32638,44.37353],[3.32826,44.37248],[3.32897,44.37021],[3.3282,44.36942],[3.32297,44.36789],[3.31888,44.36747],[3.31382,44.36517],[3.31159,44.36272],[3.31249,44.36086],[3.31132,44.358],[3.31049,44.35719],[3.31046,44.35468],[3.30707,44.35173],[3.30406,44.35099],[3.29942,44.34802],[3.29795,44.3497],[3.29482,44.34981],[3.29179,44.34853],[3.29545,44.34643],[3.29529,44.34373],[3.29241,44.34087],[3.29001,44.33976],[3.28621,44.33683],[3.28326,44.33695],[3.28075,44.34079],[3.27813,44.3418],[3.2779,44.34279],[3.27986,44.34389],[3.27944,44.34511],[3.27673,44.34757],[3.27619,44.34987],[3.27673,44.35257],[3.27789,44.35494],[3.27794,44.35733],[3.27911,44.35934],[3.27814,44.36151],[3.27527,44.3627],[3.2706,44.36126],[3.26942,44.36257],[3.2606,44.36381],[3.25741,44.36491],[3.25547,44.36408],[3.25502,44.36048],[3.25411,44.35824],[3.24967,44.35827],[3.24529,44.35948],[3.2452,44.36119],[3.24395,44.36265],[3.24172,44.36392],[3.24162,44.3695],[3.24017,44.37266],[3.24011,44.37757],[3.24194,44.378],[3.2401,44.38144],[3.23885,44.38563],[3.229,44.38544],[3.22423,44.38466],[3.22261,44.38148],[3.22058,44.38028],[3.21904,44.37805],[3.22044,44.37538],[3.22004,44.37408],[3.21808,44.37306],[3.21469,44.37294],[3.21359,44.37426],[3.21319,44.3781],[3.21544,44.38073],[3.21659,44.38675],[3.22047,44.3905],[3.21986,44.39118],[3.2163,44.39193],[3.21387,44.39516]]]},"properties":{"code_insee":"48034","nom_commune":"Canourgue","code_rne":"0480006W","nom_college":"Collège Sport Nature"}},{"type":"Feature","geometry":{"type":"Polygon","coordinates":[[[3.30707,44.35173],[3.31046,44.35468],[3.31049,44.35719],[3.31132,44.358],[3.31249,44.36086],[3.31159,44.36272],[3.31382,44.36517],[3.31888,44.36747],[3.32297,44.36789],[3.3282,44.36942],[3.32897,44.37021],[3.32826,44.37248],[3.32638,44.37353],[3.32618,44.37596],[3.32551,44.37709],[3.32649,44.38001],[3.32541,44.38249],[3.32324,44.38408],[3.32301,44.38544],[3.32573,44.38649],[3.32792,44.38638],[3.32982,44.38734],[3.32808,44.38966],[3.32891,44.39231],[3.32828,44.39427],[3.32901,44.39633],[3.32665,44.39711],[3.3265,44.39882],[3.32464,44.39996],[3.3246,44.4023],[3.32306,44.40335],[3.32236,44.40686],[3.32326,44.40825],[3.32229,44.40983],[3.32359,44.41217],[3.32574,44.41381],[3.32685,44.41551],[3.3317,44.41705],[3.33357,44.41622],[3.33492,44.41459],[3.33956,44.41424],[3.34294,44.41334],[3.34377,44.41096],[3.3447,44.41023],[3.35127,44.41188],[3.35784,44.41052],[3.35843,44.41212],[3.3606,44.41395],[3.36277,44.41947],[3.36626,44.42494],[3.37265,44.4246],[3.38249,44.42322],[3.38871,44.42073],[3.39566,44.41608],[3.39451,44.41459],[3.39474,44.4135],[3.39183,44.41246],[3.38964,44.40973],[3.38849,44.40758],[3.38801,44.40543],[3.38504,44.40464],[3.37737,44.40715],[3.3739,44.40992],[3.37227,44.4103],[3.36965,44.40428],[3.36754,44.40188],[3.36794,44.40017],[3.36685,44.39783],[3.36757,44.39625],[3.36702,44.39396],[3.36545,44.39366],[3.36259,44.39494],[3.35918,44.39408],[3.35723,44.39026],[3.35408,44.38957],[3.35329,44.39093],[3.34832,44.39021],[3.34822,44.38765],[3.35559,44.38213],[3.35637,44.38028],[3.35389,44.37833],[3.35342,44.3768],[3.35409,44.37522],[3.3598,44.3753],[3.36511,44.37422],[3.36938,44.37454],[3.37088,44.37745],[3.37586,44.37781],[3.378,44.37231],[3.37792,44.36736],[3.37418,44.36581],[3.37123,44.36584],[3.36937,44.36658],[3.36847,44.36532],[3.36495,44.36455],[3.36279,44.36299],[3.36561,44.35928],[3.36718,44.35629],[3.36484,44.3546],[3.36639,44.35409],[3.36619,44.35288],[3.36062,44.34663],[3.36578,44.34082],[3.36469,44.33944],[3.36211,44.33842],[3.3637,44.33566],[3.36249,44.33455],[3.35998,44.3352],[3.35777,44.33477],[3.35487,44.32966],[3.35372,44.32878],[3.34974,44.33389],[3.34658,44.3319],[3.34366,44.33422],[3.33916,44.32751],[3.3339,44.32801],[3.32687,44.32753],[3.32089,44.33357],[3.31893,44.33268],[3.31389,44.33493],[3.31111,44.33396],[3.30803,44.33642],[3.30692,44.33841],[3.30719,44.3398],[3.30643,44.34246],[3.30789,44.34385],[3.30867,44.34564],[3.30833,44.34695],[3.30922,44.34833],[3.3088,44.34969],[3.30707,44.35173]]]},"properties":{"code_insee":"48085","nom_commune":"Laval-du-Tarn","code_rne":"0480006W","nom_college":"Collège Sport Nature"}},{"type":"Feature","geometry":{"type":"Polygon","coordinates":[[[3.21469,44.37294],[3.21808,44.37306],[3.22004,44.37408],[3.22044,44.37538],[3.21904,44.37805],[3.22058,44.38028],[3.22261,44.38148],[3.22423,44.38466],[3.229,44.38544],[3.23885,44.38563],[3.2401,44.38144],[3.24194,44.378],[3.24011,44.37757],[3.24017,44.37266],[3.24162,44.3695],[3.24172,44.36392],[3.24395,44.36265],[3.2452,44.36119],[3.24529,44.35948],[3.24967,44.35827],[3.25411,44.35824],[3.25502,44.36048],[3.25547,44.36408],[3.25741,44.36491],[3.2606,44.36381],[3.26942,44.36257],[3.2706,44.36126],[3.27527,44.3627],[3.27814,44.36151],[3.27911,44.35934],[3.27794,44.35733],[3.27789,44.35494],[3.27673,44.35257],[3.27619,44.34987],[3.27673,44.34757],[3.27944,44.34511],[3.27986,44.34389],[3.2779,44.34279],[3.27813,44.3418],[3.28075,44.34079],[3.28326,44.33695],[3.28209,44.33507],[3.27879,44.33504],[3.27705,44.3342],[3.27668,44.33754],[3.27368,44.33791],[3.27273,44.33721],[3.27353,44.33489],[3.27528,44.33282],[3.27464,44.33139],[3.2732,44.33131],[3.27517,44.32855],[3.27703,44.32786],[3.27555,44.32539],[3.27801,44.32272],[3.27565,44.32018],[3.277,44.3185],[3.28316,44.31912],[3.28583,44.32067],[3.28738,44.3203],[3.28808,44.31724],[3.28398,44.3152],[3.28307,44.31308],[3.28452,44.31051],[3.2865,44.30834],[3.28705,44.3068],[3.28562,44.30403],[3.2839,44.3025],[3.28193,44.2969],[3.27945,44.2948],[3.27852,44.29121],[3.28036,44.28462],[3.2811,44.28394],[3.2823,44.27998],[3.28374,44.27713],[3.2811,44.27206],[3.28278,44.27137],[3.2858,44.26905],[3.28652,44.26716],[3.2887,44.26539],[3.28735,44.26355],[3.28644,44.2609],[3.28998,44.2601],[3.29077,44.25875],[3.28836,44.25594],[3.28167,44.25293],[3.27749,44.2463],[3.27216,44.24612],[3.27183,44.24869],[3.2709,44.24941],[3.26629,44.25027],[3.26508,44.2491],[3.25792,44.24794],[3.25735,44.24313],[3.2504,44.23959],[3.25005,44.23681],[3.24399,44.2373],[3.2431,44.23687],[3.23621,44.2365],[3.23614,44.23147],[3.23078,44.23331],[3.23054,44.23034],[3.22434,44.23003],[3.22129,44.23109],[3.21769,44.23327],[3.21334,44.23466],[3.21063,44.23428],[3.20529,44.23652],[3.20039,44.23998],[3.19722,44.2409],[3.19227,44.24076],[3.19067,44.24338],[3.19082,44.24473],[3.1893,44.24749],[3.18485,44.24774],[3.17988,44.24566],[3.16848,44.24498],[3.16419,44.24362],[3.16065,44.2454],[3.15721,44.25024],[3.15787,44.25316],[3.15909,44.25495],[3.15995,44.25859],[3.15962,44.26107],[3.15598,44.26577],[3.15479,44.26989],[3.15475,44.27182],[3.15372,44.27381],[3.14649,44.27669],[3.14403,44.27563],[3.14348,44.27153],[3.1383,44.26396],[3.13491,44.26341],[3.13415,44.26228],[3.13056,44.26078],[3.12807,44.26166],[3.12637,44.26154],[3.12416,44.26032],[3.12197,44.26079],[3.12017,44.26184],[3.12272,44.2643],[3.12137,44.26674],[3.1217,44.26813],[3.12514,44.27261],[3.12451,44.27657],[3.1259,44.278],[3.12612,44.28138],[3.12349,44.28464],[3.12556,44.28566],[3.12828,44.28789],[3.1332,44.28952],[3.13428,44.2914],[3.13437,44.29302],[3.13658,44.29404],[3.13741,44.29517],[3.14006,44.29605],[3.1436,44.29881],[3.14545,44.30096],[3.14637,44.30375],[3.1509,44.30577],[3.15425,44.30837],[3.15381,44.31206],[3.15152,44.31536],[3.14618,44.31392],[3.14505,44.31815],[3.14578,44.32057],[3.14828,44.32056],[3.14956,44.3223],[3.15028,44.3246],[3.15193,44.32593],[3.15226,44.32723],[3.15431,44.32983],[3.15426,44.33095],[3.15171,44.33242],[3.14912,44.33199],[3.14644,44.33281],[3.1392,44.33043],[3.13374,44.33033],[3.1339,44.33299],[3.13492,44.33361],[3.13333,44.33678],[3.13172,44.33769],[3.13201,44.34088],[3.12896,44.34288],[3.12897,44.34441],[3.12732,44.34703],[3.12823,44.35],[3.1284,44.35247],[3.12909,44.35287],[3.13039,44.35601],[3.13198,44.35717],[3.13491,44.35653],[3.13786,44.35687],[3.1394,44.35937],[3.14452,44.36131],[3.14708,44.36026],[3.14896,44.36033],[3.15185,44.36517],[3.15491,44.36479],[3.16176,44.3652],[3.16186,44.36848],[3.16437,44.37242],[3.16633,44.37376],[3.16586,44.37611],[3.17092,44.37435],[3.17299,44.37416],[3.17475,44.37514],[3.17657,44.37508],[3.17891,44.37637],[3.18178,44.37517],[3.18468,44.37556],[3.18557,44.37231],[3.18776,44.37166],[3.18812,44.37049],[3.19038,44.37052],[3.19237,44.36957],[3.19866,44.37032],[3.20099,44.37135],[3.20318,44.37092],[3.2082,44.37156],[3.20966,44.37241],[3.21387,44.37242],[3.21469,44.37294]]]},"properties":{"code_insee":"48094","nom_commune":"Massegros Causses Gorges","code_rne":"0480006W","nom_college":"Collège Sport Nature"}},{"type":"Feature","geometry":{"type":"Polygon","coordinates":[[[3.14857,44.47352],[3.14893,44.47658],[3.1522,44.48106],[3.15368,44.48883],[3.15089,44.49214],[3.15129,44.49358],[3.14943,44.49525],[3.14892,44.49935],[3.15032,44.50078],[3.15242,44.50189],[3.15473,44.50547],[3.15757,44.50649],[3.15797,44.50797],[3.16062,44.5093],[3.16187,44.51249],[3.1635,44.51217],[3.16592,44.51057],[3.16553,44.50909],[3.16665,44.50814],[3.16896,44.51208],[3.17126,44.5144],[3.17068,44.52183],[3.17247,44.52366],[3.17686,44.51886],[3.17911,44.51768],[3.18164,44.51779],[3.18282,44.51715],[3.18554,44.51798],[3.18711,44.51397],[3.18714,44.51244],[3.18964,44.51121],[3.19167,44.51272],[3.19286,44.51195],[3.19193,44.50849],[3.1917,44.50533],[3.19206,44.50385],[3.18901,44.50167],[3.18746,44.49966],[3.18872,44.49942],[3.18932,44.49771],[3.18864,44.49452],[3.19007,44.49262],[3.19005,44.49059],[3.1892,44.48867],[3.1895,44.48303],[3.19053,44.48136],[3.19006,44.47889],[3.19187,44.47825],[3.19367,44.47616],[3.19536,44.47575],[3.19628,44.47412],[3.19578,44.47016],[3.19476,44.46945],[3.19529,44.46643],[3.19681,44.46337],[3.19871,44.46397],[3.19994,44.45998],[3.2027,44.45841],[3.20224,44.45707],[3.20123,44.4563],[3.19694,44.45485],[3.19349,44.45511],[3.19129,44.45454],[3.19003,44.455],[3.18805,44.45348],[3.18369,44.4554],[3.18416,44.45765],[3.18084,44.45876],[3.17299,44.45832],[3.17343,44.45471],[3.17294,44.45053],[3.17137,44.45036],[3.17165,44.44811],[3.17041,44.44451],[3.16268,44.44493],[3.16048,44.44464],[3.16068,44.44599],[3.16261,44.44876],[3.1632,44.45073],[3.16138,44.4507],[3.1599,44.4518],[3.15851,44.45171],[3.15759,44.45307],[3.15468,44.45241],[3.15204,44.45244],[3.15273,44.45658],[3.14994,44.45844],[3.1479,44.46188],[3.14874,44.46367],[3.14826,44.46551],[3.14948,44.46712],[3.1497,44.46902],[3.14734,44.47137],[3.14857,44.47352]]]},"properties":{"code_insee":"48156","nom_commune":"Saint-Germain-du-Teil","code_rne":"0480006W","nom_college":"Collège Sport Nature"}},{"type":"Feature","geometry":{"type":"Polygon","coordinates":[[[3.10669,44.53924],[3.10911,44.53787],[3.10838,44.53446],[3.11083,44.53319],[3.11204,44.53074],[3.11604,44.52824],[3.11925,44.52886],[3.12031,44.52803],[3.11984,44.52614],[3.11786,44.52382],[3.11771,44.52134],[3.11542,44.52024],[3.11218,44.51716],[3.11202,44.514],[3.11651,44.51145],[3.11949,44.50892],[3.11979,44.50739],[3.12277,44.5044],[3.12421,44.50362],[3.13405,44.50153],[3.13666,44.49953],[3.13878,44.49871],[3.13965,44.49717],[3.14281,44.49498],[3.14254,44.49345],[3.14045,44.49216],[3.14239,44.49066],[3.14218,44.48895],[3.14353,44.48684],[3.14294,44.48513],[3.14454,44.48265],[3.14698,44.48258],[3.1471,44.48164],[3.14487,44.47944],[3.14536,44.47826],[3.14477,44.47647],[3.14681,44.47385],[3.14857,44.47352],[3.14734,44.47137],[3.1497,44.46902],[3.14948,44.46712],[3.14826,44.46551],[3.14874,44.46367],[3.1479,44.46188],[3.14994,44.45844],[3.15273,44.45658],[3.15168,44.44996],[3.15066,44.44786],[3.14702,44.44383],[3.147,44.4427],[3.14845,44.44166],[3.15083,44.44205],[3.15031,44.4403],[3.14667,44.44141],[3.14317,44.44188],[3.14253,44.44148],[3.13637,44.44539],[3.13721,44.44768],[3.13535,44.44904],[3.13504,44.45418],[3.13683,44.45624],[3.13415,44.45782],[3.13336,44.45928],[3.13133,44.45861],[3.1278,44.45863],[3.12464,44.46131],[3.12453,44.46235],[3.12175,44.46552],[3.12096,44.46795],[3.11733,44.47379],[3.11962,44.47543],[3.1218,44.47906],[3.12087,44.48037],[3.12191,44.48213],[3.12479,44.48179],[3.1254,44.48026],[3.1267,44.47962],[3.13131,44.48058],[3.13095,44.48197],[3.13341,44.48312],[3.13217,44.4843],[3.12999,44.48476],[3.12752,44.48775],[3.12613,44.48821],[3.12236,44.48806],[3.11904,44.48966],[3.11716,44.48958],[3.11338,44.49284],[3.11339,44.49414],[3.11058,44.49601],[3.10818,44.49972],[3.10619,44.50108],[3.1061,44.50419],[3.10398,44.50515],[3.10437,44.50686],[3.10371,44.50942],[3.10266,44.51083],[3.10091,44.51174],[3.10134,44.51511],[3.10018,44.5176],[3.09823,44.51887],[3.09744,44.52081],[3.09779,44.52306],[3.0973,44.52436],[3.0983,44.52832],[3.10329,44.53499],[3.1046,44.53804],[3.10669,44.53924]]]},"properties":{"code_insee":"48175","nom_commune":"Saint-Pierre-de-Nogaret","code_rne":"0480006W","nom_college":"Collège Sport Nature"}},{"type":"Feature","geometry":{"type":"Polygon","coordinates":[[[3.20719,44.4222],[3.20728,44.41904],[3.21078,44.41802],[3.21424,44.41008],[3.21297,44.40833],[3.21217,44.40586],[3.2131,44.39558],[3.21387,44.39516],[3.21123,44.39363],[3.21062,44.39062],[3.2098,44.38933],[3.20779,44.38979],[3.20501,44.38927],[3.20388,44.38833],[3.20047,44.38741],[3.19768,44.38491],[3.19255,44.38613],[3.19536,44.38938],[3.19539,44.39204],[3.1926,44.39377],[3.18632,44.38923],[3.18357,44.38997],[3.18348,44.39236],[3.17752,44.39272],[3.17816,44.39392],[3.17568,44.39597],[3.17655,44.39911],[3.17603,44.40321],[3.1792,44.40526],[3.18062,44.40749],[3.18443,44.41075],[3.18622,44.41322],[3.18747,44.41726],[3.18894,44.41905],[3.18829,44.42584],[3.18931,44.4266],[3.19455,44.4249],[3.20041,44.42558],[3.20232,44.42368],[3.20463,44.42263],[3.20719,44.4222]]]},"properties":{"code_insee":"48181","nom_commune":"Saint-Saturnin","code_rne":"0480006W","nom_college":"Collège Sport Nature"}},{"type":"Feature","geometry":{"type":"Polygon","coordinates":[[[3.13198,44.35717],[3.12461,44.36019],[3.12013,44.36257],[3.11933,44.3641],[3.11961,44.36572],[3.12319,44.37074],[3.12143,44.37525],[3.12444,44.38017],[3.12313,44.38154],[3.11784,44.38427],[3.12167,44.38874],[3.13104,44.39008],[3.14042,44.39221],[3.13806,44.39952],[3.13872,44.40127],[3.13764,44.4043],[3.13724,44.40826],[3.14446,44.40817],[3.14805,44.40903],[3.15307,44.40783],[3.15536,44.40588],[3.15798,44.40487],[3.16394,44.40478],[3.16606,44.40361],[3.16451,44.40059],[3.16664,44.40044],[3.16968,44.40278],[3.17164,44.40364],[3.17603,44.40321],[3.17655,44.39911],[3.17568,44.39597],[3.17816,44.39392],[3.17752,44.39272],[3.18348,44.39236],[3.18357,44.38997],[3.18632,44.38923],[3.1926,44.39377],[3.19539,44.39204],[3.19536,44.38938],[3.19255,44.38613],[3.19768,44.38491],[3.20047,44.38741],[3.20388,44.38833],[3.20501,44.38927],[3.20779,44.38979],[3.2098,44.38933],[3.21062,44.39062],[3.21123,44.39363],[3.21387,44.39516],[3.2163,44.39193],[3.21986,44.39118],[3.22047,44.3905],[3.21659,44.38675],[3.21544,44.38073],[3.21319,44.3781],[3.21359,44.37426],[3.21469,44.37294],[3.21387,44.37242],[3.20966,44.37241],[3.2082,44.37156],[3.20318,44.37092],[3.20099,44.37135],[3.19866,44.37032],[3.19237,44.36957],[3.19038,44.37052],[3.18812,44.37049],[3.18776,44.37166],[3.18557,44.37231],[3.18468,44.37556],[3.18178,44.37517],[3.17891,44.37637],[3.17657,44.37508],[3.17475,44.37514],[3.17299,44.37416],[3.17092,44.37435],[3.16586,44.37611],[3.16633,44.37376],[3.16437,44.37242],[3.16186,44.36848],[3.16176,44.3652],[3.15491,44.36479],[3.15185,44.36517],[3.14896,44.36033],[3.14708,44.36026],[3.14452,44.36131],[3.1394,44.35937],[3.13786,44.35687],[3.13491,44.35653],[3.13198,44.35717]]]},"properties":{"code_insee":"48191","nom_commune":"Tieule","code_rne":"0480006W","nom_college":"Collège Sport Nature"}}]}