{"type":"FeatureCollection","features":[{"type":"Feature","geometry":{"coordinates":[[[2.314536,48.743124],[2.313699,48.74273],[2.312833,48.743324],[2.312583,48.743192],[2.30962,48.745198],[2.307915,48.74418],[2.304781,48.744486],[2.30314,48.743853],[2.303012,48.743528],[2.299494,48.741832],[2.298,48.740756],[2.295296,48.739705],[2.294375,48.739021],[2.290724,48.738084],[2.289984,48.739286],[2.290776,48.740279],[2.297247,48.742039],[2.296864,48.743321],[2.297437,48.744069],[2.29625,48.744544],[2.29546,48.745301],[2.296191,48.746177],[2.298635,48.747546],[2.299246,48.750138],[2.300446,48.750506],[2.300756,48.752646],[2.300419,48.753046],[2.300912,48.754254],[2.306734,48.753105],[2.308694,48.75541],[2.311464,48.754329],[2.310893,48.753759],[2.311625,48.753021],[2.310119,48.752192],[2.312346,48.751352],[2.314145,48.751344],[2.317036,48.75003],[2.317667,48.750141],[2.319307,48.749631],[2.320721,48.748758],[2.319317,48.747122],[2.320466,48.746817],[2.318476,48.745037],[2.317553,48.74449],[2.317202,48.744723],[2.316364,48.74412],[2.316167,48.744319],[2.314344,48.743296],[2.314536,48.743124]]],"type":"Polygon"},"properties":{"nomcom":"ANTONY","num_insee":"92002","rne":"0921786S","code_coll":"0921786S","geo_point_2d":{"lon":2.3065359198355213,"lat":48.74742393486949},"sectorisation":0}},{"type":"Feature","geometry":{"coordinates":[[[2.290464,48.740086],[2.287708,48.73898],[2.287577,48.738411],[2.286197,48.738007],[2.287166,48.736649],[2.288404,48.736972],[2.28929,48.735471],[2.282136,48.733854],[2.279883,48.732749],[2.277295,48.735497],[2.27536,48.738426],[2.275382,48.739587],[2.274553,48.740698],[2.276234,48.740772],[2.276954,48.741669],[2.284828,48.745637],[2.28412,48.746164],[2.285351,48.747519],[2.286677,48.747616],[2.287174,48.748011],[2.291472,48.749364],[2.29245,48.750051],[2.294148,48.749259],[2.29475,48.748309],[2.296843,48.749593],[2.299246,48.750138],[2.298635,48.747546],[2.296191,48.746177],[2.29546,48.745301],[2.29625,48.744544],[2.297437,48.744069],[2.296864,48.743321],[2.297247,48.742039],[2.290464,48.740086]]],"type":"Polygon"},"properties":{"nomcom":"ANTONY","num_insee":"92002","rne":"0921243B","code_coll":"0921243B","geo_point_2d":{"lon":2.286505774184077,"lat":48.741821207735455},"sectorisation":0}},{"type":"Feature","geometry":{"coordinates":[[[2.304293,48.760921],[2.302839,48.758015],[2.302739,48.7571],[2.300436,48.753137],[2.300756,48.752646],[2.300446,48.750506],[2.299863,48.7504],[2.299888,48.750136],[2.296843,48.749593],[2.29513,48.748364],[2.29475,48.748309],[2.294148,48.749259],[2.29245,48.750051],[2.291472,48.749364],[2.287174,48.748011],[2.286677,48.747616],[2.285351,48.747519],[2.282409,48.74986],[2.282079,48.750763],[2.281432,48.751063],[2.279639,48.753008],[2.277275,48.753827],[2.277404,48.754013],[2.275002,48.755252],[2.278586,48.760005],[2.284807,48.760684],[2.288103,48.760486],[2.288174,48.761081],[2.29083,48.760939],[2.290959,48.761345],[2.294331,48.760856],[2.305315,48.763144],[2.305497,48.762859],[2.304293,48.760921]]],"type":"Polygon"},"properties":{"nomcom":"ANTONY","num_insee":"92002","rne":"0921507N","code_coll":"0921507N","geo_point_2d":{"lon":2.2904418016728028,"lat":48.75553105872564},"sectorisation":0}},{"type":"Feature","geometry":{"coordinates":[[[2.308694,48.75541],[2.306734,48.753105],[2.300912,48.754254],[2.302739,48.7571],[2.303396,48.759342],[2.305402,48.763047],[2.294331,48.760856],[2.290957,48.761346],[2.29193,48.764562],[2.290255,48.7666],[2.306577,48.769233],[2.307165,48.769632],[2.307434,48.770753],[2.309262,48.770927],[2.311832,48.770688],[2.312399,48.772137],[2.31992,48.77073],[2.315668,48.766796],[2.315103,48.765698],[2.315374,48.765442],[2.315279,48.764856],[2.314368,48.762054],[2.313617,48.762286],[2.313103,48.761585],[2.313385,48.760161],[2.308694,48.75541]]],"type":"Polygon"},"properties":{"nomcom":"ANTONY","num_insee":"92002","rne":"0921170X","code_coll":"0921170X","geo_point_2d":{"lon":2.3057504840878638,"lat":48.76384979890112},"sectorisation":0}},{"type":"Feature","geometry":{"coordinates":[[[2.310778,48.744323],[2.313699,48.74273],[2.314536,48.743124],[2.317032,48.740894],[2.314315,48.738767],[2.313029,48.738199],[2.314603,48.736858],[2.31816,48.737883],[2.318718,48.737019],[2.317323,48.735581],[2.316482,48.733844],[2.315288,48.733673],[2.315224,48.732716],[2.314217,48.730316],[2.307919,48.729354],[2.30384,48.72949],[2.301547,48.736237],[2.302455,48.740795],[2.297333,48.738166],[2.28929,48.735471],[2.288404,48.736972],[2.287166,48.736649],[2.286197,48.738007],[2.287577,48.738411],[2.287708,48.73898],[2.290464,48.740086],[2.289984,48.739286],[2.290724,48.738084],[2.294375,48.739021],[2.295296,48.739705],[2.298,48.740756],[2.299494,48.741832],[2.303012,48.743528],[2.30314,48.743853],[2.304781,48.744486],[2.307915,48.74418],[2.30962,48.745198],[2.310778,48.744323]]],"type":"Polygon"},"properties":{"nomcom":"ANTONY","num_insee":"92002","rne":"0921868F","code_coll":"0921868F","geo_point_2d":{"lon":2.3065373873930626,"lat":48.737300791961864},"sectorisation":0}},{"type":"Feature","geometry":{"coordinates":[[[2.284369,48.930173],[2.279228,48.928759],[2.280032,48.928646],[2.279441,48.927632],[2.281047,48.927076],[2.281742,48.92579],[2.284005,48.925313],[2.284106,48.924579],[2.278715,48.920908],[2.276055,48.923133],[2.272927,48.927319],[2.271811,48.927769],[2.272393,48.928529],[2.273039,48.933838],[2.274388,48.933268],[2.276888,48.933559],[2.281031,48.933062],[2.283345,48.931749],[2.284369,48.930173]]],"type":"Polygon"},"properties":{"nomcom":"ASNIERES-SUR-SEINE","num_insee":"92004","rne":"0921545E","code_coll":"0921545E","geo_point_2d":{"lon":2.2778588285671937,"lat":48.92811006347252},"sectorisation":0}},{"type":"Feature","geometry":{"coordinates":[[[2.283175,48.914578],[2.283549,48.913841],[2.286233,48.914979],[2.287626,48.91376],[2.289207,48.914379],[2.29126,48.911747],[2.292648,48.912199],[2.293102,48.91117],[2.296087,48.912511],[2.298383,48.909804],[2.294353,48.907726],[2.292307,48.905993],[2.287395,48.903642],[2.284588,48.906496],[2.283662,48.906234],[2.28103,48.907591],[2.272962,48.913289],[2.280649,48.919101],[2.283175,48.914578]]],"type":"Polygon"},"properties":{"nomcom":"ASNIERES-SUR-SEINE","num_insee":"92004","rne":"0922565N","code_coll":"0922565N","geo_point_2d":{"lon":2.2851576377832097,"lat":48.91091746437469},"sectorisation":0}},{"type":"Feature","geometry":{"coordinates":[[[2.295827,48.915924],[2.295222,48.915635],[2.293476,48.916902],[2.289824,48.915151],[2.290183,48.914752],[2.287626,48.91376],[2.286233,48.914979],[2.283549,48.913841],[2.28091,48.919011],[2.278715,48.920908],[2.284106,48.924579],[2.284005,48.925313],[2.281742,48.92579],[2.281047,48.927076],[2.279441,48.927632],[2.280032,48.928646],[2.279228,48.928759],[2.284369,48.930173],[2.284503,48.92612],[2.28628,48.92288],[2.285948,48.92268],[2.289929,48.919163],[2.291898,48.917903],[2.295248,48.919917],[2.295827,48.915924]]],"type":"Polygon"},"properties":{"nomcom":"ASNIERES-SUR-SEINE","num_insee":"92004","rne":"0921622N","code_coll":"0921622N","geo_point_2d":{"lon":2.2857701592749873,"lat":48.92014381761086},"sectorisation":0}},{"type":"Feature","geometry":{"coordinates":[[[2.309788,48.912788],[2.302268,48.911202],[2.298383,48.909804],[2.296087,48.912511],[2.293102,48.91117],[2.292648,48.912199],[2.29126,48.911747],[2.289207,48.914379],[2.290183,48.914752],[2.289824,48.915151],[2.293476,48.916902],[2.295222,48.915635],[2.295827,48.915924],[2.296383,48.912707],[2.310111,48.918438],[2.317764,48.920836],[2.322015,48.918671],[2.319819,48.915937],[2.309788,48.912788]]],"type":"Polygon"},"properties":{"nomcom":"ASNIERES-SUR-SEINE","num_insee":"92004","rne":"0921547G","code_coll":"0921547G","geo_point_2d":{"lon":2.306661437948194,"lat":48.91519355038655},"sectorisation":0}},{"type":"Feature","geometry":{"coordinates":[[[2.282417,48.906913],[2.281345,48.906178],[2.278835,48.906646],[2.276158,48.906664],[2.274295,48.908284],[2.268153,48.905966],[2.267039,48.906012],[2.266394,48.906293],[2.264944,48.910271],[2.2667,48.910619],[2.272154,48.910171],[2.27233,48.912732],[2.272962,48.913289],[2.279543,48.908529],[2.282417,48.906913]]],"type":"Polygon"},"properties":{"nomcom":"ASNIERES-SUR-SEINE","num_insee":"92004","rne":"0921779J","code_coll":"0921779J","geo_point_2d":{"lon":2.272706921917958,"lat":48.90886708226054},"sectorisation":0}},{"type":"Feature","geometry":{"coordinates":[[[2.287395,48.903642],[2.284274,48.902286],[2.281845,48.90462],[2.280133,48.903645],[2.276158,48.906664],[2.278835,48.906646],[2.281345,48.906178],[2.282417,48.906913],[2.283752,48.906215],[2.284588,48.906496],[2.287395,48.903642]]],"type":"Polygon"},"properties":{"nomcom":"ASNIERES-SUR-SEINE","num_insee":"92004","rne":"0922523T","code_coll":"0922523T","geo_point_2d":{"lon":2.282293609770268,"lat":48.90495310388515},"sectorisation":0}},{"type":"Feature","geometry":{"coordinates":[[[2.313829,48.800712],[2.313483,48.801655],[2.30952,48.800998],[2.30835,48.8002],[2.306902,48.802143],[2.305558,48.801351],[2.304931,48.801488],[2.303123,48.803811],[2.303823,48.806088],[2.305944,48.808556],[2.301739,48.80998],[2.302545,48.811006],[2.317461,48.809881],[2.319077,48.810005],[2.317861,48.808405],[2.318336,48.806023],[2.320412,48.806127],[2.321028,48.805688],[2.321739,48.805951],[2.323995,48.805362],[2.324442,48.805817],[2.324341,48.806693],[2.324786,48.807015],[2.325004,48.808154],[2.325249,48.80842],[2.326357,48.808296],[2.324025,48.801767],[2.318752,48.802054],[2.317922,48.79973],[2.314524,48.800172],[2.313829,48.800712]]],"type":"Polygon"},"properties":{"nomcom":"BAGNEUX","num_insee":"92007","rne":"0921778H","code_coll":"0921778H","geo_point_2d":{"lon":2.3130066802939937,"lat":48.805439580014585},"sectorisation":0}},{"type":"Feature","geometry":{"coordinates":[[[2.314136,48.78938],[2.313074,48.78969],[2.312955,48.789995],[2.310969,48.789845],[2.313485,48.793878],[2.30879,48.794291],[2.308127,48.796316],[2.308518,48.796512],[2.308075,48.796524],[2.308041,48.797164],[2.307357,48.797582],[2.313917,48.800752],[2.314524,48.800172],[2.317922,48.79973],[2.318752,48.802054],[2.324025,48.801767],[2.318696,48.787997],[2.314136,48.78938]]],"type":"Polygon"},"properties":{"nomcom":"BAGNEUX","num_insee":"92007","rne":"0921631Y","code_coll":"0921631Y","geo_point_2d":{"lon":2.316205294614573,"lat":48.79566558832131},"sectorisation":0}},{"type":"Feature","geometry":{"coordinates":[[[2.313829,48.800712],[2.307357,48.797582],[2.308041,48.797164],[2.308075,48.796524],[2.308518,48.796512],[2.308127,48.796316],[2.30879,48.794291],[2.313485,48.793878],[2.310969,48.789845],[2.312955,48.789995],[2.313074,48.78969],[2.314136,48.78938],[2.312446,48.789318],[2.311196,48.787295],[2.310842,48.785777],[2.309698,48.784898],[2.306029,48.784982],[2.303118,48.785531],[2.298894,48.792276],[2.297496,48.793679],[2.298316,48.794469],[2.296175,48.795766],[2.292224,48.795972],[2.293454,48.797569],[2.299623,48.802874],[2.303022,48.803407],[2.303123,48.803811],[2.305023,48.801422],[2.305558,48.801351],[2.306902,48.802143],[2.30835,48.8002],[2.30952,48.800998],[2.313483,48.801655],[2.313829,48.800712]]],"type":"Polygon"},"properties":{"nomcom":"BAGNEUX","num_insee":"92007","rne":"0921168V","code_coll":"0921168V","geo_point_2d":{"lon":2.3042228437631356,"lat":48.79439241071379},"sectorisation":0}},{"type":"Feature","geometry":{"coordinates":[[[2.26508,48.916273],[2.264832,48.915737],[2.263733,48.915899],[2.263307,48.914208],[2.27233,48.912732],[2.272154,48.910171],[2.2667,48.910619],[2.264944,48.910271],[2.267001,48.904654],[2.263255,48.903386],[2.261372,48.906817],[2.258216,48.906077],[2.257044,48.910947],[2.257671,48.910879],[2.257935,48.913489],[2.257412,48.913559],[2.257477,48.913886],[2.261551,48.913877],[2.261822,48.916689],[2.262352,48.917896],[2.265579,48.917016],[2.26508,48.916273]]],"type":"Polygon"},"properties":{"nomcom":"BOIS-COLOMBES","num_insee":"92009","rne":"0921779J","code_coll":"0921779J","geo_point_2d":{"lon":2.263467186969046,"lat":48.91049547486915},"sectorisation":0}},{"type":"Feature","geometry":{"coordinates":[[[2.27233,48.912732],[2.263307,48.914208],[2.263733,48.915899],[2.264832,48.915737],[2.265579,48.917016],[2.262352,48.917896],[2.262391,48.918814],[2.263185,48.920208],[2.264613,48.919174],[2.265213,48.920365],[2.267159,48.919505],[2.268313,48.921286],[2.267946,48.92138],[2.268641,48.922973],[2.269787,48.924663],[2.26775,48.925035],[2.27332,48.926848],[2.276055,48.923133],[2.280649,48.919101],[2.27233,48.912732]]],"type":"Polygon"},"properties":{"nomcom":"BOIS-COLOMBES","num_insee":"92009","rne":"0922629H","code_coll":"0922629H","geo_point_2d":{"lon":2.271484823962322,"lat":48.91899414263853},"sectorisation":0}},{"type":"Feature","geometry":{"coordinates":[[[2.248711,48.824489],[2.246213,48.828845],[2.242185,48.827249],[2.239517,48.829977],[2.23891,48.83018],[2.240442,48.830861],[2.239503,48.83239],[2.238171,48.831995],[2.236621,48.836157],[2.252305,48.838142],[2.255144,48.83481],[2.262792,48.833923],[2.259784,48.831131],[2.256236,48.829017],[2.251694,48.825751],[2.248711,48.824489]]],"type":"Polygon"},"properties":{"nomcom":"BOULOGNE-BILLANCOURT","num_insee":"92012","rne":"0921238W","code_coll":"0921238W","geo_point_2d":{"lon":2.2487420982403132,"lat":48.832198668192},"sectorisation":0}},{"type":"Feature","geometry":{"coordinates":[[[2.226906,48.828485],[2.239503,48.83239],[2.240442,48.830861],[2.238827,48.830261],[2.239517,48.829977],[2.241875,48.827364],[2.242185,48.827249],[2.246213,48.828845],[2.248711,48.824489],[2.239576,48.821831],[2.236107,48.821549],[2.233208,48.822437],[2.229837,48.824568],[2.227637,48.82684],[2.226906,48.828485]]],"type":"Polygon"},"properties":{"nomcom":"BOULOGNE-BILLANCOURT","num_insee":"92012","rne":"0921239X","code_coll":"0921239X","geo_point_2d":{"lon":2.2373951885652272,"lat":48.826342969709245},"sectorisation":0}},{"type":"Feature","geometry":{"coordinates":[[[2.22927,48.829194],[2.226906,48.828485],[2.225919,48.832736],[2.223117,48.836558],[2.22304,48.839645],[2.225325,48.846305],[2.225529,48.847643],[2.225483,48.84971],[2.224219,48.853517],[2.226417,48.852886],[2.226455,48.851564],[2.227315,48.848664],[2.227174,48.846841],[2.225285,48.841173],[2.237459,48.839925],[2.237944,48.836344],[2.236621,48.836157],[2.238171,48.831995],[2.22927,48.829194]]],"type":"Polygon"},"properties":{"nomcom":"BOULOGNE-BILLANCOURT","num_insee":"92012","rne":"0921237V","code_coll":"0921237V","geo_point_2d":{"lon":2.2298671321481196,"lat":48.83712003410213},"sectorisation":0}},{"type":"Feature","geometry":{"coordinates":[[[2.237944,48.836344],[2.237459,48.839925],[2.225285,48.841173],[2.22575,48.84196],[2.227296,48.847471],[2.227253,48.849103],[2.226455,48.851564],[2.226417,48.852886],[2.23918,48.850042],[2.240184,48.849571],[2.242362,48.847658],[2.250516,48.845555],[2.252478,48.845486],[2.251216,48.84289],[2.251709,48.838822],[2.252297,48.838135],[2.237944,48.836344]]],"type":"Polygon"},"properties":{"nomcom":"BOULOGNE-BILLANCOURT","num_insee":"92012","rne":"0921236U","code_coll":"0921236U","geo_point_2d":{"lon":2.2383811463178738,"lat":48.8440478673372},"sectorisation":0}},{"type":"Feature","geometry":{"coordinates":[[[2.32374,48.776584],[2.31992,48.77073],[2.312399,48.772137],[2.314245,48.77679],[2.32374,48.776584]]],"type":"Polygon"},"properties":{"nomcom":"BOURG-LA-REINE","num_insee":"92014","rne":"0921170X","code_coll":"0921170X","geo_point_2d":{"lon":2.317845217675078,"lat":48.7741611853172},"sectorisation":0}},{"type":"Feature","geometry":{"coordinates":[[[2.32374,48.776584],[2.314253,48.776812],[2.312069,48.776546],[2.306911,48.777463],[2.307445,48.778233],[2.306852,48.778362],[2.310471,48.78489],[2.309698,48.784898],[2.310842,48.785777],[2.311196,48.787295],[2.312446,48.789318],[2.314136,48.78938],[2.325119,48.786317],[2.324906,48.784434],[2.324373,48.783319],[2.324837,48.783229],[2.324444,48.782241],[2.325815,48.781908],[2.32458,48.779074],[2.326617,48.778732],[2.325725,48.777075],[2.325028,48.77725],[2.324243,48.77636],[2.32374,48.776584]]],"type":"Polygon"},"properties":{"nomcom":"BOURG-LA-REINE","num_insee":"92014","rne":"0921242A","code_coll":"0921242A","geo_point_2d":{"lon":2.316847894489308,"lat":48.78210720916594},"sectorisation":0}},{"type":"Feature","geometry":{"coordinates":[[[2.267077,48.769052],[2.264581,48.768675],[2.26426,48.767741],[2.264627,48.766803],[2.260472,48.766168],[2.260469,48.765413],[2.260003,48.764816],[2.262225,48.764128],[2.259412,48.763427],[2.258087,48.761188],[2.255012,48.76139],[2.251451,48.760735],[2.249331,48.761846],[2.247009,48.760824],[2.24524,48.762631],[2.240702,48.763766],[2.238587,48.766474],[2.232603,48.766034],[2.233058,48.769378],[2.231922,48.770933],[2.230557,48.771358],[2.230681,48.773645],[2.230213,48.774082],[2.228844,48.774465],[2.228774,48.77567],[2.229063,48.776143],[2.230385,48.7768],[2.237456,48.776297],[2.237235,48.775534],[2.236487,48.774971],[2.236807,48.773717],[2.238499,48.773793],[2.239196,48.772662],[2.242059,48.773061],[2.241918,48.773832],[2.243838,48.773069],[2.24632,48.772716],[2.246472,48.773511],[2.251293,48.772579],[2.25407,48.772756],[2.254126,48.773026],[2.255707,48.773237],[2.259334,48.773137],[2.26431,48.774591],[2.264288,48.774935],[2.264966,48.775048],[2.266474,48.773825],[2.267528,48.773382],[2.266696,48.771916],[2.268914,48.771104],[2.27004,48.769638],[2.267077,48.769052]]],"type":"Polygon"},"properties":{"nomcom":"CHATENAY-MALABRY","num_insee":"92019","rne":"0921179G","code_coll":"0921179G","geo_point_2d":{"lon":2.2489128270727505,"lat":48.76883179921483},"sectorisation":0}},{"type":"Feature","geometry":{"coordinates":[[[2.290959,48.761345],[2.271993,48.763978],[2.272528,48.767187],[2.267398,48.768272],[2.267077,48.769052],[2.27004,48.769638],[2.268914,48.771104],[2.266696,48.771916],[2.267528,48.773382],[2.266474,48.773825],[2.264966,48.775048],[2.265917,48.775556],[2.267229,48.775287],[2.267071,48.775683],[2.267403,48.776451],[2.269332,48.775982],[2.269888,48.776553],[2.272386,48.777341],[2.274393,48.777012],[2.275062,48.779497],[2.275378,48.779487],[2.276226,48.781305],[2.277508,48.781106],[2.278093,48.782095],[2.278976,48.78275],[2.279475,48.782547],[2.279943,48.782079],[2.28044,48.780161],[2.280112,48.779077],[2.278299,48.776454],[2.280135,48.773918],[2.28271,48.774779],[2.282528,48.77445],[2.285069,48.774404],[2.287013,48.773711],[2.286222,48.77287],[2.286286,48.771302],[2.29193,48.764562],[2.290959,48.761345]]],"type":"Polygon"},"properties":{"nomcom":"CHATENAY-MALABRY","num_insee":"92019","rne":"0921181J","code_coll":"0921181J","geo_point_2d":{"lon":2.2787234047251155,"lat":48.770117905887766},"sectorisation":0}},{"type":"Feature","geometry":{"coordinates":[[[2.290959,48.761345],[2.29083,48.760939],[2.288174,48.761081],[2.288103,48.760486],[2.284807,48.760684],[2.278586,48.760005],[2.276122,48.756624],[2.271415,48.757783],[2.269432,48.757653],[2.270916,48.7607],[2.268684,48.7607],[2.268881,48.762031],[2.267167,48.762323],[2.264926,48.761453],[2.262002,48.759788],[2.259393,48.761012],[2.258087,48.761188],[2.259412,48.763427],[2.262225,48.764128],[2.260003,48.764816],[2.260469,48.765413],[2.260472,48.766168],[2.264627,48.766803],[2.26426,48.767741],[2.264581,48.768675],[2.267077,48.769052],[2.267398,48.768272],[2.272528,48.767187],[2.27205,48.76396],[2.290959,48.761345]]],"type":"Polygon"},"properties":{"nomcom":"CHATENAY-MALABRY","num_insee":"92019","rne":"0921180H","code_coll":"0921180H","geo_point_2d":{"lon":2.271037809760237,"lat":48.76265204147827},"sectorisation":0}},{"type":"Feature","geometry":{"coordinates":[[[2.299585,48.81098],[2.298129,48.8096],[2.281303,48.799758],[2.27818,48.799349],[2.277005,48.799716],[2.276478,48.799099],[2.276488,48.80047],[2.277541,48.801508],[2.273086,48.801858],[2.276105,48.805252],[2.277245,48.807579],[2.279911,48.810918],[2.283257,48.810557],[2.283483,48.810224],[2.285169,48.810621],[2.290437,48.808944],[2.29045,48.809702],[2.292005,48.809714],[2.293576,48.811911],[2.293834,48.811919],[2.294823,48.810441],[2.29802,48.812124],[2.299585,48.81098]]],"type":"Polygon"},"properties":{"nomcom":"CHATILLON","num_insee":"92020","rne":"0921354X","code_coll":"0921354X","geo_point_2d":{"lon":2.2845845995503673,"lat":48.806082684581085},"sectorisation":0}},{"type":"Feature","geometry":{"coordinates":[[[2.278173,48.799354],[2.280014,48.799337],[2.278544,48.798539],[2.278972,48.798197],[2.277189,48.797146],[2.277214,48.796759],[2.277903,48.796255],[2.272193,48.794125],[2.271386,48.794906],[2.276375,48.797719],[2.27532,48.798255],[2.275629,48.798943],[2.276219,48.798813],[2.277005,48.799716],[2.278173,48.799354]]],"type":"Polygon"},"properties":{"nomcom":"CHATILLON","num_insee":"92020","rne":"0920653K","code_coll":"0920653K","geo_point_2d":{"lon":2.2758157152665643,"lat":48.796999497593006},"sectorisation":0}},{"type":"Feature","geometry":{"coordinates":[[[2.278502,48.799389],[2.281303,48.799758],[2.282634,48.800366],[2.298129,48.8096],[2.300098,48.811327],[2.302689,48.81112],[2.301739,48.80998],[2.305944,48.808556],[2.303823,48.806088],[2.303022,48.803407],[2.299623,48.802874],[2.293454,48.797569],[2.292224,48.795972],[2.29012,48.795529],[2.287933,48.79449],[2.286548,48.796148],[2.285422,48.796613],[2.284482,48.795896],[2.280525,48.79502],[2.280252,48.795582],[2.278524,48.795554],[2.276734,48.795937],[2.277903,48.796255],[2.277214,48.796759],[2.277189,48.797146],[2.278972,48.798197],[2.278544,48.798539],[2.280014,48.799337],[2.278502,48.799389]]],"type":"Polygon"},"properties":{"nomcom":"CHATILLON","num_insee":"92020","rne":"0920880G","code_coll":"0920880G","geo_point_2d":{"lon":2.292295545761613,"lat":48.80215891119646},"sectorisation":0}},{"type":"Feature","geometry":{"coordinates":[[[2.176743,48.814009],[2.178522,48.814857],[2.181106,48.814664],[2.182859,48.815443],[2.189774,48.81576],[2.189678,48.816101],[2.190009,48.8164],[2.189576,48.816705],[2.191724,48.81687],[2.194616,48.81851],[2.197879,48.820917],[2.200261,48.819056],[2.198211,48.818052],[2.199543,48.817076],[2.199047,48.816541],[2.197228,48.815763],[2.196692,48.815142],[2.205807,48.808875],[2.204462,48.802667],[2.203993,48.802367],[2.204692,48.80208],[2.206047,48.799937],[2.202624,48.798431],[2.198405,48.798616],[2.196529,48.79755],[2.182937,48.797228],[2.186964,48.800705],[2.185415,48.80106],[2.181964,48.800598],[2.180423,48.804807],[2.183067,48.805257],[2.181924,48.806184],[2.180369,48.80818],[2.178552,48.809593],[2.17818,48.809441],[2.177385,48.809966],[2.177404,48.810226],[2.176393,48.810922],[2.176594,48.811578],[2.175937,48.811948],[2.175856,48.812623],[2.176743,48.814009]]],"type":"Polygon"},"properties":{"nomcom":"CHAVILLE","num_insee":"92022","rne":"0920689Z","code_coll":"0920689Z","geo_point_2d":{"lon":2.1920867686308396,"lat":48.80746903667214},"sectorisation":0}},{"type":"Feature","geometry":{"coordinates":[[[2.267134,48.801432],[2.273111,48.801856],[2.277541,48.801508],[2.276488,48.80047],[2.276475,48.799087],[2.276219,48.798813],[2.275629,48.798943],[2.27532,48.798255],[2.276375,48.797719],[2.271386,48.794906],[2.272193,48.794125],[2.272989,48.790833],[2.267256,48.789017],[2.266419,48.791477],[2.267667,48.791953],[2.267319,48.792182],[2.262884,48.791422],[2.262408,48.791615],[2.261881,48.793265],[2.261383,48.793649],[2.260089,48.793761],[2.259457,48.794399],[2.256278,48.79519],[2.254802,48.796078],[2.25801,48.798594],[2.261199,48.800454],[2.264171,48.799821],[2.265711,48.801838],[2.267134,48.801432]]],"type":"Polygon"},"properties":{"nomcom":"CLAMART","num_insee":"92023","rne":"0920653K","code_coll":"0920653K","geo_point_2d":{"lon":2.266974556379261,"lat":48.79646705758558},"sectorisation":0}},{"type":"Feature","geometry":{"coordinates":[[[2.255487,48.795737],[2.256278,48.79519],[2.259457,48.794399],[2.260089,48.793761],[2.261383,48.793649],[2.261881,48.793265],[2.262408,48.791615],[2.262884,48.791422],[2.267319,48.792182],[2.267667,48.791953],[2.266419,48.791477],[2.267256,48.789017],[2.263903,48.788412],[2.258729,48.786143],[2.255615,48.785167],[2.252484,48.784521],[2.250572,48.78468],[2.248391,48.782536],[2.246827,48.780384],[2.246318,48.779105],[2.240278,48.779844],[2.239204,48.77625],[2.240669,48.776075],[2.240304,48.774764],[2.23768,48.776281],[2.230385,48.7768],[2.228911,48.775979],[2.228844,48.774465],[2.227065,48.776135],[2.224953,48.776676],[2.224105,48.777799],[2.22425,48.779206],[2.22369,48.780645],[2.226616,48.781582],[2.229698,48.783094],[2.234847,48.784534],[2.23585,48.788268],[2.236612,48.788935],[2.234912,48.794953],[2.238387,48.794915],[2.241573,48.7954],[2.241318,48.795522],[2.245689,48.798022],[2.248673,48.800213],[2.255487,48.795737]]],"type":"Polygon"},"properties":{"nomcom":"CLAMART","num_insee":"92023","rne":"0920854D","code_coll":"0920854D","geo_point_2d":{"lon":2.2447917992190454,"lat":48.78744882155438},"sectorisation":0}},{"type":"Feature","geometry":{"coordinates":[[[2.273111,48.801856],[2.268171,48.801386],[2.265711,48.801838],[2.264171,48.799821],[2.261199,48.800454],[2.25801,48.798594],[2.254867,48.796192],[2.252183,48.797906],[2.256326,48.802885],[2.256105,48.802973],[2.257191,48.803211],[2.258679,48.804849],[2.259438,48.805236],[2.258626,48.808969],[2.257745,48.809724],[2.257596,48.810864],[2.255001,48.810139],[2.254362,48.812884],[2.259998,48.813182],[2.260938,48.811974],[2.264554,48.813125],[2.272112,48.813882],[2.270483,48.811351],[2.27449,48.813433],[2.275957,48.812446],[2.279966,48.810973],[2.277245,48.807579],[2.276105,48.805252],[2.273111,48.801856]]],"type":"Polygon"},"properties":{"nomcom":"CLAMART","num_insee":"92023","rne":"0920068Z","code_coll":"0920068Z","geo_point_2d":{"lon":2.265822418886862,"lat":48.80664511160386},"sectorisation":0}},{"type":"Feature","geometry":{"coordinates":[[[2.252183,48.797906],[2.248673,48.800213],[2.245689,48.798022],[2.241318,48.795522],[2.241573,48.7954],[2.23613,48.794814],[2.234912,48.794953],[2.234789,48.795425],[2.236064,48.795601],[2.238765,48.797758],[2.2396,48.799633],[2.240065,48.799629],[2.240592,48.800715],[2.241578,48.800903],[2.241806,48.801602],[2.241031,48.80191],[2.241648,48.802974],[2.242346,48.803443],[2.242755,48.803252],[2.243423,48.803913],[2.245094,48.804732],[2.245726,48.804295],[2.246284,48.804798],[2.248252,48.803933],[2.248899,48.804642],[2.249211,48.805672],[2.249558,48.805586],[2.248576,48.806477],[2.248277,48.807459],[2.250338,48.807818],[2.252777,48.809654],[2.257596,48.810864],[2.257745,48.809724],[2.258626,48.808969],[2.259417,48.805173],[2.258679,48.804849],[2.257191,48.803211],[2.256105,48.802973],[2.256326,48.802885],[2.252183,48.797906]]],"type":"Polygon"},"properties":{"nomcom":"CLAMART","num_insee":"92023","rne":"0921782M","code_coll":"0921782M","geo_point_2d":{"lon":2.2491247089910575,"lat":48.80270116797842},"sectorisation":0}},{"type":"Feature","geometry":{"coordinates":[[[2.27449,48.813433],[2.27058,48.811358],[2.272112,48.813882],[2.264554,48.813125],[2.260938,48.811974],[2.259998,48.813182],[2.254362,48.812884],[2.253645,48.814116],[2.254341,48.814272],[2.251866,48.816385],[2.255577,48.816686],[2.256477,48.817032],[2.257049,48.815957],[2.257614,48.816163],[2.25836,48.815214],[2.258912,48.815474],[2.25968,48.814914],[2.259363,48.814779],[2.259536,48.814616],[2.259935,48.81426],[2.260366,48.814386],[2.261298,48.813308],[2.263938,48.814471],[2.264938,48.813574],[2.274196,48.814543],[2.277189,48.815344],[2.278071,48.814822],[2.278183,48.814249],[2.27449,48.813433]]],"type":"Polygon"},"properties":{"nomcom":"CLAMART","num_insee":"92023","rne":"0922247T","code_coll":"0922247T","geo_point_2d":{"lon":2.2625166209260876,"lat":48.81419766068966},"sectorisation":0}},{"type":"Feature","geometry":{"coordinates":[[[2.320562,48.903699],[2.312901,48.90321],[2.310255,48.905353],[2.305846,48.90348],[2.302445,48.907015],[2.300462,48.908097],[2.299259,48.910128],[2.302268,48.911202],[2.307509,48.912156],[2.313768,48.914045],[2.316596,48.910274],[2.316269,48.910157],[2.318323,48.908052],[2.317999,48.9079],[2.320851,48.904666],[2.320562,48.903699]]],"type":"Polygon"},"properties":{"nomcom":"CLICHY","num_insee":"92024","rne":"0921623P","code_coll":"0921623P","geo_point_2d":{"lon":2.3104086229375973,"lat":48.90811089024662},"sectorisation":0}},{"type":"Feature","geometry":{"coordinates":[[[2.305957,48.903532],[2.305846,48.90348],[2.305957,48.903532],[2.305957,48.903532]]],"type":"Polygon"},"properties":{"nomcom":"CLICHY","num_insee":"92024","rne":"0922595W","code_coll":"0922595W","geo_point_2d":{"lon":2.3059198927420073,"lat":48.90351485124405},"sectorisation":0}},{"type":"Feature","geometry":{"coordinates":[[[2.305715,48.89509],[2.303774,48.894154],[2.287395,48.903642],[2.292307,48.905993],[2.295005,48.908132],[2.299259,48.910128],[2.300462,48.908097],[2.302445,48.907015],[2.306317,48.90293],[2.304385,48.902307],[2.307979,48.897809],[2.309567,48.896716],[2.305715,48.89509]]],"type":"Polygon"},"properties":{"nomcom":"CLICHY","num_insee":"92024","rne":"0922595W","code_coll":"0922595W","geo_point_2d":{"lon":2.2991552363084686,"lat":48.90206984841881},"sectorisation":0}},{"type":"Feature","geometry":{"coordinates":[[[2.310255,48.905353],[2.312901,48.90321],[2.320562,48.903699],[2.319609,48.901355],[2.319887,48.90046],[2.31852,48.899638],[2.309567,48.896716],[2.307979,48.897809],[2.304385,48.902307],[2.306317,48.90293],[2.305846,48.90348],[2.310255,48.905353]]],"type":"Polygon"},"properties":{"nomcom":"CLICHY","num_insee":"92024","rne":"0921228K","code_coll":"0921228K","geo_point_2d":{"lon":2.3121206042771516,"lat":48.901148429120376},"sectorisation":0}},{"type":"Feature","geometry":{"coordinates":[[[2.260122,48.923842],[2.259515,48.923394],[2.257295,48.923478],[2.255868,48.922886],[2.25264,48.922926],[2.252643,48.920809],[2.250681,48.920676],[2.248888,48.918115],[2.24668,48.917845],[2.242754,48.916643],[2.240708,48.91893],[2.245248,48.921268],[2.24491,48.921531],[2.242193,48.920965],[2.240101,48.924717],[2.245151,48.92576],[2.247191,48.925652],[2.24698,48.927394],[2.251339,48.928056],[2.253722,48.927641],[2.253011,48.926118],[2.259084,48.925655],[2.259612,48.923794],[2.260122,48.923842]]],"type":"Polygon"},"properties":{"nomcom":"COLOMBES","num_insee":"92025","rne":"0921494Z","code_coll":"0921494Z","geo_point_2d":{"lon":2.2485797144111657,"lat":48.9229438193228},"sectorisation":0}},{"type":"Feature","geometry":{"coordinates":[[[2.239344,48.922076],[2.241562,48.922113],[2.242193,48.920965],[2.24491,48.921531],[2.245248,48.921268],[2.240208,48.918703],[2.225768,48.913087],[2.223963,48.9152],[2.22211,48.916488],[2.224145,48.917988],[2.22376,48.918256],[2.232377,48.922016],[2.237089,48.922275],[2.239344,48.922076]]],"type":"Polygon"},"properties":{"nomcom":"COLOMBES","num_insee":"92025","rne":"0921675W","code_coll":"0921675W","geo_point_2d":{"lon":2.23232719715975,"lat":48.918480638139016},"sectorisation":0}},{"type":"Feature","geometry":{"coordinates":[[[2.259084,48.925655],[2.253011,48.926118],[2.253722,48.927641],[2.250656,48.928029],[2.24698,48.927394],[2.247191,48.925652],[2.245151,48.92576],[2.240101,48.924717],[2.241562,48.922113],[2.237089,48.922275],[2.232377,48.922016],[2.22376,48.918256],[2.220398,48.920613],[2.23114,48.927733],[2.23609,48.930396],[2.241766,48.932853],[2.247561,48.93674],[2.248401,48.933866],[2.251021,48.935851],[2.253461,48.936165],[2.256865,48.937497],[2.25817,48.937558],[2.255815,48.933927],[2.259313,48.934724],[2.259556,48.93139],[2.260121,48.931355],[2.259946,48.930967],[2.260897,48.930859],[2.259365,48.927826],[2.259084,48.925655]]],"type":"Polygon"},"properties":{"nomcom":"COLOMBES","num_insee":"92025","rne":"0920592U","code_coll":"0920592U","geo_point_2d":{"lon":2.2428983659111523,"lat":48.928239588724665},"sectorisation":0}},{"type":"Feature","geometry":{"coordinates":[[[2.267799,48.925047],[2.259612,48.923794],[2.259102,48.925445],[2.25913,48.926927],[2.260897,48.930859],[2.259946,48.930967],[2.260121,48.931355],[2.259556,48.93139],[2.259313,48.934724],[2.255815,48.933927],[2.25817,48.937558],[2.26225,48.934873],[2.262484,48.935458],[2.27126,48.933876],[2.27195,48.93412],[2.273039,48.933838],[2.272393,48.928529],[2.271811,48.927769],[2.272868,48.927366],[2.27332,48.926848],[2.267799,48.925047]]],"type":"Polygon"},"properties":{"nomcom":"COLOMBES","num_insee":"92025","rne":"0921160L","code_coll":"0921160L","geo_point_2d":{"lon":2.2651494124974203,"lat":48.93012759846756},"sectorisation":0}},{"type":"Feature","geometry":{"coordinates":[[[2.248888,48.918115],[2.250681,48.920676],[2.252643,48.920809],[2.25264,48.922926],[2.255868,48.922886],[2.257429,48.923487],[2.258743,48.92328],[2.260173,48.92386],[2.267781,48.925046],[2.269787,48.924663],[2.268641,48.922973],[2.267946,48.92138],[2.268313,48.921286],[2.267159,48.919505],[2.265213,48.920365],[2.264613,48.919174],[2.263185,48.920208],[2.262391,48.918814],[2.262557,48.918558],[2.261822,48.916689],[2.261551,48.913877],[2.257477,48.913886],[2.257412,48.913559],[2.253112,48.913334],[2.249852,48.912662],[2.249054,48.914116],[2.245875,48.914328],[2.248888,48.918115]]],"type":"Polygon"},"properties":{"nomcom":"COLOMBES","num_insee":"92025","rne":"0920626F","code_coll":"0920626F","geo_point_2d":{"lon":2.257573343949829,"lat":48.91889271830844},"sectorisation":0}},{"type":"Feature","geometry":{"coordinates":[[[2.242414,48.917119],[2.242754,48.916643],[2.24668,48.917845],[2.248888,48.918115],[2.245875,48.914328],[2.249054,48.914116],[2.249852,48.912662],[2.239462,48.909405],[2.234878,48.907604],[2.229099,48.906027],[2.227949,48.907922],[2.229144,48.908334],[2.22664,48.912071],[2.226368,48.912003],[2.22563,48.913023],[2.240708,48.91893],[2.242414,48.917119]]],"type":"Polygon"},"properties":{"nomcom":"COLOMBES","num_insee":"92025","rne":"0922662U","code_coll":"0922662U","geo_point_2d":{"lon":2.237247876777655,"lat":48.9127765442366},"sectorisation":0}},{"type":"Feature","geometry":{"coordinates":[[[2.245946,48.902559],[2.248769,48.900676],[2.245702,48.899632],[2.248954,48.895935],[2.247565,48.895792],[2.244355,48.894108],[2.243941,48.894664],[2.242845,48.89512],[2.240879,48.894801],[2.240719,48.895327],[2.237568,48.894644],[2.233784,48.895672],[2.230571,48.900337],[2.242482,48.902764],[2.243015,48.90234],[2.245697,48.902989],[2.245946,48.902559]]],"type":"Polygon"},"properties":{"nomcom":"COURBEVOIE","num_insee":"92026","rne":"0922578C","code_coll":"0922578C","geo_point_2d":{"lon":2.240204201147071,"lat":48.89857975139722},"sectorisation":0}},{"type":"Feature","geometry":{"coordinates":[[[2.256055,48.889016],[2.253761,48.886892],[2.241169,48.890887],[2.240508,48.895139],[2.239442,48.894906],[2.240719,48.895327],[2.240879,48.894801],[2.242845,48.89512],[2.243941,48.894664],[2.244355,48.894108],[2.247565,48.895792],[2.249028,48.895913],[2.253621,48.892268],[2.251823,48.890998],[2.256055,48.889016]]],"type":"Polygon"},"properties":{"nomcom":"COURBEVOIE","num_insee":"92026","rne":"0922020W","code_coll":"0922020W","geo_point_2d":{"lon":2.247918622129204,"lat":48.89168065301464},"sectorisation":0}},{"type":"Feature","geometry":{"coordinates":[[[2.273177,48.899169],[2.271357,48.901174],[2.269091,48.900194],[2.268223,48.90128],[2.266779,48.900641],[2.265962,48.901452],[2.264751,48.900992],[2.263257,48.903387],[2.267001,48.904654],[2.266394,48.906293],[2.26805,48.905936],[2.274295,48.908284],[2.275741,48.906926],[2.27613,48.906941],[2.277074,48.905744],[2.280133,48.903645],[2.281845,48.90462],[2.284274,48.902286],[2.282555,48.901568],[2.273177,48.899169]]],"type":"Polygon"},"properties":{"nomcom":"COURBEVOIE","num_insee":"92026","rne":"0922523T","code_coll":"0922523T","geo_point_2d":{"lon":2.2732877861818466,"lat":48.90335867024957},"sectorisation":0}},{"type":"Feature","geometry":{"coordinates":[[[2.262694,48.894321],[2.259469,48.896915],[2.258514,48.89723],[2.257759,48.899279],[2.260779,48.900419],[2.258944,48.902287],[2.263054,48.903785],[2.263863,48.902089],[2.264922,48.90091],[2.265962,48.901452],[2.266779,48.900641],[2.268223,48.90128],[2.269091,48.900194],[2.271357,48.901174],[2.273177,48.899169],[2.265728,48.896197],[2.262694,48.894321]]],"type":"Polygon"},"properties":{"nomcom":"COURBEVOIE","num_insee":"92026","rne":"0921550K","code_coll":"0921550K","geo_point_2d":{"lon":2.264313262811308,"lat":48.89900031733232},"sectorisation":0}},{"type":"Feature","geometry":{"coordinates":[[[2.258944,48.902287],[2.255948,48.905416],[2.261372,48.906817],[2.263054,48.903785],[2.258944,48.902287]]],"type":"Polygon"},"properties":{"nomcom":"COURBEVOIE","num_insee":"92026","rne":"0921162N","code_coll":"0921162N","geo_point_2d":{"lon":2.2597352044853984,"lat":48.90461245759945},"sectorisation":0}},{"type":"Feature","geometry":{"coordinates":[[[2.256055,48.889016],[2.251823,48.890998],[2.253621,48.892268],[2.248954,48.895935],[2.245702,48.899632],[2.248769,48.900676],[2.246536,48.902029],[2.255873,48.904548],[2.255948,48.905416],[2.260779,48.900419],[2.257759,48.899279],[2.258514,48.89723],[2.259469,48.896915],[2.262694,48.894321],[2.259113,48.891087],[2.256055,48.889016]]],"type":"Polygon"},"properties":{"nomcom":"COURBEVOIE","num_insee":"92026","rne":"0921496B","code_coll":"0921496B","geo_point_2d":{"lon":2.254542083286036,"lat":48.89735054710144},"sectorisation":0}},{"type":"Feature","geometry":{"coordinates":[[[2.303407,48.785397],[2.293167,48.784165],[2.287644,48.782524],[2.285311,48.782474],[2.282415,48.783006],[2.28189,48.783405],[2.280966,48.783478],[2.280802,48.783878],[2.278753,48.784263],[2.279097,48.785192],[2.280151,48.785044],[2.280191,48.785539],[2.276608,48.786057],[2.274765,48.785771],[2.273982,48.786373],[2.273993,48.787716],[2.274966,48.787686],[2.272283,48.788964],[2.271722,48.790518],[2.272989,48.790833],[2.272193,48.794125],[2.276708,48.795945],[2.278524,48.795554],[2.280252,48.795582],[2.280525,48.79502],[2.284482,48.795896],[2.285422,48.796613],[2.286548,48.796148],[2.287933,48.79449],[2.29012,48.795529],[2.291809,48.795923],[2.296175,48.795766],[2.298316,48.794469],[2.297496,48.793679],[2.298894,48.792276],[2.301912,48.787308],[2.303407,48.785397]]],"type":"Polygon"},"properties":{"nomcom":"FONTENAY-AUX-ROSES","num_insee":"92032","rne":"0920081N","code_coll":"0920081N","geo_point_2d":{"lon":2.286838125241262,"lat":48.789654921030674},"sectorisation":0}},{"type":"Feature","geometry":{"coordinates":[[[2.197882,48.854751],[2.201442,48.853124],[2.205497,48.851823],[2.205153,48.851058],[2.197894,48.847301],[2.197957,48.845712],[2.198964,48.844025],[2.199103,48.842932],[2.198822,48.841484],[2.187761,48.838981],[2.188171,48.83838],[2.187215,48.83773],[2.186416,48.838548],[2.176997,48.838125],[2.171688,48.838459],[2.166652,48.837705],[2.16686,48.839337],[2.16732,48.839366],[2.167375,48.841827],[2.166951,48.841913],[2.167044,48.842168],[2.174269,48.843164],[2.179057,48.844218],[2.181751,48.848194],[2.182621,48.851607],[2.184349,48.851631],[2.186857,48.852193],[2.187304,48.852556],[2.190361,48.852068],[2.192312,48.854038],[2.192119,48.854412],[2.194313,48.856114],[2.197882,48.854751]]],"type":"Polygon"},"properties":{"nomcom":"GARCHES","num_insee":"92033","rne":"0920881H","code_coll":"0920881H","geo_point_2d":{"lon":2.187465502998585,"lat":48.84549685494386},"sectorisation":0}},{"type":"Feature","geometry":{"coordinates":[[[2.314603,48.938067],[2.318102,48.937006],[2.32093,48.934488],[2.309104,48.933276],[2.302279,48.932974],[2.301962,48.933735],[2.296076,48.9335],[2.291608,48.931186],[2.292138,48.927809],[2.2847,48.926121],[2.28437,48.930236],[2.283345,48.931749],[2.281031,48.933062],[2.276888,48.933559],[2.274388,48.933268],[2.272394,48.934082],[2.27126,48.933876],[2.262484,48.935458],[2.26225,48.934873],[2.258088,48.937623],[2.256865,48.937497],[2.253461,48.936165],[2.251021,48.935851],[2.248401,48.933866],[2.247561,48.93674],[2.255578,48.940188],[2.25982,48.942954],[2.26909,48.946694],[2.28149,48.949755],[2.290969,48.950966],[2.299189,48.950494],[2.303113,48.949971],[2.311668,48.947949],[2.309312,48.941523],[2.309984,48.941306],[2.309203,48.940304],[2.312595,48.93919],[2.314603,48.938067]]],"type":"Polygon"},"properties":{"nomcom":"GENNEVILLIERS","num_insee":"92036","rne":"0921621M","code_coll":"0921621M","geo_point_2d":{"lon":2.286974059478591,"lat":48.940278677184885},"sectorisation":0}},{"type":"Feature","geometry":{"coordinates":[[[2.302238,48.933074],[2.302552,48.932986],[2.302424,48.930473],[2.302772,48.928932],[2.300535,48.92845],[2.300133,48.926513],[2.297312,48.926435],[2.297196,48.927645],[2.294658,48.926742],[2.294463,48.925234],[2.295248,48.919917],[2.291898,48.917903],[2.289929,48.919163],[2.285948,48.92268],[2.28628,48.92288],[2.284503,48.926128],[2.292138,48.927809],[2.291608,48.931186],[2.296076,48.9335],[2.301962,48.933735],[2.302238,48.933074]]],"type":"Polygon"},"properties":{"nomcom":"GENNEVILLIERS","num_insee":"92036","rne":"0921541A","code_coll":"0921541A","geo_point_2d":{"lon":2.2938410519297165,"lat":48.92660151427372},"sectorisation":0}},{"type":"Feature","geometry":{"coordinates":[[[2.300522,48.914514],[2.298747,48.916048],[2.296437,48.915131],[2.295836,48.915795],[2.294463,48.925234],[2.294658,48.926742],[2.295318,48.927129],[2.297196,48.927645],[2.297312,48.926435],[2.300133,48.926513],[2.300535,48.92845],[2.302772,48.928932],[2.302424,48.930473],[2.302552,48.932986],[2.309104,48.933276],[2.32093,48.934488],[2.322158,48.932849],[2.318358,48.927548],[2.325443,48.924921],[2.32845,48.92276],[2.325953,48.920689],[2.322015,48.918671],[2.317764,48.920836],[2.310111,48.918438],[2.300522,48.914514]]],"type":"Polygon"},"properties":{"nomcom":"GENNEVILLIERS","num_insee":"92036","rne":"0921157H","code_coll":"0921157H","geo_point_2d":{"lon":2.3095370501334767,"lat":48.92471761713749},"sectorisation":0}},{"type":"Feature","geometry":{"coordinates":[[[2.299645,48.915269],[2.300522,48.914514],[2.296278,48.912752],[2.295836,48.915795],[2.296437,48.915131],[2.298747,48.916048],[2.299645,48.915269]]],"type":"Polygon"},"properties":{"nomcom":"GENNEVILLIERS","num_insee":"92036","rne":"0921547G","code_coll":"0921547G","geo_point_2d":{"lon":2.297881735356878,"lat":48.91445907933332},"sectorisation":0}},{"type":"Feature","geometry":{"coordinates":[[[2.271099,48.827892],[2.273062,48.824863],[2.272706,48.823808],[2.270472,48.821776],[2.267994,48.822607],[2.261334,48.821185],[2.261035,48.821256],[2.262007,48.822583],[2.261938,48.822934],[2.256316,48.822478],[2.251094,48.821162],[2.250506,48.821186],[2.250197,48.821955],[2.255936,48.824321],[2.259571,48.826826],[2.260176,48.827769],[2.260597,48.829779],[2.258804,48.83054],[2.260997,48.832017],[2.262792,48.833923],[2.267475,48.834593],[2.268102,48.834428],[2.269931,48.833011],[2.267339,48.831532],[2.267626,48.827969],[2.271099,48.827892]]],"type":"Polygon"},"properties":{"nomcom":"ISSY-LES-MOULINEAUX","num_insee":"92040","rne":"0922610M","code_coll":"0922610M","geo_point_2d":{"lon":2.264121164556052,"lat":48.8268425254726},"sectorisation":0}},{"type":"Feature","geometry":{"coordinates":[[[2.255595,48.816692],[2.255395,48.817271],[2.258264,48.818907],[2.260644,48.819473],[2.263123,48.819613],[2.264461,48.819277],[2.26734,48.81979],[2.270863,48.821298],[2.270472,48.821776],[2.273706,48.821267],[2.275053,48.820558],[2.277933,48.818047],[2.277118,48.817443],[2.27595,48.817284],[2.273156,48.815169],[2.272561,48.814399],[2.264938,48.813574],[2.263938,48.814471],[2.261298,48.813308],[2.260366,48.814386],[2.259935,48.81426],[2.259536,48.814616],[2.259363,48.814779],[2.25968,48.814914],[2.258912,48.815474],[2.25836,48.815214],[2.257614,48.816163],[2.257049,48.815957],[2.256477,48.817032],[2.255595,48.816692]]],"type":"Polygon"},"properties":{"nomcom":"ISSY-LES-MOULINEAUX","num_insee":"92040","rne":"0922247T","code_coll":"0922247T","geo_point_2d":{"lon":2.267115286232685,"lat":48.81732209705075},"sectorisation":0}},{"type":"Feature","geometry":{"coordinates":[[[2.284719,48.830291],[2.289408,48.828334],[2.286654,48.828469],[2.287878,48.827523],[2.284386,48.827458],[2.280497,48.825915],[2.28083,48.825643],[2.280018,48.825197],[2.28082,48.824709],[2.281012,48.823502],[2.281563,48.823081],[2.281111,48.822853],[2.281952,48.821306],[2.281375,48.821125],[2.281873,48.820249],[2.277933,48.818047],[2.275053,48.820558],[2.273706,48.821267],[2.270472,48.821776],[2.272706,48.823808],[2.273062,48.824863],[2.271099,48.827892],[2.272793,48.82792],[2.275304,48.829435],[2.279052,48.83249],[2.284719,48.830291]]],"type":"Polygon"},"properties":{"nomcom":"ISSY-LES-MOULINEAUX","num_insee":"92040","rne":"0920877D","code_coll":"0920877D","geo_point_2d":{"lon":2.2784121569224443,"lat":48.825752868795895},"sectorisation":0}},{"type":"Feature","geometry":{"coordinates":[[[2.250495,48.821578],[2.250506,48.821186],[2.251094,48.821162],[2.256316,48.822478],[2.261938,48.822934],[2.262007,48.822583],[2.261035,48.821256],[2.261334,48.821185],[2.267994,48.822607],[2.270472,48.821776],[2.270863,48.821298],[2.266245,48.819585],[2.264461,48.819277],[2.263086,48.819613],[2.259379,48.81926],[2.255395,48.817271],[2.255595,48.816692],[2.251086,48.816291],[2.249306,48.817802],[2.242664,48.819003],[2.242773,48.820541],[2.240094,48.82051],[2.236107,48.821549],[2.239576,48.821831],[2.2505,48.825104],[2.258804,48.83054],[2.260597,48.829779],[2.260176,48.827769],[2.259571,48.826826],[2.255936,48.824321],[2.250197,48.821955],[2.250495,48.821578]]],"type":"Polygon"},"properties":{"nomcom":"ISSY-LES-MOULINEAUX","num_insee":"92040","rne":"0921396T","code_coll":"0921396T","geo_point_2d":{"lon":2.2537368580547987,"lat":48.82195758037164},"sectorisation":0}},{"type":"Feature","geometry":{"coordinates":[[[2.250254,48.902938],[2.246479,48.902012],[2.245697,48.902989],[2.243015,48.90234],[2.242482,48.902764],[2.231629,48.900652],[2.231898,48.90094],[2.229099,48.906027],[2.234878,48.907604],[2.245525,48.911363],[2.250254,48.902938]]],"type":"Polygon"},"properties":{"nomcom":"LA GARENNE-COLOMBES","num_insee":"92035","rne":"0922645A","code_coll":"0922645A","geo_point_2d":{"lon":2.2399930609488767,"lat":48.905508852056016},"sectorisation":0}},{"type":"Feature","geometry":{"coordinates":[[[2.250254,48.902938],[2.245525,48.911363],[2.252314,48.913201],[2.255462,48.913601],[2.257935,48.913489],[2.257671,48.910879],[2.257044,48.910947],[2.258216,48.906077],[2.255783,48.90537],[2.255873,48.904548],[2.250254,48.902938]]],"type":"Polygon"},"properties":{"nomcom":"LA GARENNE-COLOMBES","num_insee":"92035","rne":"0921162N","code_coll":"0921162N","geo_point_2d":{"lon":2.2525163022062347,"lat":48.908783663257005},"sectorisation":0}},{"type":"Feature","geometry":{"coordinates":[[[2.272264,48.777306],[2.273864,48.779815],[2.273384,48.780138],[2.273329,48.781077],[2.272971,48.781497],[2.270178,48.780632],[2.269525,48.780957],[2.267985,48.78087],[2.267742,48.782356],[2.26797,48.78279],[2.266119,48.782816],[2.264321,48.782214],[2.262949,48.780214],[2.260667,48.779064],[2.260325,48.779729],[2.255934,48.780814],[2.256114,48.782267],[2.253163,48.782223],[2.253426,48.784679],[2.258729,48.786143],[2.263903,48.788412],[2.268786,48.789325],[2.271722,48.790518],[2.272283,48.788964],[2.274966,48.787686],[2.273993,48.787716],[2.273829,48.786734],[2.274765,48.785771],[2.276608,48.786057],[2.280191,48.785539],[2.280151,48.785044],[2.279097,48.785192],[2.278753,48.784263],[2.280802,48.783878],[2.280877,48.783528],[2.281983,48.783183],[2.281799,48.782598],[2.280571,48.78332],[2.279475,48.782547],[2.278976,48.78275],[2.278093,48.782095],[2.277508,48.781106],[2.276226,48.781305],[2.275378,48.779487],[2.275062,48.779497],[2.274393,48.777012],[2.272264,48.777306]]],"type":"Polygon"},"properties":{"nomcom":"LE PLESSIS-ROBINSON","num_insee":"92060","rne":"0920624D","code_coll":"0920624D","geo_point_2d":{"lon":2.2671728467646104,"lat":48.78416055608693},"sectorisation":0}},{"type":"Feature","geometry":{"coordinates":[[[2.253426,48.784679],[2.253163,48.782223],[2.256114,48.782267],[2.255934,48.780814],[2.260325,48.779729],[2.260667,48.779064],[2.262949,48.780214],[2.264438,48.78229],[2.266593,48.782882],[2.26797,48.78279],[2.267742,48.782356],[2.267985,48.78087],[2.269525,48.780957],[2.270178,48.780632],[2.272971,48.781497],[2.273329,48.781077],[2.273384,48.780138],[2.273864,48.779815],[2.272773,48.777803],[2.271934,48.777066],[2.269888,48.776553],[2.269332,48.775982],[2.267403,48.776451],[2.267071,48.775683],[2.267229,48.775287],[2.265917,48.775556],[2.265098,48.77495],[2.264288,48.774935],[2.26431,48.774591],[2.259916,48.773227],[2.255707,48.773237],[2.254126,48.773026],[2.25407,48.772756],[2.251293,48.772579],[2.246472,48.773511],[2.24632,48.772716],[2.243838,48.773069],[2.241918,48.773832],[2.242059,48.773061],[2.239196,48.772662],[2.238499,48.773793],[2.236807,48.773717],[2.236487,48.774971],[2.237235,48.775534],[2.237456,48.776297],[2.240304,48.774764],[2.240669,48.776075],[2.239204,48.77625],[2.240278,48.779844],[2.246318,48.779105],[2.246827,48.780384],[2.248391,48.782536],[2.250572,48.78468],[2.251746,48.784475],[2.253426,48.784679]]],"type":"Polygon"},"properties":{"nomcom":"LE PLESSIS-ROBINSON","num_insee":"92060","rne":"0920883K","code_coll":"0920883K","geo_point_2d":{"lon":2.254793283251824,"lat":48.777588892160914},"sectorisation":0}},{"type":"Feature","geometry":{"coordinates":[[[2.283262,48.90043],[2.285165,48.898118],[2.287716,48.898935],[2.292727,48.893084],[2.29534,48.894052],[2.296348,48.895022],[2.297789,48.893761],[2.294164,48.891549],[2.295612,48.890167],[2.291498,48.889413],[2.289318,48.891756],[2.287394,48.891006],[2.283031,48.895812],[2.282048,48.895388],[2.277315,48.900334],[2.282301,48.901509],[2.283262,48.90043]]],"type":"Polygon"},"properties":{"nomcom":"LEVALLOIS-PERRET","num_insee":"92044","rne":"0921391M","code_coll":"0921391M","geo_point_2d":{"lon":2.2872875296404866,"lat":48.89529563529283},"sectorisation":0}},{"type":"Feature","geometry":{"coordinates":[[[2.291498,48.889413],[2.285642,48.886555],[2.28446,48.885639],[2.271064,48.898398],[2.277315,48.900334],[2.282048,48.895388],[2.283031,48.895812],[2.287394,48.891006],[2.289318,48.891756],[2.291498,48.889413]]],"type":"Polygon"},"properties":{"nomcom":"LEVALLOIS-PERRET","num_insee":"92044","rne":"0921393P","code_coll":"0921393P","geo_point_2d":{"lon":2.2811303547482744,"lat":48.8931000926867},"sectorisation":0}},{"type":"Feature","geometry":{"coordinates":[[[2.295612,48.890167],[2.294164,48.891549],[2.297789,48.893761],[2.296348,48.895022],[2.29534,48.894052],[2.292727,48.893084],[2.287716,48.898935],[2.285165,48.898118],[2.282301,48.901509],[2.287395,48.903642],[2.303774,48.894154],[2.295612,48.890167]]],"type":"Polygon"},"properties":{"nomcom":"LEVALLOIS-PERRET","num_insee":"92044","rne":"0922630J","code_coll":"0922630J","geo_point_2d":{"lon":2.2929047406726957,"lat":48.897289329316},"sectorisation":0}},{"type":"Feature","geometry":{"coordinates":[[[2.29802,48.812124],[2.294823,48.810441],[2.293834,48.811919],[2.293576,48.811911],[2.292005,48.809714],[2.29045,48.809702],[2.290437,48.808944],[2.285169,48.810621],[2.283483,48.810224],[2.283257,48.810557],[2.279911,48.810918],[2.275957,48.812446],[2.27449,48.813433],[2.285265,48.81562],[2.291092,48.817765],[2.29802,48.812124]]],"type":"Polygon"},"properties":{"nomcom":"MALAKOFF","num_insee":"92046","rne":"0921165S","code_coll":"0921165S","geo_point_2d":{"lon":2.287359574212927,"lat":48.813120330112426},"sectorisation":0}},{"type":"Feature","geometry":{"coordinates":[[[2.29802,48.812124],[2.291092,48.817765],[2.295459,48.820336],[2.301315,48.825126],[2.314146,48.822291],[2.3044,48.815242],[2.299681,48.810913],[2.29802,48.812124]]],"type":"Polygon"},"properties":{"nomcom":"MALAKOFF","num_insee":"92046","rne":"0921241Z","code_coll":"0921241Z","geo_point_2d":{"lon":2.301843964515695,"lat":48.81885737402428},"sectorisation":0}},{"type":"Feature","geometry":{"coordinates":[[[2.186551,48.838287],[2.184666,48.837313],[2.18503,48.836384],[2.177468,48.835288],[2.177941,48.834909],[2.171278,48.83415],[2.171405,48.833182],[2.172127,48.831937],[2.176219,48.831756],[2.176311,48.830102],[2.174531,48.830057],[2.172834,48.829368],[2.169167,48.828671],[2.159828,48.828264],[2.158911,48.829209],[2.153208,48.829737],[2.152281,48.829293],[2.151888,48.828193],[2.153461,48.826189],[2.152363,48.825823],[2.151926,48.82534],[2.151365,48.825378],[2.151697,48.829795],[2.155995,48.837592],[2.166942,48.837715],[2.171688,48.838459],[2.176406,48.838126],[2.186416,48.838548],[2.186551,48.838287]]],"type":"Polygon"},"properties":{"nomcom":"MARNES-LA-COQUETTE","num_insee":"92047","rne":"0922143E","code_coll":"0922143E","geo_point_2d":{"lon":2.166040449541357,"lat":48.83364308444989},"sectorisation":0}},{"type":"Feature","geometry":{"coordinates":[[[2.151365,48.825378],[2.151926,48.82534],[2.152363,48.825823],[2.153461,48.826189],[2.151888,48.828193],[2.152281,48.829293],[2.152885,48.829672],[2.158393,48.829324],[2.159279,48.829057],[2.159828,48.828264],[2.169167,48.828671],[2.172834,48.829368],[2.174531,48.830057],[2.176311,48.830102],[2.176219,48.831756],[2.172127,48.831937],[2.171405,48.833182],[2.171278,48.83415],[2.177941,48.834909],[2.177468,48.835288],[2.18503,48.836384],[2.184666,48.837313],[2.186551,48.838287],[2.187425,48.837554],[2.186311,48.836479],[2.185305,48.833907],[2.180797,48.830624],[2.179802,48.830386],[2.178484,48.829057],[2.176152,48.828106],[2.176416,48.827239],[2.173877,48.824314],[2.164871,48.823159],[2.16177,48.823668],[2.159373,48.820917],[2.1573,48.820924],[2.155885,48.821502],[2.153308,48.821412],[2.152616,48.821005],[2.150747,48.818844],[2.150302,48.81875],[2.15147,48.821406],[2.151006,48.823555],[2.151365,48.825378]]],"type":"Polygon"},"properties":{"nomcom":"MARNES-LA-COQUETTE","num_insee":"92047","rne":"0920886N","code_coll":"0920886N","geo_point_2d":{"lon":2.1671603525786827,"lat":48.827889482559776},"sectorisation":0}},{"type":"Feature","geometry":{"coordinates":[[[2.236455,48.789031],[2.233714,48.789317],[2.231229,48.790164],[2.225333,48.790962],[2.224686,48.791279],[2.222436,48.792663],[2.222474,48.793557],[2.223769,48.794533],[2.223949,48.795608],[2.223499,48.796277],[2.221937,48.797045],[2.226809,48.79647],[2.232298,48.797498],[2.234319,48.801017],[2.233939,48.802638],[2.234056,48.803537],[2.235572,48.80514],[2.23606,48.807742],[2.237277,48.8077],[2.238548,48.80856],[2.241055,48.808109],[2.242473,48.809581],[2.241821,48.810763],[2.241102,48.81103],[2.242907,48.811564],[2.245308,48.813085],[2.246333,48.813192],[2.247142,48.816231],[2.248944,48.817861],[2.249306,48.817802],[2.250956,48.816325],[2.251866,48.816385],[2.254341,48.814272],[2.253645,48.814116],[2.254564,48.812404],[2.255001,48.810139],[2.25266,48.809608],[2.250338,48.807818],[2.248277,48.807459],[2.248576,48.806477],[2.249558,48.805586],[2.249211,48.805672],[2.248421,48.80402],[2.246284,48.804798],[2.245726,48.804295],[2.245094,48.804732],[2.243423,48.803913],[2.242755,48.803252],[2.242346,48.803443],[2.241648,48.802974],[2.241031,48.80191],[2.241806,48.801602],[2.241578,48.800903],[2.240592,48.800715],[2.240065,48.799629],[2.2396,48.799633],[2.238765,48.797758],[2.236064,48.795601],[2.234789,48.795425],[2.236455,48.789031]]],"type":"Polygon"},"properties":{"nomcom":"MEUDON","num_insee":"92048","rne":"0921782M","code_coll":"0921782M","geo_point_2d":{"lon":2.239420966073589,"lat":48.80291705470108},"sectorisation":0}},{"type":"Feature","geometry":{"coordinates":[[[2.226074,48.823984],[2.226915,48.823411],[2.22734,48.82367],[2.229797,48.822068],[2.229967,48.821546],[2.230774,48.821597],[2.232638,48.822738],[2.238469,48.820801],[2.242773,48.820541],[2.242664,48.819003],[2.248944,48.817861],[2.248822,48.817558],[2.247142,48.816231],[2.246333,48.813192],[2.245308,48.813085],[2.242907,48.811564],[2.241102,48.81103],[2.241821,48.810763],[2.242473,48.809581],[2.241055,48.808109],[2.238548,48.80856],[2.237277,48.8077],[2.23606,48.807742],[2.235572,48.80514],[2.234056,48.803537],[2.233939,48.802638],[2.234319,48.801017],[2.232298,48.797498],[2.226809,48.79647],[2.221782,48.797072],[2.220177,48.796311],[2.218057,48.795797],[2.217851,48.796176],[2.215601,48.794776],[2.211625,48.791255],[2.209937,48.793876],[2.206993,48.794925],[2.206012,48.794969],[2.204469,48.795782],[2.20471,48.796593],[2.204509,48.797119],[2.202624,48.798431],[2.206047,48.799937],[2.204692,48.80208],[2.203993,48.802367],[2.204462,48.802667],[2.205807,48.808875],[2.205508,48.8092],[2.211178,48.81163],[2.215826,48.812779],[2.220656,48.815171],[2.219867,48.816419],[2.217149,48.817733],[2.220514,48.819298],[2.220546,48.819612],[2.220988,48.819593],[2.221325,48.820264],[2.22177,48.820228],[2.225407,48.822688],[2.224827,48.823362],[2.226074,48.823984]]],"type":"Polygon"},"properties":{"nomcom":"MEUDON","num_insee":"92048","rne":"0921554P","code_coll":"0921554P","geo_point_2d":{"lon":2.2243070014418826,"lat":48.808256172019746},"sectorisation":0}},{"type":"Feature","geometry":{"coordinates":[[[2.221938,48.797047],[2.223499,48.796277],[2.223949,48.795608],[2.223769,48.794533],[2.222474,48.793557],[2.222436,48.792663],[2.224686,48.791279],[2.236612,48.788935],[2.23585,48.788268],[2.234847,48.784534],[2.229698,48.783094],[2.226616,48.781582],[2.22332,48.785943],[2.221382,48.785934],[2.219236,48.785362],[2.211509,48.788139],[2.208958,48.787604],[2.207118,48.785234],[2.206516,48.784711],[2.20627,48.784889],[2.211625,48.791255],[2.215601,48.794776],[2.217851,48.796176],[2.218057,48.795797],[2.221938,48.797047]]],"type":"Polygon"},"properties":{"nomcom":"MEUDON","num_insee":"92048","rne":"0922701L","code_coll":"0922701L","geo_point_2d":{"lon":2.2227052334646937,"lat":48.789058141142874},"sectorisation":0}},{"type":"Feature","geometry":{"coordinates":[[[2.331898,48.817011],[2.325447,48.817519],[2.325754,48.814344],[2.320646,48.815524],[2.320492,48.814504],[2.317619,48.815325],[2.316783,48.81394],[2.314207,48.814652],[2.315081,48.816012],[2.311128,48.816134],[2.308415,48.817125],[2.307866,48.81769],[2.314146,48.822291],[2.332461,48.818247],[2.331898,48.817011]]],"type":"Polygon"},"properties":{"nomcom":"MONTROUGE","num_insee":"92049","rne":"0920855E","code_coll":"0920855E","geo_point_2d":{"lon":2.318869709304216,"lat":48.8180804430112},"sectorisation":0}},{"type":"Feature","geometry":{"coordinates":[[[2.316783,48.81394],[2.315789,48.812307],[2.315885,48.811584],[2.316308,48.810802],[2.31753,48.809881],[2.300098,48.811327],[2.303014,48.81414],[2.307866,48.81769],[2.308415,48.817125],[2.311128,48.816134],[2.315081,48.816012],[2.314207,48.814652],[2.316783,48.81394]]],"type":"Polygon"},"properties":{"nomcom":"MONTROUGE","num_insee":"92049","rne":"0921190U","code_coll":"0921190U","geo_point_2d":{"lon":2.3093004643512915,"lat":48.81325858870303},"sectorisation":0}},{"type":"Feature","geometry":{"coordinates":[[[2.331898,48.817011],[2.325558,48.809581],[2.31753,48.809881],[2.315939,48.811406],[2.315789,48.812307],[2.317619,48.815325],[2.320492,48.814504],[2.320646,48.815524],[2.325754,48.814344],[2.325447,48.817519],[2.331898,48.817011]]],"type":"Polygon"},"properties":{"nomcom":"MONTROUGE","num_insee":"92049","rne":"0921504K","code_coll":"0921504K","geo_point_2d":{"lon":2.3233085215271325,"lat":48.813170539744185},"sectorisation":0}},{"type":"Feature","geometry":{"coordinates":[[[2.221032,48.885564],[2.224511,48.885285],[2.222451,48.883137],[2.223616,48.882764],[2.216438,48.878123],[2.216205,48.877677],[2.216862,48.876955],[2.213138,48.876434],[2.211647,48.877284],[2.210828,48.877271],[2.210451,48.875868],[2.20776,48.874229],[2.199853,48.879594],[2.192137,48.884028],[2.201069,48.887029],[2.221032,48.885564]]],"type":"Polygon"},"properties":{"nomcom":"NANTERRE","num_insee":"92050","rne":"0921353W","code_coll":"0921353W","geo_point_2d":{"lon":2.208718639305639,"lat":48.88192632858608},"sectorisation":0}},{"type":"Feature","geometry":{"coordinates":[[[2.203795,48.886869],[2.200675,48.886978],[2.192343,48.884122],[2.181722,48.889645],[2.177424,48.891473],[2.180823,48.892057],[2.186156,48.892321],[2.194682,48.895461],[2.196667,48.895855],[2.195833,48.894122],[2.19579,48.892975],[2.196786,48.892847],[2.200541,48.891259],[2.198239,48.889734],[2.200123,48.889568],[2.202127,48.888161],[2.202513,48.888384],[2.203869,48.88729],[2.203795,48.886869]]],"type":"Polygon"},"properties":{"nomcom":"NANTERRE","num_insee":"92050","rne":"0920077J","code_coll":"0920077J","geo_point_2d":{"lon":2.1917935964130595,"lat":48.88969460263921},"sectorisation":0}},{"type":"Feature","geometry":{"coordinates":[[[2.198732,48.898091],[2.203684,48.901382],[2.198238,48.903502],[2.194601,48.905709],[2.197034,48.90721],[2.207672,48.911689],[2.211204,48.913984],[2.214197,48.916557],[2.220398,48.920613],[2.224145,48.917988],[2.22211,48.916488],[2.223963,48.9152],[2.226368,48.912003],[2.22664,48.912071],[2.229144,48.908334],[2.227949,48.907922],[2.228063,48.907733],[2.220385,48.903438],[2.204396,48.898248],[2.203552,48.899355],[2.203316,48.899282],[2.203432,48.899084],[2.200403,48.897022],[2.198732,48.898091]]],"type":"Polygon"},"properties":{"nomcom":"NANTERRE","num_insee":"92050","rne":"0920594W","code_coll":"0920594W","geo_point_2d":{"lon":2.213148309925214,"lat":48.90821070796136},"sectorisation":0}},{"type":"Feature","geometry":{"coordinates":[[[2.196741,48.895931],[2.194682,48.895461],[2.186156,48.892321],[2.180823,48.892057],[2.177424,48.891473],[2.169349,48.895815],[2.171303,48.897301],[2.177367,48.900666],[2.182616,48.90253],[2.191991,48.904607],[2.194601,48.905709],[2.198238,48.903502],[2.203684,48.901382],[2.198135,48.897696],[2.198303,48.89752],[2.196741,48.895931]]],"type":"Polygon"},"properties":{"nomcom":"NANTERRE","num_insee":"92050","rne":"0921394R","code_coll":"0921394R","geo_point_2d":{"lon":2.1863794537533687,"lat":48.89818430148875},"sectorisation":0}},{"type":"Feature","geometry":{"coordinates":[[[2.209197,48.886452],[2.203795,48.886869],[2.203869,48.88729],[2.202513,48.888384],[2.202127,48.888161],[2.200123,48.889568],[2.198239,48.889734],[2.200541,48.891259],[2.195778,48.893011],[2.196271,48.895196],[2.198303,48.89752],[2.198135,48.897696],[2.198732,48.898091],[2.200403,48.897022],[2.203432,48.899084],[2.203316,48.899282],[2.203552,48.899355],[2.204396,48.898248],[2.220385,48.903438],[2.228063,48.907733],[2.230376,48.903759],[2.228144,48.902916],[2.218397,48.897589],[2.215941,48.895751],[2.212134,48.89374],[2.213524,48.892691],[2.213342,48.892517],[2.213651,48.892273],[2.211989,48.891231],[2.212865,48.890666],[2.209688,48.889079],[2.207401,48.887312],[2.209197,48.886452]]],"type":"Polygon"},"properties":{"nomcom":"NANTERRE","num_insee":"92050","rne":"0920882J","code_coll":"0920882J","geo_point_2d":{"lon":2.210890423935057,"lat":48.89639362391809},"sectorisation":0}},{"type":"Feature","geometry":{"coordinates":[[[2.231095,48.892497],[2.229956,48.89104],[2.230803,48.890077],[2.230475,48.889923],[2.230699,48.889643],[2.228154,48.888253],[2.22775,48.888284],[2.227817,48.888759],[2.226806,48.889325],[2.226594,48.888355],[2.226346,48.888368],[2.224789,48.888487],[2.225005,48.888907],[2.223764,48.888887],[2.223377,48.88943],[2.221141,48.889596],[2.221002,48.890295],[2.219653,48.890192],[2.21883,48.890971],[2.216332,48.891159],[2.215777,48.890855],[2.214715,48.891664],[2.21477,48.89197],[2.212134,48.89374],[2.215941,48.895751],[2.218397,48.897589],[2.228144,48.902916],[2.230376,48.903759],[2.231898,48.90094],[2.230571,48.900337],[2.234268,48.895055],[2.231095,48.892497]]],"type":"Polygon"},"properties":{"nomcom":"NANTERRE","num_insee":"92050","rne":"0921940J","code_coll":"0921940J","geo_point_2d":{"lon":2.2246710042385085,"lat":48.89511405056143},"sectorisation":0}},{"type":"Feature","geometry":{"coordinates":[[[2.224511,48.885285],[2.209197,48.886452],[2.207401,48.887312],[2.209688,48.889079],[2.212865,48.890666],[2.211989,48.891231],[2.213592,48.892214],[2.213332,48.892553],[2.213524,48.892691],[2.21477,48.89197],[2.214715,48.891664],[2.215777,48.890855],[2.216332,48.891159],[2.21883,48.890971],[2.219653,48.890192],[2.221002,48.890295],[2.221141,48.889596],[2.223377,48.88943],[2.223764,48.888887],[2.225005,48.888907],[2.224789,48.888487],[2.226594,48.888355],[2.226884,48.889339],[2.227817,48.888759],[2.22775,48.888284],[2.22859,48.888396],[2.224511,48.885285]]],"type":"Polygon"},"properties":{"nomcom":"NANTERRE","num_insee":"92050","rne":"0921589C","code_coll":"0921589C","geo_point_2d":{"lon":2.2175114139339986,"lat":48.88817873003587},"sectorisation":0}},{"type":"Feature","geometry":{"coordinates":[[[2.279928,48.878574],[2.272121,48.881064],[2.273391,48.882162],[2.274124,48.883276],[2.27352,48.883414],[2.273493,48.883793],[2.270217,48.887104],[2.272951,48.889375],[2.276271,48.889615],[2.2791,48.890697],[2.284538,48.885574],[2.281014,48.882971],[2.279928,48.878574]]],"type":"Polygon"},"properties":{"nomcom":"NEUILLY-SUR-SEINE","num_insee":"92051","rne":"0921780K","code_coll":"0921780K","geo_point_2d":{"lon":2.2773026221472565,"lat":48.8850647106468},"sectorisation":0}},{"type":"Feature","geometry":{"coordinates":[[[2.272241,48.881026],[2.279928,48.878574],[2.277487,48.877968],[2.258467,48.880387],[2.25541,48.874264],[2.254817,48.874081],[2.245704,48.876459],[2.251016,48.881171],[2.254392,48.884892],[2.252476,48.885492],[2.253761,48.886892],[2.272241,48.881026]]],"type":"Polygon"},"properties":{"nomcom":"NEUILLY-SUR-SEINE","num_insee":"92051","rne":"0921781L","code_coll":"0921781L","geo_point_2d":{"lon":2.2590157649484666,"lat":48.880336390685116},"sectorisation":0}},{"type":"Feature","geometry":{"coordinates":[[[2.272121,48.881064],[2.253761,48.886892],[2.25504,48.888261],[2.258941,48.890952],[2.263691,48.895078],[2.271064,48.898398],[2.2791,48.890697],[2.276271,48.889615],[2.272951,48.889375],[2.270217,48.887104],[2.273493,48.883793],[2.27352,48.883414],[2.274124,48.883276],[2.273391,48.882162],[2.272121,48.881064]]],"type":"Polygon"},"properties":{"nomcom":"NEUILLY-SUR-SEINE","num_insee":"92051","rne":"0921498D","code_coll":"0921498D","geo_point_2d":{"lon":2.2670131294665663,"lat":48.88967732050927},"sectorisation":0}},{"type":"Feature","geometry":{"coordinates":[[[2.242113,48.890579],[2.239465,48.886443],[2.238771,48.886415],[2.239149,48.885922],[2.239906,48.882533],[2.236401,48.879597],[2.230523,48.879945],[2.226436,48.881213],[2.222451,48.883137],[2.224531,48.885129],[2.224492,48.885433],[2.230699,48.889643],[2.230475,48.889923],[2.230803,48.890077],[2.229956,48.89104],[2.231095,48.892497],[2.234268,48.895055],[2.233784,48.895672],[2.237568,48.894644],[2.240508,48.895139],[2.241169,48.890887],[2.242113,48.890579]]],"type":"Polygon"},"properties":{"nomcom":"PUTEAUX","num_insee":"92062","rne":"0921219A","code_coll":"0921219A","geo_point_2d":{"lon":2.233665199081256,"lat":48.88684337016164},"sectorisation":0}},{"type":"Feature","geometry":{"coordinates":[[[2.236401,48.879597],[2.239906,48.882533],[2.239149,48.885922],[2.238771,48.886415],[2.239465,48.886443],[2.242113,48.890579],[2.253761,48.886892],[2.252476,48.885492],[2.254392,48.884892],[2.251936,48.88208],[2.24301,48.873785],[2.239972,48.871864],[2.231736,48.869069],[2.236834,48.873478],[2.231925,48.875864],[2.236401,48.879597]]],"type":"Polygon"},"properties":{"nomcom":"PUTEAUX","num_insee":"92062","rne":"0921233R","code_coll":"0921233R","geo_point_2d":{"lon":2.243099053852135,"lat":48.880864278736134},"sectorisation":0}},{"type":"Feature","geometry":{"coordinates":[[[2.20857,48.865923],[2.205596,48.867059],[2.203758,48.867171],[2.20371,48.868303],[2.202242,48.867197],[2.198644,48.868644],[2.197839,48.869379],[2.196428,48.867687],[2.19308,48.868028],[2.19379,48.869657],[2.191662,48.870108],[2.191896,48.870541],[2.192487,48.870513],[2.193265,48.871952],[2.189232,48.873748],[2.190714,48.874967],[2.19021,48.875408],[2.192173,48.876765],[2.190676,48.877998],[2.191699,48.878535],[2.193545,48.878378],[2.197072,48.881214],[2.206316,48.875316],[2.20776,48.874229],[2.206798,48.873702],[2.208731,48.871865],[2.209302,48.871682],[2.210808,48.869999],[2.213212,48.870619],[2.211326,48.868858],[2.211405,48.866701],[2.209137,48.867106],[2.20857,48.865923]]],"type":"Polygon"},"properties":{"nomcom":"RUEIL-MALMAISON","num_insee":"92063","rne":"0921234S","code_coll":"0921234S","geo_point_2d":{"lon":2.200218860069216,"lat":48.87294007671344},"sectorisation":0}},{"type":"Feature","geometry":{"coordinates":[[[2.185567,48.887526],[2.192297,48.884151],[2.197072,48.881214],[2.193545,48.878378],[2.191699,48.878535],[2.190676,48.877998],[2.192173,48.876765],[2.19021,48.875408],[2.190714,48.874967],[2.189232,48.873748],[2.193265,48.871952],[2.192487,48.870513],[2.191896,48.870541],[2.191662,48.870108],[2.19379,48.869657],[2.19308,48.868028],[2.187211,48.8689],[2.187257,48.869588],[2.187639,48.869909],[2.185881,48.870624],[2.18454,48.873067],[2.183904,48.873819],[2.183089,48.873969],[2.185837,48.876277],[2.182343,48.877789],[2.180365,48.879793],[2.180603,48.879934],[2.178961,48.88116],[2.180414,48.883235],[2.185567,48.887526]]],"type":"Polygon"},"properties":{"nomcom":"RUEIL-MALMAISON","num_insee":"92063","rne":"0921501G","code_coll":"0921501G","geo_point_2d":{"lon":2.187787452081379,"lat":48.878653709358005},"sectorisation":0}},{"type":"Feature","geometry":{"coordinates":[[[2.200069,48.868019],[2.202392,48.867205],[2.20371,48.868303],[2.203758,48.867171],[2.205596,48.867059],[2.20857,48.865923],[2.207777,48.864415],[2.203604,48.865376],[2.20205,48.866182],[2.199785,48.861417],[2.203558,48.860628],[2.201823,48.857507],[2.200769,48.85704],[2.197882,48.854751],[2.194313,48.856114],[2.192044,48.854185],[2.191758,48.854674],[2.184613,48.855905],[2.185348,48.857933],[2.183354,48.858261],[2.183098,48.859327],[2.187875,48.858595],[2.189792,48.858749],[2.19034,48.859826],[2.190936,48.863339],[2.187459,48.865257],[2.18625,48.866896],[2.185938,48.868053],[2.186655,48.868898],[2.196428,48.867687],[2.197839,48.869379],[2.198375,48.868778],[2.200069,48.868019]]],"type":"Polygon"},"properties":{"nomcom":"RUEIL-MALMAISON","num_insee":"92063","rne":"0920852B","code_coll":"0920852B","geo_point_2d":{"lon":2.1950175167245605,"lat":48.86193396155433},"sectorisation":0}},{"type":"Feature","geometry":{"coordinates":[[[2.187257,48.869588],[2.187211,48.8689],[2.186655,48.868898],[2.185938,48.868053],[2.18635,48.866722],[2.187662,48.865079],[2.190936,48.863339],[2.19034,48.859826],[2.189596,48.858659],[2.187875,48.858595],[2.181763,48.859558],[2.17496,48.860948],[2.17101,48.862347],[2.17105,48.862704],[2.175503,48.867581],[2.180958,48.86967],[2.18109,48.869437],[2.184245,48.87056],[2.182614,48.872749],[2.182538,48.873146],[2.183089,48.873969],[2.183904,48.873819],[2.18454,48.873067],[2.185881,48.870624],[2.187639,48.869909],[2.187257,48.869588]]],"type":"Polygon"},"properties":{"nomcom":"RUEIL-MALMAISON","num_insee":"92063","rne":"0921590D","code_coll":"0921590D","geo_point_2d":{"lon":2.1819105177658775,"lat":48.8643907621567},"sectorisation":0}},{"type":"Feature","geometry":{"coordinates":[[[2.185639,48.887614],[2.186158,48.887345],[2.185444,48.88752],[2.180414,48.883235],[2.178961,48.88116],[2.180572,48.879865],[2.174445,48.877666],[2.17262,48.879203],[2.170838,48.879903],[2.170273,48.879406],[2.162291,48.881266],[2.161682,48.881702],[2.163061,48.882654],[2.163471,48.883453],[2.163512,48.884781],[2.162924,48.887324],[2.163382,48.888571],[2.166043,48.891332],[2.167807,48.894373],[2.169349,48.895815],[2.176109,48.891992],[2.181088,48.889941],[2.185639,48.887614]]],"type":"Polygon"},"properties":{"nomcom":"RUEIL-MALMAISON","num_insee":"92063","rne":"0921235T","code_coll":"0921235T","geo_point_2d":{"lon":2.1726909780665484,"lat":48.88619908201158},"sectorisation":0}},{"type":"Feature","geometry":{"coordinates":[[[2.223627,48.841366],[2.22304,48.839645],[2.222938,48.837979],[2.223202,48.836247],[2.22405,48.83515],[2.222093,48.835411],[2.22243,48.831468],[2.223791,48.829712],[2.221677,48.829213],[2.220828,48.828451],[2.221648,48.827028],[2.218887,48.826368],[2.218063,48.827443],[2.211027,48.827646],[2.206944,48.828866],[2.200583,48.829853],[2.190118,48.829371],[2.187559,48.828774],[2.184987,48.829227],[2.184777,48.828871],[2.180797,48.830624],[2.185305,48.833907],[2.186311,48.836479],[2.187425,48.837554],[2.187215,48.83773],[2.188171,48.83838],[2.187566,48.838913],[2.19386,48.840565],[2.198822,48.841484],[2.199103,48.842932],[2.198964,48.844025],[2.197957,48.845712],[2.197894,48.847301],[2.205153,48.851058],[2.205497,48.851823],[2.210997,48.849367],[2.210694,48.847503],[2.214202,48.846912],[2.216585,48.845581],[2.216897,48.850208],[2.217804,48.850176],[2.218118,48.84947],[2.220982,48.849134],[2.219937,48.846335],[2.223473,48.846545],[2.222775,48.843516],[2.222336,48.84333],[2.222112,48.841906],[2.221753,48.841687],[2.223627,48.841366]]],"type":"Polygon"},"properties":{"nomcom":"SAINT-CLOUD","num_insee":"92064","rne":"0920700L","code_coll":"0920700L","geo_point_2d":{"lon":2.2063189872286944,"lat":48.83767979286572},"sectorisation":0}},{"type":"Feature","geometry":{"coordinates":[[[2.223627,48.841366],[2.221753,48.841687],[2.222112,48.841906],[2.222336,48.84333],[2.222775,48.843516],[2.223473,48.846545],[2.219937,48.846335],[2.220982,48.849134],[2.218118,48.84947],[2.217804,48.850176],[2.216897,48.850208],[2.216585,48.845581],[2.214202,48.846912],[2.210694,48.847503],[2.210997,48.849367],[2.208017,48.850911],[2.201442,48.853124],[2.197882,48.854751],[2.200769,48.85704],[2.201823,48.857507],[2.203558,48.860628],[2.206168,48.860336],[2.212626,48.861689],[2.213721,48.859288],[2.215904,48.859752],[2.220519,48.859954],[2.22567,48.859405],[2.224407,48.856154],[2.224217,48.853738],[2.225483,48.84971],[2.225457,48.84699],[2.223627,48.841366]]],"type":"Polygon"},"properties":{"nomcom":"SAINT-CLOUD","num_insee":"92064","rne":"0921591E","code_coll":"0921591E","geo_point_2d":{"lon":2.2142411736427547,"lat":48.85398497182747},"sectorisation":0}},{"type":"Feature","geometry":{"coordinates":[[[2.305227,48.768974],[2.303325,48.774312],[2.304447,48.77466],[2.303356,48.777982],[2.296773,48.777031],[2.294271,48.777602],[2.295335,48.780954],[2.293303,48.78117],[2.293453,48.78421],[2.303407,48.785397],[2.306183,48.78497],[2.310471,48.78489],[2.306852,48.778362],[2.307445,48.778233],[2.306911,48.777463],[2.312069,48.776546],[2.314253,48.776812],[2.311832,48.770688],[2.309262,48.770927],[2.307434,48.770753],[2.307028,48.769471],[2.305227,48.768974]]],"type":"Polygon"},"properties":{"nomcom":"SCEAUX","num_insee":"92071","rne":"0921784P","code_coll":"0921784P","geo_point_2d":{"lon":2.303886366268307,"lat":48.77865420524592},"sectorisation":0}},{"type":"Feature","geometry":{"coordinates":[[[2.305227,48.768974],[2.290255,48.7666],[2.286286,48.771302],[2.286222,48.77287],[2.287013,48.773711],[2.285069,48.774404],[2.282528,48.77445],[2.28271,48.774779],[2.280135,48.773918],[2.279145,48.775054],[2.278299,48.776454],[2.280112,48.779077],[2.28044,48.780161],[2.279943,48.782079],[2.279475,48.782547],[2.280571,48.78332],[2.281799,48.782598],[2.281983,48.783183],[2.285267,48.782479],[2.287644,48.782524],[2.293453,48.78421],[2.293303,48.78117],[2.295335,48.780954],[2.294271,48.777602],[2.296773,48.777031],[2.303356,48.777982],[2.304447,48.77466],[2.303325,48.774312],[2.305227,48.768974]]],"type":"Polygon"},"properties":{"nomcom":"SCEAUX","num_insee":"92071","rne":"0921785R","code_coll":"0921785R","geo_point_2d":{"lon":2.291849697097261,"lat":48.77512930019957},"sectorisation":0}},{"type":"Feature","geometry":{"coordinates":[[[2.178522,48.814857],[2.181569,48.817807],[2.183437,48.817499],[2.184934,48.817653],[2.193205,48.821634],[2.198859,48.822206],[2.198394,48.823758],[2.200859,48.824022],[2.200968,48.825909],[2.198206,48.826001],[2.199433,48.829785],[2.200583,48.829853],[2.206944,48.828866],[2.211027,48.827646],[2.218063,48.827443],[2.218887,48.826368],[2.221648,48.827028],[2.220828,48.828451],[2.221677,48.829213],[2.223791,48.829712],[2.22243,48.831468],[2.222093,48.835411],[2.22405,48.83515],[2.22494,48.834095],[2.226113,48.83226],[2.226928,48.828373],[2.227637,48.82684],[2.229141,48.825135],[2.232638,48.822738],[2.230774,48.821597],[2.229967,48.821546],[2.229797,48.822068],[2.22734,48.82367],[2.226915,48.823411],[2.226074,48.823984],[2.22542,48.823675],[2.224827,48.823362],[2.225407,48.822688],[2.22177,48.820228],[2.221325,48.820264],[2.220514,48.819298],[2.217149,48.817733],[2.219867,48.816419],[2.220656,48.815171],[2.215826,48.812779],[2.211178,48.81163],[2.205508,48.8092],[2.196692,48.815142],[2.197228,48.815763],[2.199047,48.816541],[2.199543,48.817076],[2.198211,48.818052],[2.200261,48.819056],[2.197879,48.820917],[2.194616,48.81851],[2.191724,48.81687],[2.189576,48.816705],[2.190009,48.8164],[2.189678,48.816101],[2.189774,48.81576],[2.182859,48.815443],[2.181106,48.814664],[2.178522,48.814857]]],"type":"Polygon"},"properties":{"nomcom":"SEVRES","num_insee":"92072","rne":"0921244C","code_coll":"0921244C","geo_point_2d":{"lon":2.209259563372379,"lat":48.82093412597549},"sectorisation":0}},{"type":"Feature","geometry":{"coordinates":[[[2.227009,48.862034],[2.223538,48.862834],[2.224178,48.864129],[2.223,48.864523],[2.225946,48.867696],[2.225376,48.868036],[2.227137,48.870145],[2.225223,48.870788],[2.225475,48.871191],[2.222476,48.872227],[2.223777,48.874154],[2.230161,48.880105],[2.236401,48.879597],[2.231925,48.875864],[2.236834,48.873478],[2.230659,48.86808],[2.228377,48.86538],[2.227009,48.862034]]],"type":"Polygon"},"properties":{"nomcom":"SURESNES","num_insee":"92073","rne":"0920884L","code_coll":"0920884L","geo_point_2d":{"lon":2.2291375453655484,"lat":48.87213765810979},"sectorisation":0}},{"type":"Feature","geometry":{"coordinates":[[[2.224467,48.866258],[2.221716,48.867548],[2.220753,48.867116],[2.221248,48.867812],[2.219397,48.868395],[2.218569,48.868863],[2.218549,48.869257],[2.217465,48.86977],[2.218107,48.870477],[2.21445,48.870975],[2.210808,48.869999],[2.209302,48.871682],[2.208731,48.871865],[2.206798,48.873702],[2.2101,48.875532],[2.210783,48.876526],[2.210828,48.877271],[2.211647,48.877284],[2.213138,48.876434],[2.216609,48.876789],[2.216862,48.876955],[2.216205,48.877677],[2.216438,48.878123],[2.223616,48.882764],[2.226436,48.881213],[2.229882,48.880229],[2.230161,48.880105],[2.223777,48.874154],[2.222476,48.872227],[2.225475,48.871191],[2.225223,48.870788],[2.227137,48.870145],[2.225376,48.868036],[2.225946,48.867696],[2.224467,48.866258]]],"type":"Polygon"},"properties":{"nomcom":"SURESNES","num_insee":"92073","rne":"0921178F","code_coll":"0921178F","geo_point_2d":{"lon":2.219433769429921,"lat":48.87459260832604},"sectorisation":0}},{"type":"Feature","geometry":{"coordinates":[[[2.224467,48.866258],[2.223,48.864523],[2.224178,48.864129],[2.223538,48.862834],[2.227009,48.862034],[2.22567,48.859405],[2.220519,48.859954],[2.215904,48.859752],[2.213721,48.859288],[2.212626,48.861689],[2.210028,48.860961],[2.205709,48.860298],[2.199785,48.861417],[2.20205,48.866182],[2.203604,48.865376],[2.207777,48.864415],[2.209137,48.867106],[2.211405,48.866701],[2.211326,48.868858],[2.213577,48.870891],[2.218107,48.870477],[2.217465,48.86977],[2.218549,48.869257],[2.218569,48.868863],[2.219397,48.868395],[2.221248,48.867812],[2.220753,48.867116],[2.221716,48.867548],[2.224467,48.866258]]],"type":"Polygon"},"properties":{"nomcom":"SURESNES","num_insee":"92073","rne":"0920885M","code_coll":"0920885M","geo_point_2d":{"lon":2.2142742369899144,"lat":48.86412391271402},"sectorisation":0}},{"type":"Feature","geometry":{"coordinates":[[[2.286066,48.827439],[2.286559,48.825965],[2.288231,48.823208],[2.290832,48.82042],[2.28462,48.818205],[2.286383,48.815958],[2.278183,48.814249],[2.278071,48.814822],[2.277189,48.815344],[2.272561,48.814399],[2.273156,48.815169],[2.27595,48.817284],[2.277118,48.817443],[2.281873,48.820249],[2.281375,48.821125],[2.281952,48.821306],[2.281111,48.822853],[2.281563,48.823081],[2.281012,48.823502],[2.28082,48.824709],[2.280018,48.825197],[2.28083,48.825643],[2.280497,48.825915],[2.284386,48.827458],[2.286066,48.827439]]],"type":"Polygon"},"properties":{"nomcom":"VANVES","num_insee":"92075","rne":"0921783N","code_coll":"0921783N","geo_point_2d":{"lon":2.282975610852377,"lat":48.8202465575456},"sectorisation":0}},{"type":"Feature","geometry":{"coordinates":[[[2.286383,48.815958],[2.28462,48.818205],[2.290832,48.82042],[2.288231,48.823208],[2.286559,48.825965],[2.286066,48.827439],[2.287892,48.827582],[2.286578,48.828439],[2.289408,48.828334],[2.292192,48.827142],[2.301315,48.825126],[2.293394,48.818948],[2.286383,48.815958]]],"type":"Polygon"},"properties":{"nomcom":"VANVES","num_insee":"92075","rne":"0921240Y","code_coll":"0921240Y","geo_point_2d":{"lon":2.2920833590416323,"lat":48.82290702946342},"sectorisation":0}},{"type":"Feature","geometry":{"coordinates":[[[2.15147,48.821406],[2.149019,48.826959],[2.145954,48.835866],[2.145867,48.836895],[2.146257,48.838446],[2.145719,48.839535],[2.145727,48.841768],[2.147479,48.843194],[2.151039,48.848095],[2.151966,48.848769],[2.153026,48.848867],[2.157082,48.847743],[2.159872,48.847535],[2.169342,48.849726],[2.173586,48.850143],[2.176597,48.851648],[2.182619,48.851566],[2.181751,48.848194],[2.178902,48.844122],[2.167044,48.842168],[2.166951,48.841913],[2.167375,48.841827],[2.16732,48.839366],[2.16686,48.839337],[2.166652,48.837705],[2.155995,48.837592],[2.151697,48.829795],[2.151006,48.823555],[2.15147,48.821406]]],"type":"Polygon"},"properties":{"nomcom":"VAUCRESSON","num_insee":"92076","rne":"0922143E","code_coll":"0922143E","geo_point_2d":{"lon":2.160646011612566,"lat":48.84209786504738},"sectorisation":0}},{"type":"Feature","geometry":{"coordinates":[[[2.199433,48.829785],[2.198206,48.826001],[2.200968,48.825909],[2.200859,48.824022],[2.198394,48.823758],[2.198859,48.822206],[2.193205,48.821634],[2.184934,48.817653],[2.183437,48.817499],[2.181569,48.817807],[2.178522,48.814857],[2.176743,48.814009],[2.174815,48.81511],[2.169315,48.815913],[2.167671,48.813077],[2.166532,48.8123],[2.162532,48.812458],[2.160491,48.813075],[2.154493,48.816061],[2.153044,48.81623],[2.15164,48.816974],[2.15079,48.818051],[2.150747,48.818844],[2.151317,48.819638],[2.153308,48.821412],[2.155979,48.821494],[2.1573,48.820924],[2.159144,48.820854],[2.16177,48.823668],[2.164871,48.823159],[2.173877,48.824314],[2.176416,48.827239],[2.176152,48.828106],[2.178484,48.829057],[2.179802,48.830386],[2.180797,48.830624],[2.184777,48.828871],[2.184987,48.829227],[2.186723,48.828764],[2.190118,48.829371],[2.199433,48.829785]]],"type":"Polygon"},"properties":{"nomcom":"VILLE-D'AVRAY","num_insee":"92077","rne":"0920886N","code_coll":"0920886N","geo_point_2d":{"lon":2.1763591073207644,"lat":48.82144321482582},"sectorisation":0}},{"type":"Feature","geometry":{"coordinates":[[[2.336887,48.935675],[2.336776,48.933357],[2.334499,48.928685],[2.332767,48.926661],[2.32845,48.92276],[2.325443,48.924921],[2.318358,48.927548],[2.322158,48.932849],[2.320689,48.934871],[2.336887,48.935675]]],"type":"Polygon"},"properties":{"nomcom":"VILLENEUVE-LA-GARENNE","num_insee":"92078","rne":"0921159K","code_coll":"0921159K","geo_point_2d":{"lon":2.328075997424858,"lat":48.93028285206446},"sectorisation":0}},{"type":"Feature","geometry":{"coordinates":[[[2.336866,48.935767],[2.320617,48.934827],[2.318102,48.937006],[2.314603,48.938067],[2.312595,48.93919],[2.309203,48.940304],[2.309984,48.941306],[2.309312,48.941523],[2.311668,48.947949],[2.32415,48.94598],[2.329467,48.944617],[2.33211,48.943553],[2.334029,48.942311],[2.33544,48.940901],[2.335853,48.939997],[2.336866,48.935767]]],"type":"Polygon"},"properties":{"nomcom":"VILLENEUVE-LA-GARENNE","num_insee":"92078","rne":"0921543C","code_coll":"0921543C","geo_point_2d":{"lon":2.3227456063818126,"lat":48.940980342039694},"sectorisation":0}}]}