{"type":"FeatureCollection","features":[{"type":"Feature","geometry":{"coordinates":[[[1.889792,47.899762],[1.890712,47.898785],[1.890685,47.89781],[1.876433,47.897758],[1.875746,47.89902],[1.877182,47.899295],[1.876489,47.901464],[1.878929,47.901755],[1.879131,47.903625],[1.883306,47.909049],[1.886007,47.9079],[1.885318,47.906766],[1.889414,47.905303],[1.887809,47.902118],[1.889166,47.902113],[1.889073,47.900988],[1.88956,47.900914],[1.889792,47.899762]]],"type":"Polygon"},"properties":{"objectid":109,"si_numero":"0228","si_affecta":"GROUPES SCOLAIRES","si_stat_ju":"PROPRIETE VO : DIVERS","si_designa":"GROUPE SCOLAIRE LA MADELEINE","si_adresse":"1 RUE DE L'ECALE","si_remarqu":"1 MATERNELLE + 1 ELEMENTAIRE","codcomm":"450234","shape_area":846799.504409985,"shape_length":4432.799228970561,"quartier":"DUNOIS MADELEINE","geo_point_2d":{"lon":1.8836405259853253,"lat":47.90199772141259}}},{"type":"Feature","geometry":{"coordinates":[[[1.934097,47.829579],[1.936554,47.828819],[1.938629,47.829153],[1.948526,47.82816],[1.947459,47.819953],[1.942386,47.817529],[1.941618,47.8168],[1.941146,47.815708],[1.938179,47.818845],[1.937104,47.818272],[1.930631,47.825794],[1.926593,47.825253],[1.922824,47.824001],[1.921763,47.825924],[1.925467,47.826641],[1.927611,47.829388],[1.92848,47.828362],[1.930161,47.828774],[1.930448,47.828506],[1.931959,47.82853],[1.932087,47.828985],[1.933245,47.828913],[1.934097,47.829579]]],"type":"Polygon"},"properties":{"objectid":116,"si_numero":"0229","si_affecta":"GROUPES SCOLAIRES","si_stat_ju":"PROPRIETE VO : DIVERS","si_designa":"GROUPE SCOLAIRE HENRI POINCARE","si_adresse":"27 RUE HENRI POINCARE","si_remarqu":"1 MATERNELLE + 1 ELEMENTAIRE","codcomm":"450234","shape_area":1518168.60240255,"shape_length":6384.95059527838,"quartier":"LA SOURCE","geo_point_2d":{"lon":1.9385041434420236,"lat":47.82424689949234}}},{"type":"Feature","geometry":{"coordinates":[[[1.89544,47.903523],[1.901231,47.902413],[1.903819,47.902527],[1.904216,47.897976],[1.895043,47.897801],[1.89501,47.898689],[1.893641,47.901575],[1.893776,47.90234],[1.895164,47.903624],[1.89544,47.903523]]],"type":"Polygon"},"properties":{"objectid":117,"si_numero":"0215","si_affecta":"ECOLES ELEMENTAIRES","si_stat_ju":"PROPRIETE VO : DIVERS","si_designa":"ECOLE ELEMENTAIRE JEAN ZAY","si_adresse":"50 RUE DES CHARRETIERS","si_remarqu":"EXISTAIT EN 1884 RECONSTRUITE EN 1956","codcomm":"450234","shape_area":397726.3493199,"shape_length":2571.01989323325,"quartier":"CENTRE VILLE","geo_point_2d":{"lon":1.8988736595070663,"lat":47.900445907596776}}},{"type":"Feature","geometry":{"coordinates":[[[1.938124,47.836149],[1.937243,47.834963],[1.940448,47.833803],[1.943652,47.832005],[1.948552,47.830867],[1.948526,47.82816],[1.938629,47.829153],[1.936554,47.828819],[1.934097,47.829579],[1.934494,47.830103],[1.93354,47.83042],[1.933844,47.830829],[1.932823,47.83117],[1.933192,47.832128],[1.930109,47.833169],[1.932544,47.836484],[1.934639,47.83577],[1.935355,47.836719],[1.938124,47.836149]]],"type":"Polygon"},"properties":{"objectid":122,"si_numero":"0234","si_affecta":"GROUPES SCOLAIRES","si_stat_ju":"PROPRIETE VO : DIVERS","si_designa":"GROUPE SCOLAIRE DENIS DIDEROT","si_adresse":"1 BIS PLACE ALBERT CAMUS","si_remarqu":"1 MATERNELLE + 1 ELEMENTAIRE","codcomm":"450234","shape_area":678644.314961025,"shape_length":4131.126025680071,"quartier":"LA SOURCE","geo_point_2d":{"lon":1.9388105709498362,"lat":47.83188034994911}}},{"type":"Feature","geometry":{"coordinates":[[[1.923946,47.911562],[1.925977,47.911379],[1.926713,47.912178],[1.927809,47.912175],[1.927825,47.911394],[1.93046,47.911236],[1.934207,47.909512],[1.938279,47.908575],[1.938273,47.907644],[1.937796,47.906801],[1.936436,47.906194],[1.933066,47.905111],[1.929793,47.904627],[1.929636,47.902847],[1.927094,47.902446],[1.926502,47.903922],[1.92642,47.905388],[1.923154,47.904811],[1.923361,47.906013],[1.922421,47.905956],[1.920906,47.906569],[1.921522,47.906807],[1.921745,47.90767],[1.922301,47.907659],[1.923163,47.911692],[1.923946,47.911562]]],"type":"Polygon"},"properties":{"objectid":101,"si_numero":"0222","si_affecta":"ECOLES ELEMENTAIRES","si_stat_ju":"PROPRIETE AUTRES TIERS","si_designa":"ECOLE ELEMENTAIRE CHARLES PEGUY","si_adresse":"2B RUE THEOPHILE NAUDY","si_remarqu":"PROP DU DEPARTEMENT(EX IUFM)-CONVENTION","codcomm":"450234","shape_area":758964.28545838,"shape_length":4177.79526471396,"quartier":"BARRIERE ST MARC - ARGONNE - FAUBOURG BOURGOGNE","geo_point_2d":{"lon":1.9290392851253493,"lat":47.907717558484585}}},{"type":"Feature","geometry":{"coordinates":[[[1.896411,47.926604],[1.889507,47.925626],[1.890431,47.924087],[1.88829,47.923588],[1.887875,47.923602],[1.886846,47.925374],[1.885159,47.926891],[1.88822,47.927506],[1.890611,47.928642],[1.89236,47.929892],[1.894506,47.933035],[1.895151,47.932257],[1.896411,47.926604]]],"type":"Polygon"},"properties":{"objectid":107,"si_numero":"0233","si_affecta":"GROUPES SCOLAIRES","si_stat_ju":"PROPRIETE VO : DIVERS","si_designa":"GROUPE SCOLAIRE LES AYDES","si_adresse":"2 RUE DES ECOLES","si_remarqu":"1 MATERNELLE + 1 ELEMENTAIRE + EX CUISINE","codcomm":"450234","shape_area":329931.60663532,"shape_length":3123.4794488152,"quartier":"ACACIAS - BLOSSIERES - GARE","geo_point_2d":{"lon":1.8917254964529733,"lat":47.92769862919491}}},{"type":"Feature","geometry":{"coordinates":[[[1.905974,47.915496],[1.905582,47.914234],[1.900487,47.915033],[1.899343,47.914911],[1.897954,47.921125],[1.903665,47.920888],[1.906583,47.921187],[1.905974,47.915496]]],"type":"Polygon"},"properties":{"objectid":120,"si_numero":"0226","si_affecta":"GROUPES SCOLAIRES","si_stat_ju":"PROPRIETE VO : DIVERS","si_designa":"GROUPE SCOLAIRE MOLIERE","si_adresse":"4 RUE MOLIERE","si_remarqu":"1 MATERNELLE + 1 ELEMENTAIRE","codcomm":"450234","shape_area":402048.628304365,"shape_length":2614.60150004772,"quartier":"ACACIAS - BLOSSIERES - GARE","geo_point_2d":{"lon":1.9024932425402306,"lat":47.91799789760779}}},{"type":"Feature","geometry":{"coordinates":[[[1.896436,47.926506],[1.897649,47.922424],[1.895295,47.922031],[1.896012,47.920863],[1.893422,47.920477],[1.892969,47.921204],[1.88842,47.920234],[1.887954,47.921278],[1.887875,47.923602],[1.890431,47.924087],[1.889507,47.925626],[1.896436,47.926506]]],"type":"Polygon"},"properties":{"objectid":121,"si_numero":"0225","si_affecta":"GROUPES SCOLAIRES","si_stat_ju":"PROPRIETE VO : DIVERS","si_designa":"GROUPE SCOLAIRE DES BLOSSIERES","si_adresse":"10 RUE CHARLES LE CHAUVE & 7 RUE ROBERT LE PIEUX","si_remarqu":"JEAN MERMOZ (EE), MARYSE BASTIE (EM) & HELENE BOUCHER (EM)","codcomm":"450234","shape_area":355654.827348215,"shape_length":2776.51273807118,"quartier":"ACACIAS - BLOSSIERES - GARE","geo_point_2d":{"lon":1.8928025986437724,"lat":47.923352193899895}}},{"type":"Feature","geometry":{"coordinates":[[[1.9233,47.834437],[1.924075,47.833526],[1.925316,47.833905],[1.926244,47.833638],[1.926742,47.834291],[1.927196,47.834129],[1.925942,47.832366],[1.928706,47.831422],[1.927397,47.829677],[1.927611,47.829388],[1.925467,47.826641],[1.921763,47.825924],[1.919289,47.830435],[1.915878,47.829486],[1.914671,47.831652],[1.918163,47.832528],[1.91527,47.837841],[1.915731,47.838001],[1.920983,47.83886],[1.924454,47.837668],[1.923163,47.835929],[1.925018,47.835317],[1.9233,47.834437]]],"type":"Polygon"},"properties":{"objectid":123,"si_numero":"0227","si_affecta":"GROUPES SCOLAIRES","si_stat_ju":"PROPRIETE VO : DIVERS","si_designa":"GROUPE SCOLAIRE ANTOINE DE LAVOISIER","si_adresse":"2 & 4 RUE AMPERE","si_remarqu":"1 MATERNELLE + 1 ELEMENTAIRE","codcomm":"450234","shape_area":825676.00283741,"shape_length":5008.36779034192,"quartier":"LA SOURCE","geo_point_2d":{"lon":1.9215774336755083,"lat":47.83257070237081}}},{"type":"Feature","geometry":{"coordinates":[[[1.941616,47.92345],[1.943942,47.92353],[1.943147,47.91966],[1.942178,47.91675],[1.937765,47.916021],[1.937366,47.916073],[1.937328,47.916647],[1.935058,47.916071],[1.930192,47.915995],[1.928686,47.914403],[1.923908,47.914699],[1.924775,47.918482],[1.926261,47.918686],[1.926495,47.918272],[1.928429,47.918744],[1.928215,47.919267],[1.928617,47.919835],[1.930744,47.920027],[1.932698,47.922439],[1.932196,47.922905],[1.939946,47.923813],[1.941616,47.92345]]],"type":"Polygon"},"properties":{"objectid":98,"si_numero":"0238","si_affecta":"GROUPES SCOLAIRES","si_stat_ju":"PROPRIETE VO : DIVERS","si_designa":"GROUPE SCOLAIRE DU NECOTIN","si_adresse":"17 & 19 RUE DU NECOTIN","si_remarqu":"1 MATERNELLE + 1 ELEMENTAIRE","codcomm":"450234","shape_area":923442.521915485,"shape_length":4648.41390560954,"quartier":"BARRIERE ST MARC - ARGONNE - FAUBOURG BOURGOGNE","geo_point_2d":{"lon":1.9348072084113945,"lat":47.91913842860071}}},{"type":"Feature","geometry":{"coordinates":[[[1.936835,47.933537],[1.94373,47.931686],[1.942695,47.929023],[1.943465,47.928968],[1.94391,47.927244],[1.94343,47.924863],[1.943725,47.923518],[1.941616,47.92345],[1.939946,47.923813],[1.932196,47.922905],[1.932698,47.922439],[1.93168,47.920939],[1.930744,47.920027],[1.928617,47.919835],[1.928215,47.919267],[1.928429,47.918744],[1.926495,47.918272],[1.926261,47.918686],[1.924388,47.918512],[1.922679,47.91773],[1.917299,47.917023],[1.918287,47.919572],[1.929176,47.926188],[1.936835,47.933537]]],"type":"Polygon"},"properties":{"objectid":100,"si_numero":"0303","si_affecta":"GROUPES SCOLAIRES","si_stat_ju":"PROPRIETE VO : DIVERS","si_designa":"GROUPE SCOLAIRE MICHEL DE LA FOURNIERE","si_adresse":"76 RUE DE LA BARRIERE SAINT MARC (DU N","si_remarqu":"1 MATERNELLE + 1 ELEMENTAIRE","codcomm":"450234","shape_area":1432560.13797771,"shape_length":6413.54794978513,"quartier":"BARRIERE ST MARC - ARGONNE - FAUBOURG BOURGOGNE","geo_point_2d":{"lon":1.9328693710772102,"lat":47.92512949057699}}},{"type":"Feature","geometry":{"coordinates":[[[1.922109,47.906044],[1.923361,47.906013],[1.923154,47.904811],[1.92642,47.905388],[1.926502,47.903922],[1.927092,47.902445],[1.933791,47.903791],[1.936392,47.903923],[1.936333,47.903063],[1.937191,47.90156],[1.935686,47.901068],[1.920526,47.898795],[1.919826,47.900612],[1.920314,47.901176],[1.919818,47.901333],[1.918443,47.904636],[1.921289,47.906025],[1.921253,47.906411],[1.922109,47.906044]]],"type":"Polygon"},"properties":{"objectid":102,"si_numero":"0235","si_affecta":"GROUPES SCOLAIRES","si_stat_ju":"PROPRIETE VO : DIVERS","si_designa":"GROUPE SCOLAIRE LES CORDIERS","si_adresse":"14 RUE DES CORDIERS","si_remarqu":"1 MATERNELLE + 1 ELEMENTAIRE (1883)","codcomm":"450234","shape_area":595697.798035135,"shape_length":4212.031154022,"quartier":"BARRIERE ST MARC - ARGONNE - FAUBOURG BOURGOGNE","geo_point_2d":{"lon":1.9262527973624675,"lat":47.90228314127952}}},{"type":"Feature","geometry":{"coordinates":[[[1.903755,47.894753],[1.904502,47.894821],[1.904522,47.894609],[1.902064,47.893717],[1.903057,47.891618],[1.90234,47.891382],[1.901257,47.890331],[1.901587,47.889858],[1.900893,47.889633],[1.901147,47.889056],[1.900313,47.888798],[1.900023,47.889429],[1.899224,47.88919],[1.899535,47.888564],[1.899389,47.888185],[1.896014,47.886866],[1.897837,47.88461],[1.894254,47.883526],[1.894819,47.882549],[1.896442,47.882814],[1.895897,47.882424],[1.895905,47.881551],[1.894188,47.88109],[1.894203,47.879735],[1.891832,47.879601],[1.890244,47.877552],[1.886126,47.879698],[1.880931,47.880204],[1.880694,47.881326],[1.880881,47.882158],[1.879683,47.882922],[1.87836,47.884736],[1.881902,47.885685],[1.887571,47.886629],[1.886651,47.891083],[1.886413,47.894186],[1.903755,47.894753]]],"type":"Polygon"},"properties":{"objectid":105,"si_numero":"0224","si_affecta":"GROUPES SCOLAIRES","si_stat_ju":"PROPRIETE VO : DIVERS","si_designa":"GROUPE SCOLAIRE JARDIN DES PLANTES","si_adresse":"1 AU 3 RUE DANTE ALIGHIERI","si_remarqu":"1 MATERNELLE + 1 ELEMENTAIRE","codcomm":"450234","shape_area":1811413.92944927,"shape_length":7493.29592762364,"quartier":"SAINT MARCEAU","geo_point_2d":{"lon":1.8912265442088592,"lat":47.88693049375493}}},{"type":"Feature","geometry":{"coordinates":[[[1.902864,47.912067],[1.90433,47.910736],[1.903909,47.906871],[1.901383,47.907332],[1.89692,47.904838],[1.890751,47.907463],[1.893584,47.911175],[1.894952,47.911118],[1.89576,47.91034],[1.897318,47.910042],[1.900468,47.910661],[1.900213,47.911647],[1.902864,47.912067]]],"type":"Polygon"},"properties":{"objectid":106,"si_numero":"0217","si_affecta":"ECOLES ELEMENTAIRES","si_stat_ju":"PROPRIETE VO : DIVERS","si_designa":"ECOLE ELEMENTAIRE ANDRE DESSAUX","si_adresse":"43 & 45 RUE DU FAUBOURG BANNIER","si_remarqu":null,"codcomm":"450234","shape_area":469681.38963565,"shape_length":3183.09358926253,"quartier":"DUNOIS MADELEINE","geo_point_2d":{"lon":1.8979214532991324,"lat":47.90854406657081}}},{"type":"Feature","geometry":{"coordinates":[[[1.895649,47.905406],[1.89692,47.904838],[1.893776,47.90234],[1.893641,47.901575],[1.89501,47.898689],[1.895043,47.897801],[1.890685,47.89781],[1.890712,47.898785],[1.890402,47.899387],[1.889982,47.89928],[1.88956,47.900914],[1.889073,47.900988],[1.889166,47.902113],[1.887809,47.902118],[1.889414,47.905303],[1.885318,47.906766],[1.886007,47.9079],[1.883306,47.909049],[1.885678,47.911828],[1.886921,47.91166],[1.888312,47.910936],[1.890716,47.910337],[1.891941,47.909233],[1.890751,47.907463],[1.895649,47.905406]]],"type":"Polygon"},"properties":{"objectid":108,"si_numero":"0223","si_affecta":"ECOLES ELEMENTAIRES","si_stat_ju":"PROPRIETE VO : DIVERS","si_designa":"ECOLE ELEMENTAIRE LOUIS GUILLOUX","si_adresse":"28 RUE DU FAUBOURG SAINT JEAN","si_remarqu":"RECONSTRUITE EN 1901","codcomm":"450234","shape_area":655106.61704438,"shape_length":4666.8783171238,"quartier":"DUNOIS MADELEINE","geo_point_2d":{"lon":1.8903532584951472,"lat":47.905020259735544}}},{"type":"Feature","geometry":{"coordinates":[[[1.905304,47.906518],[1.90972,47.9055],[1.909925,47.902588],[1.910718,47.902523],[1.910764,47.902152],[1.911338,47.901986],[1.9111,47.90139],[1.910554,47.901364],[1.910711,47.900311],[1.911741,47.900239],[1.912022,47.898607],[1.913534,47.898433],[1.913586,47.898006],[1.904216,47.897976],[1.903726,47.902159],[1.904456,47.902873],[1.905807,47.902938],[1.905348,47.904763],[1.904754,47.905008],[1.905304,47.906518]]],"type":"Polygon"},"properties":{"objectid":110,"si_numero":"0212","si_affecta":"ECOLES ELEMENTAIRES","si_stat_ju":"PROPRIETE VO : DIVERS","si_designa":"ECOLE ELEMENTAIRE JACQUES ANDROUET DU CERCEAU","si_adresse":"10 RUE JEANNE D'ARC","si_remarqu":"EXISTE DEPUIS 1846","codcomm":"450234","shape_area":425827.944102345,"shape_length":3334.52399862456,"quartier":"CENTRE VILLE","geo_point_2d":{"lon":1.9076679346267005,"lat":47.90142243244496}}},{"type":"Feature","geometry":{"coordinates":[[[1.916823,47.919799],[1.917947,47.919797],[1.918314,47.919499],[1.917948,47.919218],[1.917299,47.917023],[1.922679,47.91773],[1.924775,47.918482],[1.922301,47.907659],[1.921745,47.90767],[1.921522,47.906807],[1.920906,47.906569],[1.921289,47.906025],[1.918443,47.904636],[1.915618,47.904576],[1.909927,47.905847],[1.912335,47.911681],[1.913,47.914658],[1.91219,47.917374],[1.911083,47.919645],[1.916823,47.919799]]],"type":"Polygon"},"properties":{"objectid":111,"si_numero":"0239","si_affecta":"GROUPES SCOLAIRES","si_stat_ju":"PROPRIETE VO : DIVERS","si_designa":"GROUPE SCOLAIRE STUART/CORMIER","si_adresse":"19 RUE DU CHATEAU GAILLARD & 12 BOULEVARD MARIE STUART","si_remarqu":"MARIE STUART (EM) & OLYMPIA CORMIER (EE)","codcomm":"450234","shape_area":1278801.63738912,"shape_length":5470.75697574672,"quartier":"BARRIERE ST MARC - ARGONNE - FAUBOURG BOURGOGNE","geo_point_2d":{"lon":1.9171896306614862,"lat":47.912017032346455}}},{"type":"Feature","geometry":{"coordinates":[[[1.904346,47.887886],[1.905249,47.88784],[1.905251,47.88725],[1.902728,47.878781],[1.899368,47.879016],[1.899678,47.880027],[1.894203,47.879735],[1.894188,47.88109],[1.895905,47.881551],[1.895895,47.882584],[1.896521,47.882657],[1.894819,47.882549],[1.894254,47.883526],[1.897837,47.88461],[1.897145,47.885467],[1.898025,47.88663],[1.902837,47.887872],[1.904346,47.887886]]],"type":"Polygon"},"properties":{"objectid":112,"si_numero":"0334","si_affecta":"GROUPES SCOLAIRES","si_stat_ju":"PROPRIETE VO : DIVERS","si_designa":"GROUPE SCOLAIRE LA CIGOGNE","si_adresse":"1 RUE HONORE D'ESTIENNE D'ORVES","si_remarqu":"1 MATERNELLE + 1 ELEMENTAIRE","codcomm":"450234","shape_area":539838.888156985,"shape_length":3665.09463891663,"quartier":"SAINT MARCEAU","geo_point_2d":{"lon":1.90023047014891,"lat":47.883321080576714}}},{"type":"Feature","geometry":{"coordinates":[[[1.907883,47.92121],[1.909642,47.920745],[1.911083,47.919645],[1.91219,47.917374],[1.913,47.914658],[1.912335,47.911681],[1.909853,47.905468],[1.903909,47.906871],[1.904469,47.91433],[1.905582,47.914234],[1.905974,47.915496],[1.906583,47.921187],[1.907883,47.92121]]],"type":"Polygon"},"properties":{"objectid":113,"si_numero":"0230","si_affecta":"GROUPES SCOLAIRES","si_stat_ju":"PROPRIETE VO : DIVERS","si_designa":"GROUPE SCOLAIRE PIERRE SEGELLE","si_adresse":"1 RUE ELOY D'AMERVAL (NS 1 - 3 - 5 - 7)","si_remarqu":"1 MATERNELLE + 1 ELEMENTAIRE","codcomm":"450234","shape_area":817584.541387785,"shape_length":4210.62285362517,"quartier":"ACACIAS - BLOSSIERES - GARE","geo_point_2d":{"lon":1.9084505917107006,"lat":47.91308931544814}}},{"type":"Feature","geometry":{"coordinates":[[[1.897649,47.922424],[1.899343,47.914911],[1.900487,47.915033],[1.904469,47.91433],[1.904128,47.910736],[1.902864,47.912067],[1.900213,47.911647],[1.900468,47.910661],[1.897318,47.910042],[1.89576,47.91034],[1.894952,47.911118],[1.893584,47.911175],[1.892135,47.909094],[1.890716,47.910337],[1.885678,47.911828],[1.885602,47.913871],[1.884896,47.916189],[1.886033,47.919004],[1.887315,47.918988],[1.887607,47.921226],[1.887954,47.921278],[1.88842,47.920234],[1.892969,47.921204],[1.893422,47.920477],[1.896012,47.920863],[1.895295,47.922031],[1.897649,47.922424]]],"type":"Polygon"},"properties":{"objectid":114,"si_numero":"0218","si_affecta":"ECOLES ELEMENTAIRES","si_stat_ju":"PROPRIETE VO : DIVERS","si_designa":"ECOLE ELEMENTAIRE MARCEL PROUST","si_adresse":"111 RUE DU FAUBOURG BANNIER","si_remarqu":"1 MATERNELLE + 1 ELEMENTAIRE","codcomm":"450234","shape_area":1278654.43184699,"shape_length":5904.65711038684,"quartier":"DUNOIS MADELEINE","geo_point_2d":{"lon":1.8936090987819345,"lat":47.915330904513105}}},{"type":"Feature","geometry":{"coordinates":[[[1.932369,47.823875],[1.937104,47.818272],[1.938179,47.818845],[1.941146,47.815708],[1.940493,47.814249],[1.936195,47.813281],[1.928326,47.813896],[1.922824,47.824001],[1.926593,47.825253],[1.930631,47.825794],[1.932369,47.823875]]],"type":"Polygon"},"properties":{"objectid":115,"si_numero":"0262","si_affecta":"GROUPES SCOLAIRES","si_stat_ju":"PROPRIETE VO : DIVERS","si_designa":"GROUPE SCOLAIRE LES GUERNAZELLES","si_adresse":"4 & 6 RUE DES ANCIENS COMBATTANTS D'AFRIQUE DU NORD","si_remarqu":"1 MATERNELLE + 1 ELEMENTAIRE","codcomm":"450234","shape_area":1079585.24460823,"shape_length":4406.801038968601,"quartier":"LA SOURCE","geo_point_2d":{"lon":1.9314420138590986,"lat":47.81894941205439}}},{"type":"Feature","geometry":{"coordinates":[[[1.903484,47.90694],[1.905241,47.906537],[1.904754,47.905008],[1.905348,47.904763],[1.905807,47.902938],[1.903157,47.902414],[1.901231,47.902413],[1.895164,47.903624],[1.898517,47.905911],[1.901383,47.907332],[1.903484,47.90694]]],"type":"Polygon"},"properties":{"objectid":118,"si_numero":"0216","si_affecta":"ECOLES ELEMENTAIRES","si_stat_ju":"PROPRIETE VO : DIVERS","si_designa":"ECOLE ELEMENTAIRE GUILLAUME APOLLINAIRE","si_adresse":"59 RUE BANNIER","si_remarqu":"CREEE EN 1883","codcomm":"450234","shape_area":282278.169295145,"shape_length":2210.63208500504,"quartier":"CENTRE VILLE","geo_point_2d":{"lon":1.901279839692838,"lat":47.904621200209476}}},{"type":"Feature","geometry":{"coordinates":[[[1.919818,47.901333],[1.920314,47.901176],[1.919826,47.900612],[1.920526,47.898795],[1.916502,47.898119],[1.913586,47.898006],[1.913534,47.898433],[1.912022,47.898607],[1.911741,47.900239],[1.910711,47.900311],[1.910554,47.901364],[1.9111,47.90139],[1.911321,47.90203],[1.910764,47.902152],[1.910718,47.902523],[1.909925,47.902588],[1.90972,47.9055],[1.909927,47.905847],[1.915618,47.904576],[1.918443,47.904636],[1.919818,47.901333]]],"type":"Polygon"},"properties":{"objectid":119,"si_numero":"0213","si_affecta":"ECOLES ELEMENTAIRES","si_stat_ju":"PROPRIETE VO : DIVERS","si_designa":"ECOLE ELEMENTAIRE CHARLES PENSEE","si_adresse":"36 RUE DU BOURDON BLANC","si_remarqu":"CREE LE 1ER OCT 1887","codcomm":"450234","shape_area":493337.125862075,"shape_length":3120.24288935455,"quartier":"BARRIERE ST MARC - ARGONNE - FAUBOURG BOURGOGNE","geo_point_2d":{"lon":1.9149782399013116,"lat":47.90170805246237}}},{"type":"Feature","geometry":{"coordinates":[[[1.928783,47.837715],[1.932544,47.836484],[1.930109,47.833169],[1.926742,47.834291],[1.926244,47.833638],[1.925316,47.833905],[1.924075,47.833521],[1.9233,47.834437],[1.925018,47.835317],[1.923163,47.835929],[1.924454,47.837668],[1.927507,47.83681],[1.928114,47.836826],[1.928783,47.837715]]],"type":"Polygon"},"properties":{"objectid":124,"si_numero":"0236","si_affecta":"GROUPES SCOLAIRES","si_stat_ju":"PROPRIETE VO : DIVERS","si_designa":"GROUPE SCOLAIRE LOUIS PASTEUR","si_adresse":"8 RUE LAVOISIER & 1 ALLAE LOUIS PERGAUD","si_remarqu":"1 MATERNELLE + 1 ELEMENTAIRE","codcomm":"450234","shape_area":224798.008647635,"shape_length":2344.83052608574,"quartier":"LA SOURCE","geo_point_2d":{"lon":1.9277352178661202,"lat":47.8355383446325}}},{"type":"Feature","geometry":{"coordinates":[[[1.935069,47.839936],[1.932937,47.83706],[1.930759,47.837881],[1.931832,47.839426],[1.931408,47.83957],[1.932338,47.840866],[1.935069,47.839936]]],"type":"Polygon"},"properties":{"objectid":125,"si_numero":"0210","si_affecta":"GROUPES SCOLAIRES","si_stat_ju":"PROPRIETE VO : DIVERS","si_designa":"GROUPE SCOLAIRE PAULINE KERGOMARD","si_adresse":"RUE DE CRACOVIE","si_remarqu":"EX ECOLE MATERNELLE DEMOLIE DANS LE CADRE DU GPV","codcomm":"450234","shape_area":73123.024949695,"shape_length":1165.6837395883301,"quartier":"LA SOURCE","geo_point_2d":{"lon":1.9328272274407594,"lat":47.83900228901524}}},{"type":"Feature","geometry":{"coordinates":[[[1.934097,47.829579],[1.933245,47.828913],[1.932087,47.828985],[1.931959,47.82853],[1.930448,47.828506],[1.930161,47.828774],[1.92848,47.828362],[1.927397,47.829677],[1.928706,47.831422],[1.925942,47.832366],[1.927196,47.834129],[1.933194,47.832132],[1.932823,47.83117],[1.933844,47.830829],[1.93354,47.83042],[1.934494,47.830103],[1.934097,47.829579]]],"type":"Polygon"},"properties":{"objectid":126,"si_numero":"0715","si_affecta":"GROUPES SCOLAIRES","si_stat_ju":"PROPRIETE VO : DIVERS","si_designa":"GROUPE SCOLAIRE RENE GUY CADOU","si_adresse":"1 RUE HENRI POINCARE","si_remarqu":"MATERNELLES + 1 ELEMENTAIRE","codcomm":"450234","shape_area":222244.29213162,"shape_length":2293.9580750247,"quartier":"LA SOURCE","geo_point_2d":{"lon":1.9301676099526317,"lat":47.83102732382628}}},{"type":"Feature","geometry":{"coordinates":[[[1.937432,47.851275],[1.933654,47.848866],[1.92865,47.842088],[1.932338,47.840866],[1.931408,47.83957],[1.931832,47.839426],[1.930762,47.837881],[1.932937,47.83706],[1.932544,47.836484],[1.928783,47.837715],[1.928114,47.836826],[1.927507,47.83681],[1.920983,47.83886],[1.921048,47.84002],[1.922446,47.839219],[1.923315,47.840389],[1.923572,47.840221],[1.923833,47.840566],[1.923354,47.840826],[1.924806,47.843001],[1.922359,47.84375],[1.927127,47.846012],[1.929481,47.847953],[1.932678,47.851835],[1.93181,47.852122],[1.931757,47.8531],[1.933106,47.85268],[1.934301,47.852885],[1.936277,47.852659],[1.937432,47.851275]]],"type":"Polygon"},"properties":{"objectid":96,"si_numero":"0231","si_affecta":"GROUPES SCOLAIRES","si_stat_ju":"PROPRIETE VO : DIVERS","si_designa":"GROUPE SCOLAIRE ROMAIN ROLLAND","si_adresse":"2 RUE JULES FERRY & 9 RUE ROMAIN ROLLAND","si_remarqu":"1 MATERNELLE + 2 ELEMENTAIRES","codcomm":"450234","shape_area":760338.231575915,"shape_length":6161.86159521348,"quartier":"LA SOURCE","geo_point_2d":{"lon":1.9289077398458874,"lat":47.84373654484527}}},{"type":"Feature","geometry":{"coordinates":[[[1.938783,47.850868],[1.940537,47.851165],[1.941227,47.850587],[1.943612,47.849605],[1.943084,47.848411],[1.941063,47.846236],[1.945395,47.843974],[1.945907,47.843354],[1.946594,47.843229],[1.948145,47.835988],[1.948552,47.830867],[1.943652,47.832005],[1.940448,47.833803],[1.937243,47.834963],[1.938124,47.836149],[1.935355,47.836719],[1.934639,47.83577],[1.932544,47.836484],[1.935069,47.839936],[1.92865,47.842088],[1.933654,47.848866],[1.937432,47.851275],[1.938783,47.850868]]],"type":"Polygon"},"properties":{"objectid":97,"si_numero":"0775","si_affecta":"GROUPES SCOLAIRES","si_stat_ju":"PROPRIETE VO : DIVERS","si_designa":"GROUPE SCOLAIRE GASTON GALLOUX","si_adresse":"14 & 16 PLACE SAINTE BEUVE","si_remarqu":"1 MATERNELLE + 1 ELEMENTAIRE","codcomm":"450234","shape_area":1864772.4173227,"shape_length":6728.2592369065205,"quartier":"LA SOURCE","geo_point_2d":{"lon":1.939759629822753,"lat":47.841281208320076}}},{"type":"Feature","geometry":{"coordinates":[[[1.937389,47.916565],[1.937366,47.916073],[1.939048,47.916164],[1.938824,47.915406],[1.9395,47.914747],[1.93829,47.911764],[1.938279,47.908575],[1.934207,47.909512],[1.93046,47.911236],[1.927825,47.911394],[1.927809,47.912175],[1.926713,47.912178],[1.925977,47.911379],[1.923163,47.911692],[1.923908,47.914699],[1.928686,47.914403],[1.930192,47.915995],[1.935058,47.916071],[1.937389,47.916565]]],"type":"Polygon"},"properties":{"objectid":99,"si_numero":"0305","si_affecta":"ECOLES ELEMENTAIRES","si_stat_ju":"PROPRIETE VO : DIVERS","si_designa":"ECOLE MATERNELLE - PRIMAIRE GUTENBERG","si_adresse":"35 & 37 RUE DU GRAND VILLIERS","si_remarqu":"1 PRIM.","codcomm":"450234","shape_area":626003.69798649,"shape_length":3890.6982598642703,"quartier":"BARRIERE ST MARC - ARGONNE - FAUBOURG BOURGOGNE","geo_point_2d":{"lon":1.9326587396474817,"lat":47.913019420343645}}},{"type":"Feature","geometry":{"coordinates":[[[1.906313,47.888119],[1.906884,47.888676],[1.912505,47.888977],[1.913055,47.887452],[1.912247,47.882167],[1.912465,47.881755],[1.913709,47.882053],[1.91831,47.882148],[1.919525,47.878612],[1.922975,47.876158],[1.924744,47.875412],[1.92655,47.873833],[1.92759,47.872072],[1.929633,47.870954],[1.928221,47.870732],[1.926999,47.867942],[1.929956,47.867301],[1.929096,47.865495],[1.9299,47.864872],[1.933196,47.863848],[1.936639,47.863573],[1.939115,47.859157],[1.936981,47.859918],[1.933946,47.855982],[1.935086,47.855591],[1.932908,47.852748],[1.931757,47.8531],[1.932785,47.85446],[1.931236,47.855148],[1.932845,47.85722],[1.929874,47.858196],[1.928824,47.8579],[1.927611,47.858041],[1.925192,47.858949],[1.924558,47.860046],[1.924643,47.861265],[1.922564,47.861382],[1.92183,47.860767],[1.922063,47.860333],[1.920687,47.860508],[1.92051,47.859954],[1.920278,47.859997],[1.917505,47.861327],[1.915937,47.862561],[1.914908,47.86171],[1.912805,47.863505],[1.91457,47.864276],[1.915697,47.865304],[1.915585,47.865772],[1.913694,47.866678],[1.914404,47.867821],[1.913938,47.868758],[1.914227,47.870052],[1.911994,47.869479],[1.912518,47.872066],[1.907795,47.873188],[1.908452,47.875928],[1.907437,47.876097],[1.907875,47.877274],[1.902686,47.878593],[1.905251,47.88725],[1.905106,47.888971],[1.906313,47.888119]]],"type":"Polygon"},"properties":{"objectid":103,"si_numero":"1163","si_affecta":"GROUPES SCOLAIRES","si_stat_ju":"PROPRIETE VO : DIVERS","si_designa":"GROUPE SCOLAIRE BENEDICTE MARECHAL","si_adresse":"12 - 14 RUE DES DAHLIAS","si_remarqu":"1 MATERNELLE + 1 PRIMAIRE","codcomm":"450234","shape_area":3739625.24238651,"shape_length":13447.3253819816,"quartier":"SAINT MARCEAU","geo_point_2d":{"lon":1.919131033935861,"lat":47.871437959074505}}},{"type":"Feature","geometry":{"coordinates":[[[1.907633,47.894777],[1.915159,47.894505],[1.91432,47.893795],[1.9133,47.893984],[1.913111,47.892806],[1.911586,47.892884],[1.911495,47.890448],[1.912505,47.888977],[1.906884,47.888676],[1.906313,47.888119],[1.905106,47.888971],[1.905249,47.88784],[1.902837,47.887872],[1.898623,47.88697],[1.897145,47.885467],[1.896014,47.886866],[1.899389,47.888185],[1.899535,47.888564],[1.899224,47.88919],[1.900023,47.889429],[1.900313,47.888798],[1.901147,47.889056],[1.900893,47.889633],[1.901587,47.889858],[1.901257,47.890331],[1.90234,47.891382],[1.903057,47.891618],[1.902064,47.893717],[1.904522,47.894609],[1.904502,47.894821],[1.907633,47.894777]]],"type":"Polygon"},"properties":{"objectid":104,"si_numero":"0219","si_affecta":"ECOLES ELEMENTAIRES","si_stat_ju":"PROPRIETE VO : DIVERS","si_designa":"ECOLE ELEMENTAIRE MAXIME PERRARD","si_adresse":"45 AVENUE DAUPHINE","si_remarqu":null,"codcomm":"450234","shape_area":594562.57696429,"shape_length":4851.96288630705,"quartier":"SAINT MARCEAU","geo_point_2d":{"lon":1.9062087607882157,"lat":47.89112229759113}}}]}