{"type":"FeatureCollection","features":[{"type":"Feature","geometry":{"coordinates":[[[[2.340707,48.868688],[2.341184,48.868525],[2.339928,48.866227],[2.338751,48.866359],[2.340002,48.868642],[2.340707,48.868688]]],[[[2.34536,48.870027],[2.345009,48.869481],[2.342865,48.869954],[2.342803,48.870316],[2.342978,48.870783],[2.345496,48.870321],[2.34536,48.870027]]],[[[2.343731,48.867696],[2.343591,48.867258],[2.341071,48.866408],[2.341617,48.867551],[2.343731,48.867696]]],[[[2.346885,48.867364],[2.347216,48.867275],[2.347086,48.866398],[2.344332,48.866851],[2.34627,48.86748],[2.346885,48.867364]]],[[[2.346785,48.870715],[2.347809,48.870522],[2.346926,48.869504],[2.347398,48.869447],[2.34705,48.869197],[2.347688,48.868846],[2.345955,48.869213],[2.346785,48.870715]]],[[[2.345767,48.869168],[2.345567,48.8686],[2.345141,48.86867],[2.343269,48.869162],[2.342966,48.869836],[2.345767,48.869168]]],[[[2.342735,48.871385],[2.342936,48.871362],[2.342487,48.870319],[2.341061,48.870477],[2.341624,48.871564],[2.342735,48.871385]]],[[[2.348615,48.866862],[2.349327,48.866732],[2.348962,48.865996],[2.347236,48.866353],[2.347378,48.867129],[2.348615,48.866862]]],[[[2.346727,48.864863],[2.345194,48.864881],[2.344814,48.865732],[2.346901,48.865503],[2.346727,48.864863]]],[[[2.34402,48.87117],[2.345827,48.870838],[2.345556,48.870421],[2.344631,48.87059],[2.343009,48.870889],[2.343113,48.871319],[2.34402,48.87117]]],[[[2.346034,48.867973],[2.345477,48.867877],[2.345873,48.869128],[2.346565,48.868986],[2.347145,48.868327],[2.346034,48.867973]]],[[[2.350411,48.866529],[2.350952,48.866424],[2.350532,48.865736],[2.349069,48.86608],[2.349388,48.866723],[2.350411,48.866529]]],[[[2.346557,48.866405],[2.347087,48.866331],[2.346959,48.865919],[2.344616,48.866246],[2.344434,48.866625],[2.346557,48.866405]]],[[[2.348773,48.865306],[2.350227,48.865108],[2.350068,48.864373],[2.348471,48.864709],[2.348773,48.865306]]],[[[2.346231,48.869982],[2.345865,48.869309],[2.345196,48.869494],[2.345977,48.870843],[2.346606,48.87074],[2.346231,48.869982]]],[[[2.348795,48.865594],[2.348566,48.865394],[2.347106,48.865685],[2.34723,48.866305],[2.348937,48.865953],[2.348795,48.865594]]],[[[2.341782,48.868659],[2.340555,48.868918],[2.340868,48.869614],[2.342132,48.869372],[2.341782,48.868659]]],[[[2.348402,48.864619],[2.350016,48.864179],[2.348938,48.863981],[2.347731,48.864271],[2.347825,48.8647],[2.348402,48.864619]]],[[[2.342975,48.868212],[2.343634,48.867806],[2.341629,48.867664],[2.341935,48.868417],[2.342975,48.868212]]],[[[2.342654,48.865504],[2.341675,48.865875],[2.343589,48.866558],[2.343182,48.865762],[2.342654,48.865504]]],[[[2.343706,48.86677],[2.341614,48.865963],[2.341339,48.866278],[2.343723,48.867186],[2.343706,48.86677]]],[[[2.344492,48.865997],[2.344654,48.86557],[2.343896,48.865191],[2.343262,48.865364],[2.343515,48.865838],[2.344377,48.866243],[2.344492,48.865997]]],[[[2.343145,48.868665],[2.342015,48.868644],[2.342464,48.869642],[2.342771,48.869686],[2.343145,48.868665]]],[[[2.349019,48.865935],[2.350501,48.865673],[2.350276,48.865176],[2.348783,48.865399],[2.349019,48.865935]],[[2.350248,48.865523],[2.350317,48.865511],[2.350324,48.86553],[2.350263,48.865539],[2.350209,48.865548],[2.350091,48.865567],[2.349857,48.865608],[2.349739,48.865628],[2.349569,48.865655],[2.349459,48.865676],[2.349335,48.865696],[2.349262,48.865709],[2.349254,48.865684],[2.349453,48.865652],[2.349697,48.865611],[2.349775,48.8656],[2.349833,48.86559],[2.350022,48.865558],[2.350248,48.865523]]],[[[2.344217,48.868579],[2.345469,48.868239],[2.345351,48.867909],[2.343682,48.868245],[2.343464,48.86874],[2.344217,48.868579]]],[[[2.341435,48.86754],[2.340999,48.866468],[2.340296,48.866523],[2.340873,48.867634],[2.341435,48.86754]]],[[[2.347402,48.86557],[2.348541,48.865346],[2.348413,48.865005],[2.347383,48.865087],[2.347022,48.865198],[2.347096,48.865629],[2.347402,48.86557]]],[[[2.345716,48.867617],[2.346025,48.867524],[2.344249,48.866961],[2.344087,48.867328],[2.345716,48.867617]]],[[[2.351275,48.865116],[2.350858,48.864371],[2.350238,48.864347],[2.350432,48.865073],[2.351275,48.865116]]],[[[2.346919,48.865574],[2.344812,48.865825],[2.344663,48.866092],[2.346968,48.865809],[2.346919,48.865574]]],[[[2.342494,48.870092],[2.342248,48.869542],[2.340693,48.86986],[2.342494,48.870092]]],[[[2.351198,48.865818],[2.351577,48.865765],[2.351361,48.865266],[2.350473,48.865195],[2.350821,48.865905],[2.351198,48.865818]]],[[[2.347505,48.868231],[2.346522,48.867663],[2.345834,48.867783],[2.347505,48.868231]]],[[[2.344938,48.868661],[2.345542,48.868537],[2.345469,48.86829],[2.343321,48.869046],[2.344938,48.868661]]],[[[2.341486,48.867663],[2.340939,48.867755],[2.341401,48.868549],[2.341812,48.868459],[2.341486,48.867663]]],[[[2.351007,48.863902],[2.350775,48.863541],[2.350122,48.863715],[2.350155,48.863972],[2.350755,48.863884],[2.350201,48.864031],[2.351016,48.864216],[2.351007,48.863902]]],[[[2.344211,48.867445],[2.343812,48.868025],[2.345139,48.867742],[2.344211,48.867445]]],[[[2.341467,48.871591],[2.34084,48.870441],[2.340807,48.87142],[2.341467,48.871591]]],[[[2.347695,48.865002],[2.348341,48.864944],[2.348256,48.864733],[2.346876,48.864801],[2.346968,48.865084],[2.347695,48.865002]]],[[[2.339855,48.868634],[2.339482,48.867951],[2.339026,48.868187],[2.339539,48.868709],[2.339855,48.868634]]],[[[2.347365,48.864724],[2.347725,48.864708],[2.347547,48.864315],[2.346783,48.864518],[2.347365,48.864724]]],[[[2.339287,48.867586],[2.338639,48.866404],[2.339128,48.867756],[2.339431,48.867889],[2.339287,48.867586]]],[[[2.351739,48.865946],[2.35083,48.865923],[2.351039,48.866251],[2.351739,48.865946]]],[[[2.343968,48.866648],[2.344346,48.86633],[2.343626,48.866005],[2.343968,48.866648]]],[[[2.344755,48.865381],[2.344877,48.864956],[2.344176,48.865124],[2.344755,48.865381]]],[[[2.351755,48.865277],[2.351571,48.865267],[2.351546,48.865287],[2.351649,48.865471],[2.351719,48.865598],[2.351858,48.865848],[2.351929,48.865975],[2.352061,48.866212],[2.352119,48.866229],[2.352247,48.866202],[2.352273,48.866165],[2.352138,48.865921],[2.352068,48.865796],[2.351929,48.865547],[2.351928,48.865545],[2.351885,48.865468],[2.351871,48.865442],[2.351859,48.865421],[2.351858,48.865419],[2.351788,48.865294],[2.351755,48.865277]]],[[[2.341258,48.866247],[2.340701,48.865907],[2.340046,48.86607],[2.341258,48.866247]]],[[[2.347427,48.868676],[2.347585,48.868464],[2.347291,48.868374],[2.346816,48.868915],[2.347427,48.868676]]],[[[2.351332,48.864481],[2.351121,48.864531],[2.351653,48.865163],[2.351332,48.864481]]],[[[2.351568,48.86635],[2.351808,48.866069],[2.351053,48.866271],[2.351568,48.86635]]],[[[2.352602,48.866753],[2.352198,48.8664],[2.352532,48.867055],[2.352602,48.866753]]],[[[2.347255,48.867496],[2.346711,48.867619],[2.347305,48.86781],[2.347255,48.867496]]],[[[2.343431,48.868327],[2.343402,48.868308],[2.34311,48.868372],[2.3427,48.86846],[2.342705,48.868488],[2.34311,48.868516],[2.343313,48.86853],[2.343348,48.868513],[2.34335,48.868509],[2.34339,48.868419],[2.343431,48.868327]]],[[[2.340951,48.87033],[2.34112,48.870043],[2.340807,48.869995],[2.340951,48.87033]]],[[[2.341325,48.870281],[2.342149,48.870199],[2.34123,48.870055],[2.341325,48.870281]]],[[[2.340166,48.866236],[2.340142,48.866233],[2.340117,48.866253],[2.340125,48.866268],[2.340216,48.866436],[2.340224,48.86645],[2.340261,48.866463],[2.340283,48.866459],[2.340508,48.866419],[2.340528,48.866395],[2.340472,48.866269],[2.340166,48.866236]]],[[[2.340473,48.865868],[2.340476,48.865867],[2.340476,48.865869],[2.340653,48.865828],[2.340401,48.865679],[2.3404,48.86568],[2.340341,48.865749],[2.340301,48.865794],[2.340248,48.865858],[2.339946,48.865974],[2.339932,48.865981],[2.339943,48.86599],[2.34011,48.865951],[2.340196,48.865931],[2.340473,48.865868]]],[[[2.34994,48.863764],[2.349543,48.863881],[2.349942,48.863972],[2.34994,48.863764]]],[[[2.349412,48.86704],[2.34938,48.867029],[2.349361,48.867104],[2.349539,48.867511],[2.349624,48.867704],[2.349695,48.867729],[2.349708,48.867712],[2.349613,48.867497],[2.349412,48.86704]]],[[[2.346633,48.864557],[2.346598,48.864544],[2.34614,48.864653],[2.346153,48.864697],[2.346646,48.86469],[2.346669,48.864669],[2.346633,48.864557]]],[[[2.349875,48.867443],[2.34971,48.8671],[2.349641,48.866956],[2.349603,48.867001],[2.349658,48.867111],[2.349665,48.867126],[2.349664,48.867127],[2.349699,48.867206],[2.349701,48.867206],[2.34977,48.867363],[2.349768,48.867364],[2.34981,48.867458],[2.3499,48.867663],[2.349931,48.867674],[2.349877,48.867449],[2.349875,48.867445],[2.349874,48.867443],[2.349875,48.867443]]],[[[2.346221,48.863919],[2.346271,48.863919],[2.346272,48.863921],[2.346377,48.863918],[2.346356,48.863846],[2.346155,48.863854],[2.346095,48.863857],[2.346074,48.863858],[2.346071,48.863858],[2.345996,48.863861],[2.345993,48.863861],[2.345863,48.863866],[2.345821,48.863868],[2.345821,48.863933],[2.345824,48.863933],[2.345912,48.86393],[2.345998,48.863927],[2.346141,48.863922],[2.346165,48.863922],[2.346219,48.86392],[2.346221,48.863919]]],[[[2.347661,48.868252],[2.347667,48.868017],[2.34771,48.868419],[2.347917,48.868313],[2.347661,48.868252]]],[[[2.340398,48.869631],[2.340291,48.869435],[2.34027,48.86966],[2.340492,48.869877],[2.340521,48.869855],[2.340398,48.869631]]],[[[2.340698,48.870177],[2.340578,48.869964],[2.340549,48.870109],[2.340591,48.870188],[2.340629,48.870257],[2.34074,48.870362],[2.34078,48.870323],[2.340698,48.870177]]],[[[2.342525,48.869723],[2.342497,48.869716],[2.34251,48.869748],[2.342554,48.869847],[2.34258,48.869903],[2.342608,48.869967],[2.342651,48.869967],[2.342668,48.869925],[2.342689,48.869874],[2.342733,48.869768],[2.342525,48.869723]]],[[[2.347422,48.86785],[2.347641,48.867837],[2.347643,48.867837],[2.347645,48.867838],[2.347677,48.867786],[2.347675,48.867785],[2.347605,48.867769],[2.347539,48.86775],[2.347537,48.867749],[2.347537,48.867749],[2.347537,48.867749],[2.347432,48.867663],[2.347427,48.867722],[2.347425,48.867777],[2.347425,48.867779],[2.347422,48.867779],[2.347421,48.867846],[2.347421,48.867847],[2.347422,48.867848],[2.347422,48.867849],[2.347422,48.86785]]],[[[2.352222,48.866812],[2.352185,48.866797],[2.352122,48.866802],[2.352145,48.866839],[2.352193,48.866917],[2.352252,48.867014],[2.35226,48.867026],[2.352361,48.867111],[2.352377,48.867089],[2.352326,48.866996],[2.35227,48.866896],[2.352262,48.866891],[2.352173,48.866836],[2.352169,48.866833],[2.352228,48.86682],[2.352222,48.866812]]],[[[2.343056,48.86558],[2.343072,48.865573],[2.343073,48.865574],[2.343081,48.865569],[2.343077,48.86556],[2.343075,48.865561],[2.343067,48.865545],[2.343069,48.865545],[2.343064,48.865535],[2.343062,48.865535],[2.343052,48.865515],[2.343054,48.865515],[2.34305,48.865508],[2.343048,48.865508],[2.343038,48.865488],[2.343039,48.865488],[2.343035,48.86548],[2.343034,48.86548],[2.343024,48.86546],[2.343025,48.86546],[2.34302,48.86545],[2.343018,48.865451],[2.34301,48.865435],[2.343011,48.865435],[2.343007,48.865426],[2.34297,48.865414],[2.342957,48.865418],[2.342958,48.865419],[2.342934,48.865425],[2.342933,48.865424],[2.34292,48.865426],[2.34292,48.865427],[2.342881,48.865437],[2.34288,48.865436],[2.342871,48.865438],[2.342872,48.865439],[2.342839,48.865447],[2.342839,48.865446],[2.342828,48.865448],[2.342822,48.865475],[2.342831,48.865479],[2.342832,48.865479],[2.342859,48.865492],[2.342858,48.865492],[2.342866,48.865497],[2.342867,48.865496],[2.343005,48.865563],[2.343004,48.865564],[2.343017,48.865569],[2.343018,48.865569],[2.343038,48.865578],[2.343037,48.865579],[2.343049,48.865585],[2.343057,48.865581],[2.343056,48.86558]]],[[[2.340021,48.869023],[2.340018,48.869023],[2.340026,48.869186],[2.340219,48.869301],[2.340212,48.869288],[2.340142,48.869159],[2.340141,48.869158],[2.34009,48.869064],[2.340082,48.869054],[2.340079,48.869051],[2.340072,48.869044],[2.340063,48.869036],[2.340056,48.869033],[2.340048,48.869029],[2.340041,48.869027],[2.340031,48.869025],[2.340021,48.869023]]],[[[2.347545,48.86755],[2.347532,48.867413],[2.347463,48.867428],[2.347438,48.867453],[2.347453,48.867531],[2.347456,48.867531],[2.347456,48.867534],[2.347442,48.867613],[2.347554,48.867643],[2.347545,48.86755]]],[[[2.352109,48.866606],[2.352083,48.866562],[2.352053,48.866568],[2.352127,48.866697],[2.35215,48.866676],[2.352109,48.866606]]],[[[2.352028,48.866463],[2.351984,48.866449],[2.352033,48.866534],[2.352065,48.866528],[2.352064,48.866527],[2.352028,48.866463]]]],"type":"MultiPolygon"},"properties":{"id_projet":"COLLEGES (année scolaire 2020/2021)","libelle":"CESAR FRANCK","annee_scol":"2020-2021","zone_commune":0,"etiquette":"Secteur du collège CESAR FRANCK","lib_etab_1":"CESAR FRANCK","lib_etab_2":null,"lib_etab_3":null,"lib_etab_4":null,"adr_etab_1":"5 RUE DE LA JUSSIENNE","adr_etab_2":null,"adr_etab_3":null,"adr_etab_4":null,"st_area_shape":356767.39040455536,"st_perimeter_shape":21156.275757338844,"type_etabl":"Collège","geo_point_2d":{"lon":2.3449955460211234,"lat":48.86751630555303}}},{"type":"Feature","geometry":{"coordinates":[[[[2.340707,48.868688],[2.341184,48.868525],[2.339928,48.866227],[2.338751,48.866359],[2.340002,48.868642],[2.340707,48.868688]]],[[[2.346221,48.863919],[2.346271,48.863919],[2.346272,48.863921],[2.346377,48.863918],[2.346356,48.863846],[2.346155,48.863854],[2.346095,48.863857],[2.346074,48.863858],[2.346071,48.863858],[2.345996,48.863861],[2.345993,48.863861],[2.345863,48.863866],[2.345821,48.863868],[2.345821,48.863933],[2.345824,48.863933],[2.345912,48.86393],[2.345998,48.863927],[2.346141,48.863922],[2.346165,48.863922],[2.346219,48.86392],[2.346221,48.863919]]],[[[2.34994,48.863764],[2.349543,48.863881],[2.349942,48.863972],[2.34994,48.863764]]],[[[2.351007,48.863902],[2.350775,48.863541],[2.350122,48.863715],[2.350155,48.863972],[2.350755,48.863884],[2.350201,48.864031],[2.351016,48.864216],[2.351007,48.863902]]],[[[2.348402,48.864619],[2.350016,48.864179],[2.348938,48.863981],[2.347731,48.864271],[2.347825,48.8647],[2.348402,48.864619]]],[[[2.346633,48.864557],[2.346598,48.864544],[2.34614,48.864653],[2.346153,48.864697],[2.346646,48.86469],[2.346669,48.864669],[2.346633,48.864557]]],[[[2.347365,48.864724],[2.347725,48.864708],[2.347547,48.864315],[2.346783,48.864518],[2.347365,48.864724]]],[[[2.347695,48.865002],[2.348341,48.864944],[2.348256,48.864733],[2.346876,48.864801],[2.346968,48.865084],[2.347695,48.865002]]],[[[2.351275,48.865116],[2.350858,48.864371],[2.350238,48.864347],[2.350432,48.865073],[2.351275,48.865116]]],[[[2.351332,48.864481],[2.351121,48.864531],[2.351653,48.865163],[2.351332,48.864481]]],[[[2.348773,48.865306],[2.350227,48.865108],[2.350068,48.864373],[2.348471,48.864709],[2.348773,48.865306]]],[[[2.344755,48.865381],[2.344877,48.864956],[2.344176,48.865124],[2.344755,48.865381]]],[[[2.343056,48.86558],[2.343072,48.865573],[2.343073,48.865574],[2.343081,48.865569],[2.343077,48.86556],[2.343075,48.865561],[2.343067,48.865545],[2.343069,48.865545],[2.343064,48.865535],[2.343062,48.865535],[2.343052,48.865515],[2.343054,48.865515],[2.34305,48.865508],[2.343048,48.865508],[2.343038,48.865488],[2.343039,48.865488],[2.343035,48.86548],[2.343034,48.86548],[2.343024,48.86546],[2.343025,48.86546],[2.34302,48.86545],[2.343018,48.865451],[2.34301,48.865435],[2.343011,48.865435],[2.343007,48.865426],[2.34297,48.865414],[2.342957,48.865418],[2.342958,48.865419],[2.342934,48.865425],[2.342933,48.865424],[2.34292,48.865426],[2.34292,48.865427],[2.342881,48.865437],[2.34288,48.865436],[2.342871,48.865438],[2.342872,48.865439],[2.342839,48.865447],[2.342839,48.865446],[2.342828,48.865448],[2.342822,48.865475],[2.342831,48.865479],[2.342832,48.865479],[2.342859,48.865492],[2.342858,48.865492],[2.342866,48.865497],[2.342867,48.865496],[2.343005,48.865563],[2.343004,48.865564],[2.343017,48.865569],[2.343018,48.865569],[2.343038,48.865578],[2.343037,48.865579],[2.343049,48.865585],[2.343057,48.865581],[2.343056,48.86558]]],[[[2.347402,48.86557],[2.348541,48.865346],[2.348413,48.865005],[2.347383,48.865087],[2.347022,48.865198],[2.347096,48.865629],[2.347402,48.86557]]],[[[2.346727,48.864863],[2.345194,48.864881],[2.344814,48.865732],[2.346901,48.865503],[2.346727,48.864863]]],[[[2.351198,48.865818],[2.351577,48.865765],[2.351361,48.865266],[2.350473,48.865195],[2.350821,48.865905],[2.351198,48.865818]]],[[[2.349019,48.865935],[2.350501,48.865673],[2.350276,48.865176],[2.348783,48.865399],[2.349019,48.865935]],[[2.350248,48.865523],[2.350317,48.865511],[2.350324,48.86553],[2.350263,48.865539],[2.350209,48.865548],[2.350091,48.865567],[2.349857,48.865608],[2.349739,48.865628],[2.349569,48.865655],[2.349459,48.865676],[2.349335,48.865696],[2.349262,48.865709],[2.349254,48.865684],[2.349453,48.865652],[2.349697,48.865611],[2.349775,48.8656],[2.349833,48.86559],[2.350022,48.865558],[2.350248,48.865523]]],[[[2.340473,48.865868],[2.340476,48.865867],[2.340476,48.865869],[2.340653,48.865828],[2.340401,48.865679],[2.3404,48.86568],[2.340341,48.865749],[2.340301,48.865794],[2.340248,48.865858],[2.339946,48.865974],[2.339932,48.865981],[2.339943,48.86599],[2.34011,48.865951],[2.340196,48.865931],[2.340473,48.865868]]],[[[2.346919,48.865574],[2.344812,48.865825],[2.344663,48.866092],[2.346968,48.865809],[2.346919,48.865574]]],[[[2.351755,48.865277],[2.351571,48.865267],[2.351546,48.865287],[2.351649,48.865471],[2.351719,48.865598],[2.351858,48.865848],[2.351929,48.865975],[2.352061,48.866212],[2.352119,48.866229],[2.352247,48.866202],[2.352273,48.866165],[2.352138,48.865921],[2.352068,48.865796],[2.351929,48.865547],[2.351928,48.865545],[2.351885,48.865468],[2.351871,48.865442],[2.351859,48.865421],[2.351858,48.865419],[2.351788,48.865294],[2.351755,48.865277]]],[[[2.351739,48.865946],[2.35083,48.865923],[2.351039,48.866251],[2.351739,48.865946]]],[[[2.344492,48.865997],[2.344654,48.86557],[2.343896,48.865191],[2.343262,48.865364],[2.343515,48.865838],[2.344377,48.866243],[2.344492,48.865997]]],[[[2.341258,48.866247],[2.340701,48.865907],[2.340046,48.86607],[2.341258,48.866247]]],[[[2.348795,48.865594],[2.348566,48.865394],[2.347106,48.865685],[2.34723,48.866305],[2.348937,48.865953],[2.348795,48.865594]]],[[[2.351568,48.86635],[2.351808,48.866069],[2.351053,48.866271],[2.351568,48.86635]]],[[[2.340166,48.866236],[2.340142,48.866233],[2.340117,48.866253],[2.340125,48.866268],[2.340216,48.866436],[2.340224,48.86645],[2.340261,48.866463],[2.340283,48.866459],[2.340508,48.866419],[2.340528,48.866395],[2.340472,48.866269],[2.340166,48.866236]]],[[[2.352028,48.866463],[2.351984,48.866449],[2.352033,48.866534],[2.352065,48.866528],[2.352064,48.866527],[2.352028,48.866463]]],[[[2.342654,48.865504],[2.341675,48.865875],[2.343589,48.866558],[2.343182,48.865762],[2.342654,48.865504]]],[[[2.346557,48.866405],[2.347087,48.866331],[2.346959,48.865919],[2.344616,48.866246],[2.344434,48.866625],[2.346557,48.866405]]],[[[2.343968,48.866648],[2.344346,48.86633],[2.343626,48.866005],[2.343968,48.866648]]],[[[2.352109,48.866606],[2.352083,48.866562],[2.352053,48.866568],[2.352127,48.866697],[2.35215,48.866676],[2.352109,48.866606]]],[[[2.350411,48.866529],[2.350952,48.866424],[2.350532,48.865736],[2.349069,48.86608],[2.349388,48.866723],[2.350411,48.866529]]],[[[2.352602,48.866753],[2.352198,48.8664],[2.352532,48.867055],[2.352602,48.866753]]],[[[2.352222,48.866812],[2.352185,48.866797],[2.352122,48.866802],[2.352145,48.866839],[2.352193,48.866917],[2.352252,48.867014],[2.35226,48.867026],[2.352361,48.867111],[2.352377,48.867089],[2.352326,48.866996],[2.35227,48.866896],[2.352262,48.866891],[2.352173,48.866836],[2.352169,48.866833],[2.352228,48.86682],[2.352222,48.866812]]],[[[2.348615,48.866862],[2.349327,48.866732],[2.348962,48.865996],[2.347236,48.866353],[2.347378,48.867129],[2.348615,48.866862]]],[[[2.343706,48.86677],[2.341614,48.865963],[2.341339,48.866278],[2.343723,48.867186],[2.343706,48.86677]]],[[[2.346885,48.867364],[2.347216,48.867275],[2.347086,48.866398],[2.344332,48.866851],[2.34627,48.86748],[2.346885,48.867364]]],[[[2.347545,48.86755],[2.347532,48.867413],[2.347463,48.867428],[2.347438,48.867453],[2.347453,48.867531],[2.347456,48.867531],[2.347456,48.867534],[2.347442,48.867613],[2.347554,48.867643],[2.347545,48.86755]]],[[[2.349875,48.867443],[2.34971,48.8671],[2.349641,48.866956],[2.349603,48.867001],[2.349658,48.867111],[2.349665,48.867126],[2.349664,48.867127],[2.349699,48.867206],[2.349701,48.867206],[2.34977,48.867363],[2.349768,48.867364],[2.34981,48.867458],[2.3499,48.867663],[2.349931,48.867674],[2.349877,48.867449],[2.349875,48.867445],[2.349874,48.867443],[2.349875,48.867443]]],[[[2.341435,48.86754],[2.340999,48.866468],[2.340296,48.866523],[2.340873,48.867634],[2.341435,48.86754]]],[[[2.345716,48.867617],[2.346025,48.867524],[2.344249,48.866961],[2.344087,48.867328],[2.345716,48.867617]]],[[[2.349412,48.86704],[2.34938,48.867029],[2.349361,48.867104],[2.349539,48.867511],[2.349624,48.867704],[2.349695,48.867729],[2.349708,48.867712],[2.349613,48.867497],[2.349412,48.86704]]],[[[2.343731,48.867696],[2.343591,48.867258],[2.341071,48.866408],[2.341617,48.867551],[2.343731,48.867696]]],[[[2.347255,48.867496],[2.346711,48.867619],[2.347305,48.86781],[2.347255,48.867496]]],[[[2.347422,48.86785],[2.347641,48.867837],[2.347643,48.867837],[2.347645,48.867838],[2.347677,48.867786],[2.347675,48.867785],[2.347605,48.867769],[2.347539,48.86775],[2.347537,48.867749],[2.347537,48.867749],[2.347537,48.867749],[2.347432,48.867663],[2.347427,48.867722],[2.347425,48.867777],[2.347425,48.867779],[2.347422,48.867779],[2.347421,48.867846],[2.347421,48.867847],[2.347422,48.867848],[2.347422,48.867849],[2.347422,48.86785]]],[[[2.339287,48.867586],[2.338639,48.866404],[2.339128,48.867756],[2.339431,48.867889],[2.339287,48.867586]]],[[[2.344211,48.867445],[2.343812,48.868025],[2.345139,48.867742],[2.344211,48.867445]]],[[[2.347505,48.868231],[2.346522,48.867663],[2.345834,48.867783],[2.347505,48.868231]]],[[[2.347661,48.868252],[2.347667,48.868017],[2.34771,48.868419],[2.347917,48.868313],[2.347661,48.868252]]],[[[2.342975,48.868212],[2.343634,48.867806],[2.341629,48.867664],[2.341935,48.868417],[2.342975,48.868212]]],[[[2.343431,48.868327],[2.343402,48.868308],[2.34311,48.868372],[2.3427,48.86846],[2.342705,48.868488],[2.34311,48.868516],[2.343313,48.86853],[2.343348,48.868513],[2.34335,48.868509],[2.34339,48.868419],[2.343431,48.868327]]],[[[2.341486,48.867663],[2.340939,48.867755],[2.341401,48.868549],[2.341812,48.868459],[2.341486,48.867663]]],[[[2.344217,48.868579],[2.345469,48.868239],[2.345351,48.867909],[2.343682,48.868245],[2.343464,48.86874],[2.344217,48.868579]]],[[[2.339855,48.868634],[2.339482,48.867951],[2.339026,48.868187],[2.339539,48.868709],[2.339855,48.868634]]],[[[2.347427,48.868676],[2.347585,48.868464],[2.347291,48.868374],[2.346816,48.868915],[2.347427,48.868676]]],[[[2.344938,48.868661],[2.345542,48.868537],[2.345469,48.86829],[2.343321,48.869046],[2.344938,48.868661]]],[[[2.346034,48.867973],[2.345477,48.867877],[2.345873,48.869128],[2.346565,48.868986],[2.347145,48.868327],[2.346034,48.867973]]],[[[2.340021,48.869023],[2.340018,48.869023],[2.340026,48.869186],[2.340219,48.869301],[2.340212,48.869288],[2.340142,48.869159],[2.340141,48.869158],[2.34009,48.869064],[2.340082,48.869054],[2.340079,48.869051],[2.340072,48.869044],[2.340063,48.869036],[2.340056,48.869033],[2.340048,48.869029],[2.340041,48.869027],[2.340031,48.869025],[2.340021,48.869023]]],[[[2.341782,48.868659],[2.340555,48.868918],[2.340868,48.869614],[2.342132,48.869372],[2.341782,48.868659]]],[[[2.343145,48.868665],[2.342015,48.868644],[2.342464,48.869642],[2.342771,48.869686],[2.343145,48.868665]]],[[[2.345767,48.869168],[2.345567,48.8686],[2.345141,48.86867],[2.343269,48.869162],[2.342966,48.869836],[2.345767,48.869168]]],[[[2.340398,48.869631],[2.340291,48.869435],[2.34027,48.86966],[2.340492,48.869877],[2.340521,48.869855],[2.340398,48.869631]]],[[[2.342525,48.869723],[2.342497,48.869716],[2.34251,48.869748],[2.342554,48.869847],[2.34258,48.869903],[2.342608,48.869967],[2.342651,48.869967],[2.342668,48.869925],[2.342689,48.869874],[2.342733,48.869768],[2.342525,48.869723]]],[[[2.342494,48.870092],[2.342248,48.869542],[2.340693,48.86986],[2.342494,48.870092]]],[[[2.341325,48.870281],[2.342149,48.870199],[2.34123,48.870055],[2.341325,48.870281]]],[[[2.340951,48.87033],[2.34112,48.870043],[2.340807,48.869995],[2.340951,48.87033]]],[[[2.340698,48.870177],[2.340578,48.869964],[2.340549,48.870109],[2.340591,48.870188],[2.340629,48.870257],[2.34074,48.870362],[2.34078,48.870323],[2.340698,48.870177]]],[[[2.346785,48.870715],[2.347809,48.870522],[2.346926,48.869504],[2.347398,48.869447],[2.34705,48.869197],[2.347688,48.868846],[2.345955,48.869213],[2.346785,48.870715]]],[[[2.34536,48.870027],[2.345009,48.869481],[2.342865,48.869954],[2.342803,48.870316],[2.342978,48.870783],[2.345496,48.870321],[2.34536,48.870027]]],[[[2.346231,48.869982],[2.345865,48.869309],[2.345196,48.869494],[2.345977,48.870843],[2.346606,48.87074],[2.346231,48.869982]]],[[[2.34402,48.87117],[2.345827,48.870838],[2.345556,48.870421],[2.344631,48.87059],[2.343009,48.870889],[2.343113,48.871319],[2.34402,48.87117]]],[[[2.342735,48.871385],[2.342936,48.871362],[2.342487,48.870319],[2.341061,48.870477],[2.341624,48.871564],[2.342735,48.871385]]],[[[2.341467,48.871591],[2.34084,48.870441],[2.340807,48.87142],[2.341467,48.871591]]]],"type":"MultiPolygon"},"properties":{"id_projet":"COLLEGES (année scolaire 2023/2024)","libelle":"CESAR FRANCK","annee_scol":"2023-2024","zone_commune":0,"etiquette":"Secteur du collège CESAR FRANCK","lib_etab_1":"CESAR FRANCK","lib_etab_2":null,"lib_etab_3":null,"lib_etab_4":null,"adr_etab_1":"5 RUE DE LA JUSSIENNE","adr_etab_2":null,"adr_etab_3":null,"adr_etab_4":null,"st_area_shape":356767.39040455525,"st_perimeter_shape":21156.27575733884,"type_etabl":"Collège","geo_point_2d":{"lon":2.3449955460211216,"lat":48.867516305552925}}},{"type":"Feature","geometry":{"coordinates":[[[[2.340105,48.868762],[2.340561,48.86834],[2.341184,48.868525],[2.339908,48.86619],[2.338751,48.866359],[2.340105,48.868762]]],[[[2.34994,48.863764],[2.349543,48.863881],[2.349942,48.863972],[2.34994,48.863764]]],[[[2.345213,48.863648],[2.345564,48.863785],[2.345882,48.863197],[2.344399,48.863344],[2.345392,48.864077],[2.345542,48.863828],[2.345213,48.863648]]],[[[2.347856,48.863688],[2.347503,48.863633],[2.347681,48.864093],[2.348535,48.863888],[2.347856,48.863688]]],[[[2.346568,48.863397],[2.346623,48.864103],[2.347469,48.863963],[2.347336,48.863576],[2.346568,48.863397]]],[[[2.351007,48.863902],[2.350775,48.863541],[2.350122,48.863715],[2.350155,48.863972],[2.350755,48.863884],[2.350201,48.864031],[2.351016,48.864216],[2.351007,48.863902]]],[[[2.347518,48.864113],[2.347509,48.864089],[2.347474,48.864073],[2.347239,48.864093],[2.347079,48.864108],[2.347078,48.864104],[2.347075,48.864105],[2.347075,48.864108],[2.347072,48.864108],[2.347069,48.864103],[2.347014,48.864109],[2.346958,48.864115],[2.346653,48.864146],[2.346652,48.864147],[2.346656,48.864158],[2.34667,48.864199],[2.346707,48.864305],[2.346743,48.864318],[2.346958,48.864266],[2.346959,48.864266],[2.347127,48.864226],[2.347277,48.86419],[2.347496,48.864137],[2.347518,48.864113]]],[[[2.346272,48.863399],[2.345323,48.864615],[2.346564,48.864342],[2.346272,48.863399]]],[[[2.348402,48.864619],[2.350016,48.864179],[2.348938,48.863981],[2.347731,48.864271],[2.347825,48.8647],[2.348402,48.864619]]],[[[2.346633,48.864557],[2.346598,48.864544],[2.34614,48.864653],[2.346153,48.864697],[2.346646,48.86469],[2.346669,48.864669],[2.346633,48.864557]]],[[[2.345136,48.864558],[2.345362,48.864132],[2.343992,48.863404],[2.343001,48.863691],[2.344977,48.864724],[2.345136,48.864558]]],[[[2.347365,48.864724],[2.347725,48.864708],[2.347547,48.864315],[2.346783,48.864518],[2.347365,48.864724]]],[[[2.347695,48.865002],[2.348341,48.864944],[2.348256,48.864733],[2.346876,48.864801],[2.346968,48.865084],[2.347695,48.865002]]],[[[2.351275,48.865116],[2.350858,48.864371],[2.350238,48.864347],[2.350432,48.865073],[2.351275,48.865116]]],[[[2.351332,48.864481],[2.351121,48.864531],[2.351653,48.865163],[2.351332,48.864481]]],[[[2.343212,48.865168],[2.344733,48.86477],[2.342779,48.863791],[2.342526,48.86394],[2.343212,48.865168]]],[[[2.348773,48.865306],[2.350227,48.865108],[2.350068,48.864373],[2.348471,48.864709],[2.348773,48.865306]]],[[[2.344755,48.865381],[2.344877,48.864956],[2.344176,48.865124],[2.344755,48.865381]]],[[[2.343056,48.86558],[2.343072,48.865573],[2.343073,48.865574],[2.343081,48.865569],[2.343077,48.86556],[2.343075,48.865561],[2.343067,48.865545],[2.343069,48.865545],[2.343064,48.865535],[2.343062,48.865535],[2.343052,48.865515],[2.343054,48.865515],[2.34305,48.865508],[2.343048,48.865508],[2.343038,48.865488],[2.343039,48.865488],[2.343035,48.86548],[2.343034,48.86548],[2.343024,48.86546],[2.343025,48.86546],[2.34302,48.86545],[2.343018,48.865451],[2.34301,48.865435],[2.343011,48.865435],[2.343007,48.865426],[2.34297,48.865414],[2.342957,48.865418],[2.342958,48.865419],[2.342934,48.865425],[2.342933,48.865424],[2.34292,48.865426],[2.34292,48.865427],[2.342881,48.865437],[2.34288,48.865436],[2.342871,48.865438],[2.342872,48.865439],[2.342839,48.865447],[2.342839,48.865446],[2.342828,48.865448],[2.342822,48.865475],[2.342831,48.865479],[2.342832,48.865479],[2.342859,48.865492],[2.342858,48.865492],[2.342866,48.865497],[2.342867,48.865496],[2.343005,48.865563],[2.343004,48.865564],[2.343017,48.865569],[2.343018,48.865569],[2.343038,48.865578],[2.343037,48.865579],[2.343049,48.865585],[2.343057,48.865581],[2.343056,48.86558]]],[[[2.347402,48.86557],[2.348541,48.865346],[2.348413,48.865005],[2.347383,48.865087],[2.347022,48.865198],[2.347096,48.865629],[2.347402,48.86557]]],[[[2.346727,48.864863],[2.345194,48.864881],[2.344814,48.865732],[2.346901,48.865503],[2.346727,48.864863]]],[[[2.351198,48.865818],[2.351577,48.865765],[2.351361,48.865266],[2.350473,48.865195],[2.350821,48.865905],[2.351198,48.865818]]],[[[2.349019,48.865935],[2.350501,48.865673],[2.350276,48.865176],[2.348783,48.865399],[2.349019,48.865935]],[[2.350248,48.865523],[2.350317,48.865511],[2.350324,48.86553],[2.350263,48.865539],[2.350209,48.865548],[2.350091,48.865567],[2.349857,48.865608],[2.349739,48.865628],[2.349569,48.865655],[2.349459,48.865676],[2.349335,48.865696],[2.349262,48.865709],[2.349254,48.865684],[2.349453,48.865652],[2.349697,48.865611],[2.349775,48.8656],[2.349833,48.86559],[2.350022,48.865558],[2.350248,48.865523]]],[[[2.346919,48.865574],[2.344812,48.865825],[2.344663,48.866092],[2.346968,48.865809],[2.346919,48.865574]]],[[[2.351755,48.865277],[2.351571,48.865267],[2.351546,48.865287],[2.351649,48.865471],[2.351719,48.865598],[2.351858,48.865848],[2.351929,48.865975],[2.352061,48.866212],[2.352119,48.866229],[2.352247,48.866202],[2.352273,48.866165],[2.352138,48.865921],[2.352068,48.865796],[2.351929,48.865547],[2.351928,48.865545],[2.351885,48.865468],[2.351871,48.865442],[2.351859,48.865421],[2.351858,48.865419],[2.351788,48.865294],[2.351755,48.865277]]],[[[2.351739,48.865946],[2.35083,48.865923],[2.351039,48.866251],[2.351739,48.865946]]],[[[2.344492,48.865997],[2.344654,48.86557],[2.343896,48.865191],[2.343262,48.865364],[2.343515,48.865838],[2.344377,48.866243],[2.344492,48.865997]]],[[[2.341258,48.866247],[2.340701,48.865907],[2.340046,48.86607],[2.341258,48.866247]]],[[[2.348795,48.865594],[2.348566,48.865394],[2.347106,48.865685],[2.34723,48.866305],[2.348937,48.865953],[2.348795,48.865594]]],[[[2.351568,48.86635],[2.351808,48.866069],[2.351053,48.866271],[2.351568,48.86635]]],[[[2.340166,48.866236],[2.340142,48.866233],[2.340117,48.866253],[2.340125,48.866268],[2.340216,48.866436],[2.340224,48.86645],[2.340261,48.866463],[2.340283,48.866459],[2.340508,48.866419],[2.340528,48.866395],[2.340472,48.866269],[2.340166,48.866236]]],[[[2.342654,48.865504],[2.341675,48.865875],[2.343589,48.866558],[2.343182,48.865762],[2.342654,48.865504]]],[[[2.346557,48.866405],[2.347087,48.866331],[2.346959,48.865919],[2.344616,48.866246],[2.344434,48.866625],[2.346557,48.866405]]],[[[2.343968,48.866648],[2.344346,48.86633],[2.343626,48.866005],[2.343968,48.866648]]],[[[2.350411,48.866529],[2.350952,48.866424],[2.350532,48.865736],[2.349069,48.86608],[2.349388,48.866723],[2.350411,48.866529]]],[[[2.348615,48.866862],[2.349327,48.866732],[2.348962,48.865996],[2.347236,48.866353],[2.347378,48.867129],[2.348615,48.866862]]],[[[2.343706,48.86677],[2.341614,48.865963],[2.341339,48.866278],[2.343723,48.867186],[2.343706,48.86677]]],[[[2.346885,48.867364],[2.347216,48.867275],[2.347086,48.866398],[2.344332,48.866851],[2.34627,48.86748],[2.346885,48.867364]]],[[[2.347545,48.86755],[2.347463,48.867428],[2.347438,48.867453],[2.347453,48.867531],[2.347456,48.867531],[2.347456,48.867534],[2.347442,48.867613],[2.347545,48.86755]]],[[[2.341435,48.86754],[2.340999,48.866468],[2.340296,48.866523],[2.340873,48.867634],[2.341435,48.86754]]],[[[2.345716,48.867617],[2.346025,48.867524],[2.344249,48.866961],[2.344087,48.867328],[2.345716,48.867617]]],[[[2.343731,48.867696],[2.343591,48.867258],[2.341071,48.866408],[2.341617,48.867551],[2.343731,48.867696]]],[[[2.347255,48.867496],[2.346711,48.867619],[2.347305,48.86781],[2.347255,48.867496]]],[[[2.347677,48.867786],[2.347675,48.867785],[2.347643,48.867837],[2.347643,48.867837],[2.347645,48.867838],[2.347677,48.867786]]],[[[2.347537,48.867749],[2.347432,48.867663],[2.347427,48.867722],[2.347425,48.867777],[2.347425,48.867779],[2.347422,48.867779],[2.347421,48.867846],[2.347421,48.867847],[2.347422,48.867848],[2.347422,48.867849],[2.347422,48.86785],[2.347485,48.867846],[2.34751,48.867802],[2.347539,48.86775],[2.347539,48.86775],[2.347537,48.867749],[2.347537,48.867749],[2.347537,48.867749]]],[[[2.339287,48.867586],[2.338639,48.866404],[2.339128,48.867756],[2.339431,48.867889],[2.339287,48.867586]]],[[[2.344211,48.867445],[2.343812,48.868025],[2.345139,48.867742],[2.344211,48.867445]]],[[[2.347505,48.868231],[2.346522,48.867663],[2.345834,48.867783],[2.347505,48.868231]]],[[[2.347661,48.868252],[2.347667,48.868017],[2.347584,48.868138],[2.347571,48.868146],[2.34762,48.868243],[2.347684,48.868369],[2.34771,48.868419],[2.347773,48.86839],[2.347758,48.868355],[2.34772,48.868267],[2.347663,48.868254],[2.347664,48.868253],[2.347661,48.868252]]],[[[2.342975,48.868212],[2.343634,48.867806],[2.341629,48.867664],[2.341935,48.868417],[2.342975,48.868212]]],[[[2.343431,48.868327],[2.343402,48.868308],[2.34311,48.868372],[2.3427,48.86846],[2.342705,48.868488],[2.34311,48.868516],[2.343313,48.86853],[2.343348,48.868513],[2.34335,48.868509],[2.34339,48.868419],[2.343431,48.868327]]],[[[2.341364,48.868536],[2.341812,48.868459],[2.341486,48.867663],[2.340958,48.867731],[2.341364,48.868536]]],[[[2.344217,48.868579],[2.345469,48.868239],[2.345351,48.867909],[2.343682,48.868245],[2.343464,48.86874],[2.344217,48.868579]]],[[[2.339855,48.868634],[2.339482,48.867951],[2.339026,48.868187],[2.339539,48.868709],[2.339855,48.868634]]],[[[2.347427,48.868676],[2.347585,48.868464],[2.347291,48.868374],[2.346816,48.868915],[2.347427,48.868676]]],[[[2.344938,48.868661],[2.345542,48.868537],[2.345469,48.86829],[2.343321,48.869046],[2.344938,48.868661]]],[[[2.346034,48.867973],[2.345477,48.867877],[2.345873,48.869128],[2.346565,48.868986],[2.347145,48.868327],[2.346034,48.867973]]],[[[2.343145,48.868665],[2.342033,48.868622],[2.342618,48.868822],[2.342464,48.869642],[2.342771,48.869686],[2.343145,48.868665]]],[[[2.345767,48.869168],[2.345567,48.8686],[2.345141,48.86867],[2.343269,48.869162],[2.342966,48.869836],[2.345767,48.869168]]],[[[2.342733,48.869768],[2.342497,48.869716],[2.342629,48.869967],[2.342733,48.869768]]],[[[2.346785,48.870715],[2.347809,48.870522],[2.346926,48.869504],[2.347398,48.869447],[2.34705,48.869197],[2.347688,48.868846],[2.345955,48.869213],[2.346785,48.870715]]],[[[2.34536,48.870027],[2.345009,48.869481],[2.342865,48.869954],[2.342803,48.870316],[2.342978,48.870783],[2.345496,48.870321],[2.34536,48.870027]]],[[[2.346231,48.869982],[2.345865,48.869309],[2.345196,48.869494],[2.345977,48.870843],[2.346606,48.87074],[2.346231,48.869982]]],[[[2.34402,48.87117],[2.345827,48.870838],[2.345556,48.870421],[2.344631,48.87059],[2.343009,48.870889],[2.343113,48.871319],[2.34402,48.87117]]]],"type":"MultiPolygon"},"properties":{"id_projet":"COLLEGES (année scolaire 2025/2026)","libelle":"CESAR FRANCK","annee_scol":"2025-2026","zone_commune":0,"etiquette":"Secteur du collège CESAR FRANCK","lib_etab_1":"CESAR FRANCK","lib_etab_2":null,"lib_etab_3":null,"lib_etab_4":null,"adr_etab_1":"5 RUE DE LA JUSSIENNE","adr_etab_2":null,"adr_etab_3":null,"adr_etab_4":null,"st_area_shape":362347.80430186266,"st_perimeter_shape":20610.485872955032,"type_etabl":"Collège","geo_point_2d":{"lon":2.3452732791114226,"lat":48.86686345651289}}},{"type":"Feature","geometry":{"coordinates":[[[[2.340707,48.868688],[2.341184,48.868525],[2.339928,48.866227],[2.338751,48.866359],[2.340002,48.868642],[2.340707,48.868688]]],[[[2.34536,48.870027],[2.345009,48.869481],[2.342865,48.869954],[2.342803,48.870316],[2.342978,48.870783],[2.345496,48.870321],[2.34536,48.870027]]],[[[2.343731,48.867696],[2.343591,48.867258],[2.341071,48.866408],[2.341617,48.867551],[2.343731,48.867696]]],[[[2.346885,48.867364],[2.347216,48.867275],[2.347086,48.866398],[2.344332,48.866851],[2.34627,48.86748],[2.346885,48.867364]]],[[[2.346785,48.870715],[2.347809,48.870522],[2.346926,48.869504],[2.347398,48.869447],[2.34705,48.869197],[2.347688,48.868846],[2.345955,48.869213],[2.346785,48.870715]]],[[[2.345767,48.869168],[2.345567,48.8686],[2.345141,48.86867],[2.343269,48.869162],[2.342966,48.869836],[2.345767,48.869168]]],[[[2.342735,48.871385],[2.342936,48.871362],[2.342487,48.870319],[2.341061,48.870477],[2.341624,48.871564],[2.342735,48.871385]]],[[[2.348615,48.866862],[2.349327,48.866732],[2.348962,48.865996],[2.347236,48.866353],[2.347378,48.867129],[2.348615,48.866862]]],[[[2.346727,48.864863],[2.345194,48.864881],[2.344814,48.865732],[2.346901,48.865503],[2.346727,48.864863]]],[[[2.34402,48.87117],[2.345827,48.870838],[2.345556,48.870421],[2.344631,48.87059],[2.343009,48.870889],[2.343113,48.871319],[2.34402,48.87117]]],[[[2.346034,48.867973],[2.345477,48.867877],[2.345873,48.869128],[2.346565,48.868986],[2.347145,48.868327],[2.346034,48.867973]]],[[[2.350411,48.866529],[2.350952,48.866424],[2.350532,48.865736],[2.349069,48.86608],[2.349388,48.866723],[2.350411,48.866529]]],[[[2.346557,48.866405],[2.347087,48.866331],[2.346959,48.865919],[2.344616,48.866246],[2.344434,48.866625],[2.346557,48.866405]]],[[[2.348773,48.865306],[2.350227,48.865108],[2.350068,48.864373],[2.348471,48.864709],[2.348773,48.865306]]],[[[2.346231,48.869982],[2.345865,48.869309],[2.345196,48.869494],[2.345977,48.870843],[2.346606,48.87074],[2.346231,48.869982]]],[[[2.348795,48.865594],[2.348566,48.865394],[2.347106,48.865685],[2.34723,48.866305],[2.348937,48.865953],[2.348795,48.865594]]],[[[2.341782,48.868659],[2.340555,48.868918],[2.340868,48.869614],[2.342132,48.869372],[2.341782,48.868659]]],[[[2.348402,48.864619],[2.350016,48.864179],[2.348938,48.863981],[2.347731,48.864271],[2.347825,48.8647],[2.348402,48.864619]]],[[[2.342975,48.868212],[2.343634,48.867806],[2.341629,48.867664],[2.341935,48.868417],[2.342975,48.868212]]],[[[2.342654,48.865504],[2.341675,48.865875],[2.343589,48.866558],[2.343182,48.865762],[2.342654,48.865504]]],[[[2.343706,48.86677],[2.341614,48.865963],[2.341339,48.866278],[2.343723,48.867186],[2.343706,48.86677]]],[[[2.344492,48.865997],[2.344654,48.86557],[2.343896,48.865191],[2.343262,48.865364],[2.343515,48.865838],[2.344377,48.866243],[2.344492,48.865997]]],[[[2.343145,48.868665],[2.342015,48.868644],[2.342464,48.869642],[2.342771,48.869686],[2.343145,48.868665]]],[[[2.349019,48.865935],[2.350501,48.865673],[2.350276,48.865176],[2.348783,48.865399],[2.349019,48.865935]],[[2.350248,48.865523],[2.350317,48.865511],[2.350324,48.86553],[2.350263,48.865539],[2.350209,48.865548],[2.350091,48.865567],[2.349857,48.865608],[2.349739,48.865628],[2.349569,48.865655],[2.349459,48.865676],[2.349335,48.865696],[2.349262,48.865709],[2.349254,48.865684],[2.349453,48.865652],[2.349697,48.865611],[2.349775,48.8656],[2.349833,48.86559],[2.350022,48.865558],[2.350248,48.865523]]],[[[2.344217,48.868579],[2.345469,48.868239],[2.345351,48.867909],[2.343682,48.868245],[2.343464,48.86874],[2.344217,48.868579]]],[[[2.341435,48.86754],[2.340999,48.866468],[2.340296,48.866523],[2.340873,48.867634],[2.341435,48.86754]]],[[[2.347402,48.86557],[2.348541,48.865346],[2.348413,48.865005],[2.347383,48.865087],[2.347022,48.865198],[2.347096,48.865629],[2.347402,48.86557]]],[[[2.345716,48.867617],[2.346025,48.867524],[2.344249,48.866961],[2.344087,48.867328],[2.345716,48.867617]]],[[[2.351275,48.865116],[2.350858,48.864371],[2.350238,48.864347],[2.350432,48.865073],[2.351275,48.865116]]],[[[2.346919,48.865574],[2.344812,48.865825],[2.344663,48.866092],[2.346968,48.865809],[2.346919,48.865574]]],[[[2.342494,48.870092],[2.342248,48.869542],[2.340693,48.86986],[2.342494,48.870092]]],[[[2.351198,48.865818],[2.351577,48.865765],[2.351361,48.865266],[2.350473,48.865195],[2.350821,48.865905],[2.351198,48.865818]]],[[[2.347505,48.868231],[2.346522,48.867663],[2.345834,48.867783],[2.347505,48.868231]]],[[[2.344938,48.868661],[2.345542,48.868537],[2.345469,48.86829],[2.343321,48.869046],[2.344938,48.868661]]],[[[2.341486,48.867663],[2.340939,48.867755],[2.341401,48.868549],[2.341812,48.868459],[2.341486,48.867663]]],[[[2.351007,48.863902],[2.350775,48.863541],[2.350122,48.863715],[2.350155,48.863972],[2.350755,48.863884],[2.350201,48.864031],[2.351016,48.864216],[2.351007,48.863902]]],[[[2.344211,48.867445],[2.343812,48.868025],[2.345139,48.867742],[2.344211,48.867445]]],[[[2.341467,48.871591],[2.34084,48.870441],[2.340807,48.87142],[2.341467,48.871591]]],[[[2.347695,48.865002],[2.348341,48.864944],[2.348256,48.864733],[2.346876,48.864801],[2.346968,48.865084],[2.347695,48.865002]]],[[[2.339855,48.868634],[2.339482,48.867951],[2.339026,48.868187],[2.339539,48.868709],[2.339855,48.868634]]],[[[2.347365,48.864724],[2.347725,48.864708],[2.347547,48.864315],[2.346783,48.864518],[2.347365,48.864724]]],[[[2.339287,48.867586],[2.338639,48.866404],[2.339128,48.867756],[2.339431,48.867889],[2.339287,48.867586]]],[[[2.351739,48.865946],[2.35083,48.865923],[2.351039,48.866251],[2.351739,48.865946]]],[[[2.343968,48.866648],[2.344346,48.86633],[2.343626,48.866005],[2.343968,48.866648]]],[[[2.344755,48.865381],[2.344877,48.864956],[2.344176,48.865124],[2.344755,48.865381]]],[[[2.351755,48.865277],[2.351571,48.865267],[2.351546,48.865287],[2.351649,48.865471],[2.351719,48.865598],[2.351858,48.865848],[2.351929,48.865975],[2.352061,48.866212],[2.352119,48.866229],[2.352247,48.866202],[2.352273,48.866165],[2.352138,48.865921],[2.352068,48.865796],[2.351929,48.865547],[2.351928,48.865545],[2.351885,48.865468],[2.351871,48.865442],[2.351859,48.865421],[2.351858,48.865419],[2.351788,48.865294],[2.351755,48.865277]]],[[[2.341258,48.866247],[2.340701,48.865907],[2.340046,48.86607],[2.341258,48.866247]]],[[[2.347427,48.868676],[2.347585,48.868464],[2.347291,48.868374],[2.346816,48.868915],[2.347427,48.868676]]],[[[2.351332,48.864481],[2.351121,48.864531],[2.351653,48.865163],[2.351332,48.864481]]],[[[2.351568,48.86635],[2.351808,48.866069],[2.351053,48.866271],[2.351568,48.86635]]],[[[2.352602,48.866753],[2.352198,48.8664],[2.352532,48.867055],[2.352602,48.866753]]],[[[2.347255,48.867496],[2.346711,48.867619],[2.347305,48.86781],[2.347255,48.867496]]],[[[2.343431,48.868327],[2.343402,48.868308],[2.34311,48.868372],[2.3427,48.86846],[2.342705,48.868488],[2.34311,48.868516],[2.343313,48.86853],[2.343348,48.868513],[2.34335,48.868509],[2.34339,48.868419],[2.343431,48.868327]]],[[[2.340951,48.87033],[2.34112,48.870043],[2.340807,48.869995],[2.340951,48.87033]]],[[[2.341325,48.870281],[2.342149,48.870199],[2.34123,48.870055],[2.341325,48.870281]]],[[[2.340166,48.866236],[2.340142,48.866233],[2.340117,48.866253],[2.340125,48.866268],[2.340216,48.866436],[2.340224,48.86645],[2.340261,48.866463],[2.340283,48.866459],[2.340508,48.866419],[2.340528,48.866395],[2.340472,48.866269],[2.340166,48.866236]]],[[[2.340473,48.865868],[2.340476,48.865867],[2.340476,48.865869],[2.340653,48.865828],[2.340401,48.865679],[2.3404,48.86568],[2.340341,48.865749],[2.340301,48.865794],[2.340248,48.865858],[2.339946,48.865974],[2.339932,48.865981],[2.339943,48.86599],[2.34011,48.865951],[2.340196,48.865931],[2.340473,48.865868]]],[[[2.34994,48.863764],[2.349543,48.863881],[2.349942,48.863972],[2.34994,48.863764]]],[[[2.349412,48.86704],[2.34938,48.867029],[2.349361,48.867104],[2.349539,48.867511],[2.349624,48.867704],[2.349695,48.867729],[2.349708,48.867712],[2.349613,48.867497],[2.349412,48.86704]]],[[[2.346633,48.864557],[2.346598,48.864544],[2.34614,48.864653],[2.346153,48.864697],[2.346646,48.86469],[2.346669,48.864669],[2.346633,48.864557]]],[[[2.349875,48.867443],[2.34971,48.8671],[2.349641,48.866956],[2.349603,48.867001],[2.349658,48.867111],[2.349665,48.867126],[2.349664,48.867127],[2.349699,48.867206],[2.349701,48.867206],[2.34977,48.867363],[2.349768,48.867364],[2.34981,48.867458],[2.3499,48.867663],[2.349931,48.867674],[2.349877,48.867449],[2.349875,48.867445],[2.349874,48.867443],[2.349875,48.867443]]],[[[2.346221,48.863919],[2.346271,48.863919],[2.346272,48.863921],[2.346377,48.863918],[2.346356,48.863846],[2.346155,48.863854],[2.346095,48.863857],[2.346074,48.863858],[2.346071,48.863858],[2.345996,48.863861],[2.345993,48.863861],[2.345863,48.863866],[2.345821,48.863868],[2.345821,48.863933],[2.345824,48.863933],[2.345912,48.86393],[2.345998,48.863927],[2.346141,48.863922],[2.346165,48.863922],[2.346219,48.86392],[2.346221,48.863919]]],[[[2.347661,48.868252],[2.347667,48.868017],[2.34771,48.868419],[2.347917,48.868313],[2.347661,48.868252]]],[[[2.340398,48.869631],[2.340291,48.869435],[2.34027,48.86966],[2.340492,48.869877],[2.340521,48.869855],[2.340398,48.869631]]],[[[2.340698,48.870177],[2.340578,48.869964],[2.340549,48.870109],[2.340591,48.870188],[2.340629,48.870257],[2.34074,48.870362],[2.34078,48.870323],[2.340698,48.870177]]],[[[2.342525,48.869723],[2.342497,48.869716],[2.34251,48.869748],[2.342554,48.869847],[2.34258,48.869903],[2.342608,48.869967],[2.342651,48.869967],[2.342668,48.869925],[2.342689,48.869874],[2.342733,48.869768],[2.342525,48.869723]]],[[[2.347422,48.86785],[2.347641,48.867837],[2.347643,48.867837],[2.347645,48.867838],[2.347677,48.867786],[2.347675,48.867785],[2.347605,48.867769],[2.347539,48.86775],[2.347537,48.867749],[2.347537,48.867749],[2.347537,48.867749],[2.347432,48.867663],[2.347427,48.867722],[2.347425,48.867777],[2.347425,48.867779],[2.347422,48.867779],[2.347421,48.867846],[2.347421,48.867847],[2.347422,48.867848],[2.347422,48.867849],[2.347422,48.86785]]],[[[2.352222,48.866812],[2.352185,48.866797],[2.352122,48.866802],[2.352145,48.866839],[2.352193,48.866917],[2.352252,48.867014],[2.35226,48.867026],[2.352361,48.867111],[2.352377,48.867089],[2.352326,48.866996],[2.35227,48.866896],[2.352262,48.866891],[2.352173,48.866836],[2.352169,48.866833],[2.352228,48.86682],[2.352222,48.866812]]],[[[2.343056,48.86558],[2.343072,48.865573],[2.343073,48.865574],[2.343081,48.865569],[2.343077,48.86556],[2.343075,48.865561],[2.343067,48.865545],[2.343069,48.865545],[2.343064,48.865535],[2.343062,48.865535],[2.343052,48.865515],[2.343054,48.865515],[2.34305,48.865508],[2.343048,48.865508],[2.343038,48.865488],[2.343039,48.865488],[2.343035,48.86548],[2.343034,48.86548],[2.343024,48.86546],[2.343025,48.86546],[2.34302,48.86545],[2.343018,48.865451],[2.34301,48.865435],[2.343011,48.865435],[2.343007,48.865426],[2.34297,48.865414],[2.342957,48.865418],[2.342958,48.865419],[2.342934,48.865425],[2.342933,48.865424],[2.34292,48.865426],[2.34292,48.865427],[2.342881,48.865437],[2.34288,48.865436],[2.342871,48.865438],[2.342872,48.865439],[2.342839,48.865447],[2.342839,48.865446],[2.342828,48.865448],[2.342822,48.865475],[2.342831,48.865479],[2.342832,48.865479],[2.342859,48.865492],[2.342858,48.865492],[2.342866,48.865497],[2.342867,48.865496],[2.343005,48.865563],[2.343004,48.865564],[2.343017,48.865569],[2.343018,48.865569],[2.343038,48.865578],[2.343037,48.865579],[2.343049,48.865585],[2.343057,48.865581],[2.343056,48.86558]]],[[[2.340021,48.869023],[2.340018,48.869023],[2.340026,48.869186],[2.340219,48.869301],[2.340212,48.869288],[2.340142,48.869159],[2.340141,48.869158],[2.34009,48.869064],[2.340082,48.869054],[2.340079,48.869051],[2.340072,48.869044],[2.340063,48.869036],[2.340056,48.869033],[2.340048,48.869029],[2.340041,48.869027],[2.340031,48.869025],[2.340021,48.869023]]],[[[2.347545,48.86755],[2.347532,48.867413],[2.347463,48.867428],[2.347438,48.867453],[2.347453,48.867531],[2.347456,48.867531],[2.347456,48.867534],[2.347442,48.867613],[2.347554,48.867643],[2.347545,48.86755]]],[[[2.352109,48.866606],[2.352083,48.866562],[2.352053,48.866568],[2.352127,48.866697],[2.35215,48.866676],[2.352109,48.866606]]],[[[2.352028,48.866463],[2.351984,48.866449],[2.352033,48.866534],[2.352065,48.866528],[2.352064,48.866527],[2.352028,48.866463]]]],"type":"MultiPolygon"},"properties":{"id_projet":"COLLEGES (année scolaire 2021/2022)","libelle":"CESAR FRANCK","annee_scol":"2021-2022","zone_commune":0,"etiquette":"Secteur du collège CESAR FRANCK","lib_etab_1":"CESAR FRANCK","lib_etab_2":null,"lib_etab_3":null,"lib_etab_4":null,"adr_etab_1":"5 RUE DE LA JUSSIENNE","adr_etab_2":null,"adr_etab_3":null,"adr_etab_4":null,"st_area_shape":356767.39040455536,"st_perimeter_shape":21156.275757338844,"type_etabl":"Collège","geo_point_2d":{"lon":2.3449955460211234,"lat":48.86751630555303}}},{"type":"Feature","geometry":{"coordinates":[[[[2.340707,48.868688],[2.341184,48.868525],[2.339928,48.866227],[2.338751,48.866359],[2.340002,48.868642],[2.340707,48.868688]]],[[[2.346221,48.863919],[2.346271,48.863919],[2.346272,48.863921],[2.346377,48.863918],[2.346356,48.863846],[2.346155,48.863854],[2.346095,48.863857],[2.346074,48.863858],[2.346071,48.863858],[2.345996,48.863861],[2.345993,48.863861],[2.345863,48.863866],[2.345821,48.863868],[2.345821,48.863933],[2.345824,48.863933],[2.345912,48.86393],[2.345998,48.863927],[2.346141,48.863922],[2.346165,48.863922],[2.346219,48.86392],[2.346221,48.863919]]],[[[2.34994,48.863764],[2.349543,48.863881],[2.349942,48.863972],[2.34994,48.863764]]],[[[2.351007,48.863902],[2.350775,48.863541],[2.350122,48.863715],[2.350155,48.863972],[2.350755,48.863884],[2.350201,48.864031],[2.351016,48.864216],[2.351007,48.863902]]],[[[2.348402,48.864619],[2.350016,48.864179],[2.348938,48.863981],[2.347731,48.864271],[2.347825,48.8647],[2.348402,48.864619]]],[[[2.346633,48.864557],[2.346598,48.864544],[2.34614,48.864653],[2.346153,48.864697],[2.346646,48.86469],[2.346669,48.864669],[2.346633,48.864557]]],[[[2.347365,48.864724],[2.347725,48.864708],[2.347547,48.864315],[2.346783,48.864518],[2.347365,48.864724]]],[[[2.347695,48.865002],[2.348341,48.864944],[2.348256,48.864733],[2.346876,48.864801],[2.346968,48.865084],[2.347695,48.865002]]],[[[2.351275,48.865116],[2.350858,48.864371],[2.350238,48.864347],[2.350432,48.865073],[2.351275,48.865116]]],[[[2.351332,48.864481],[2.351121,48.864531],[2.351653,48.865163],[2.351332,48.864481]]],[[[2.348773,48.865306],[2.350227,48.865108],[2.350068,48.864373],[2.348471,48.864709],[2.348773,48.865306]]],[[[2.344755,48.865381],[2.344877,48.864956],[2.344176,48.865124],[2.344755,48.865381]]],[[[2.343056,48.86558],[2.343072,48.865573],[2.343073,48.865574],[2.343081,48.865569],[2.343077,48.86556],[2.343075,48.865561],[2.343067,48.865545],[2.343069,48.865545],[2.343064,48.865535],[2.343062,48.865535],[2.343052,48.865515],[2.343054,48.865515],[2.34305,48.865508],[2.343048,48.865508],[2.343038,48.865488],[2.343039,48.865488],[2.343035,48.86548],[2.343034,48.86548],[2.343024,48.86546],[2.343025,48.86546],[2.34302,48.86545],[2.343018,48.865451],[2.34301,48.865435],[2.343011,48.865435],[2.343007,48.865426],[2.34297,48.865414],[2.342957,48.865418],[2.342958,48.865419],[2.342934,48.865425],[2.342933,48.865424],[2.34292,48.865426],[2.34292,48.865427],[2.342881,48.865437],[2.34288,48.865436],[2.342871,48.865438],[2.342872,48.865439],[2.342839,48.865447],[2.342839,48.865446],[2.342828,48.865448],[2.342822,48.865475],[2.342831,48.865479],[2.342832,48.865479],[2.342859,48.865492],[2.342858,48.865492],[2.342866,48.865497],[2.342867,48.865496],[2.343005,48.865563],[2.343004,48.865564],[2.343017,48.865569],[2.343018,48.865569],[2.343038,48.865578],[2.343037,48.865579],[2.343049,48.865585],[2.343057,48.865581],[2.343056,48.86558]]],[[[2.347402,48.86557],[2.348541,48.865346],[2.348413,48.865005],[2.347383,48.865087],[2.347022,48.865198],[2.347096,48.865629],[2.347402,48.86557]]],[[[2.346727,48.864863],[2.345194,48.864881],[2.344814,48.865732],[2.346901,48.865503],[2.346727,48.864863]]],[[[2.351198,48.865818],[2.351577,48.865765],[2.351361,48.865266],[2.350473,48.865195],[2.350821,48.865905],[2.351198,48.865818]]],[[[2.349019,48.865935],[2.350501,48.865673],[2.350276,48.865176],[2.348783,48.865399],[2.349019,48.865935]],[[2.350248,48.865523],[2.350317,48.865511],[2.350324,48.86553],[2.350263,48.865539],[2.350209,48.865548],[2.350091,48.865567],[2.349857,48.865608],[2.349739,48.865628],[2.349569,48.865655],[2.349459,48.865676],[2.349335,48.865696],[2.349262,48.865709],[2.349254,48.865684],[2.349453,48.865652],[2.349697,48.865611],[2.349775,48.8656],[2.349833,48.86559],[2.350022,48.865558],[2.350248,48.865523]]],[[[2.340473,48.865868],[2.340476,48.865867],[2.340476,48.865869],[2.340653,48.865828],[2.340401,48.865679],[2.3404,48.86568],[2.340341,48.865749],[2.340301,48.865794],[2.340248,48.865858],[2.339946,48.865974],[2.339932,48.865981],[2.339943,48.86599],[2.34011,48.865951],[2.340196,48.865931],[2.340473,48.865868]]],[[[2.346919,48.865574],[2.344812,48.865825],[2.344663,48.866092],[2.346968,48.865809],[2.346919,48.865574]]],[[[2.351755,48.865277],[2.351571,48.865267],[2.351546,48.865287],[2.351649,48.865471],[2.351719,48.865598],[2.351858,48.865848],[2.351929,48.865975],[2.352061,48.866212],[2.352119,48.866229],[2.352247,48.866202],[2.352273,48.866165],[2.352138,48.865921],[2.352068,48.865796],[2.351929,48.865547],[2.351928,48.865545],[2.351885,48.865468],[2.351871,48.865442],[2.351859,48.865421],[2.351858,48.865419],[2.351788,48.865294],[2.351755,48.865277]]],[[[2.351739,48.865946],[2.35083,48.865923],[2.351039,48.866251],[2.351739,48.865946]]],[[[2.344492,48.865997],[2.344654,48.86557],[2.343896,48.865191],[2.343262,48.865364],[2.343515,48.865838],[2.344377,48.866243],[2.344492,48.865997]]],[[[2.341258,48.866247],[2.340701,48.865907],[2.340046,48.86607],[2.341258,48.866247]]],[[[2.348795,48.865594],[2.348566,48.865394],[2.347106,48.865685],[2.34723,48.866305],[2.348937,48.865953],[2.348795,48.865594]]],[[[2.351568,48.86635],[2.351808,48.866069],[2.351053,48.866271],[2.351568,48.86635]]],[[[2.340166,48.866236],[2.340142,48.866233],[2.340117,48.866253],[2.340125,48.866268],[2.340216,48.866436],[2.340224,48.86645],[2.340261,48.866463],[2.340283,48.866459],[2.340508,48.866419],[2.340528,48.866395],[2.340472,48.866269],[2.340166,48.866236]]],[[[2.352028,48.866463],[2.351984,48.866449],[2.352033,48.866534],[2.352065,48.866528],[2.352064,48.866527],[2.352028,48.866463]]],[[[2.342654,48.865504],[2.341675,48.865875],[2.343589,48.866558],[2.343182,48.865762],[2.342654,48.865504]]],[[[2.346557,48.866405],[2.347087,48.866331],[2.346959,48.865919],[2.344616,48.866246],[2.344434,48.866625],[2.346557,48.866405]]],[[[2.343968,48.866648],[2.344346,48.86633],[2.343626,48.866005],[2.343968,48.866648]]],[[[2.352109,48.866606],[2.352083,48.866562],[2.352053,48.866568],[2.352127,48.866697],[2.35215,48.866676],[2.352109,48.866606]]],[[[2.350411,48.866529],[2.350952,48.866424],[2.350532,48.865736],[2.349069,48.86608],[2.349388,48.866723],[2.350411,48.866529]]],[[[2.352602,48.866753],[2.352198,48.8664],[2.352532,48.867055],[2.352602,48.866753]]],[[[2.352222,48.866812],[2.352185,48.866797],[2.352122,48.866802],[2.352145,48.866839],[2.352193,48.866917],[2.352252,48.867014],[2.35226,48.867026],[2.352361,48.867111],[2.352377,48.867089],[2.352326,48.866996],[2.35227,48.866896],[2.352262,48.866891],[2.352173,48.866836],[2.352169,48.866833],[2.352228,48.86682],[2.352222,48.866812]]],[[[2.348615,48.866862],[2.349327,48.866732],[2.348962,48.865996],[2.347236,48.866353],[2.347378,48.867129],[2.348615,48.866862]]],[[[2.343706,48.86677],[2.341614,48.865963],[2.341339,48.866278],[2.343723,48.867186],[2.343706,48.86677]]],[[[2.346885,48.867364],[2.347216,48.867275],[2.347086,48.866398],[2.344332,48.866851],[2.34627,48.86748],[2.346885,48.867364]]],[[[2.347545,48.86755],[2.347532,48.867413],[2.347463,48.867428],[2.347438,48.867453],[2.347453,48.867531],[2.347456,48.867531],[2.347456,48.867534],[2.347442,48.867613],[2.347554,48.867643],[2.347545,48.86755]]],[[[2.349875,48.867443],[2.34971,48.8671],[2.349641,48.866956],[2.349603,48.867001],[2.349658,48.867111],[2.349665,48.867126],[2.349664,48.867127],[2.349699,48.867206],[2.349701,48.867206],[2.34977,48.867363],[2.349768,48.867364],[2.34981,48.867458],[2.3499,48.867663],[2.349931,48.867674],[2.349877,48.867449],[2.349875,48.867445],[2.349874,48.867443],[2.349875,48.867443]]],[[[2.341435,48.86754],[2.340999,48.866468],[2.340296,48.866523],[2.340873,48.867634],[2.341435,48.86754]]],[[[2.345716,48.867617],[2.346025,48.867524],[2.344249,48.866961],[2.344087,48.867328],[2.345716,48.867617]]],[[[2.349412,48.86704],[2.34938,48.867029],[2.349361,48.867104],[2.349539,48.867511],[2.349624,48.867704],[2.349695,48.867729],[2.349708,48.867712],[2.349613,48.867497],[2.349412,48.86704]]],[[[2.343731,48.867696],[2.343591,48.867258],[2.341071,48.866408],[2.341617,48.867551],[2.343731,48.867696]]],[[[2.347255,48.867496],[2.346711,48.867619],[2.347305,48.86781],[2.347255,48.867496]]],[[[2.347422,48.86785],[2.347641,48.867837],[2.347643,48.867837],[2.347645,48.867838],[2.347677,48.867786],[2.347675,48.867785],[2.347605,48.867769],[2.347539,48.86775],[2.347537,48.867749],[2.347537,48.867749],[2.347537,48.867749],[2.347432,48.867663],[2.347427,48.867722],[2.347425,48.867777],[2.347425,48.867779],[2.347422,48.867779],[2.347421,48.867846],[2.347421,48.867847],[2.347422,48.867848],[2.347422,48.867849],[2.347422,48.86785]]],[[[2.339287,48.867586],[2.338639,48.866404],[2.339128,48.867756],[2.339431,48.867889],[2.339287,48.867586]]],[[[2.344211,48.867445],[2.343812,48.868025],[2.345139,48.867742],[2.344211,48.867445]]],[[[2.347505,48.868231],[2.346522,48.867663],[2.345834,48.867783],[2.347505,48.868231]]],[[[2.347661,48.868252],[2.347667,48.868017],[2.34771,48.868419],[2.347917,48.868313],[2.347661,48.868252]]],[[[2.342975,48.868212],[2.343634,48.867806],[2.341629,48.867664],[2.341935,48.868417],[2.342975,48.868212]]],[[[2.343431,48.868327],[2.343402,48.868308],[2.34311,48.868372],[2.3427,48.86846],[2.342705,48.868488],[2.34311,48.868516],[2.343313,48.86853],[2.343348,48.868513],[2.34335,48.868509],[2.34339,48.868419],[2.343431,48.868327]]],[[[2.341486,48.867663],[2.340939,48.867755],[2.341401,48.868549],[2.341812,48.868459],[2.341486,48.867663]]],[[[2.344217,48.868579],[2.345469,48.868239],[2.345351,48.867909],[2.343682,48.868245],[2.343464,48.86874],[2.344217,48.868579]]],[[[2.339855,48.868634],[2.339482,48.867951],[2.339026,48.868187],[2.339539,48.868709],[2.339855,48.868634]]],[[[2.347427,48.868676],[2.347585,48.868464],[2.347291,48.868374],[2.346816,48.868915],[2.347427,48.868676]]],[[[2.344938,48.868661],[2.345542,48.868537],[2.345469,48.86829],[2.343321,48.869046],[2.344938,48.868661]]],[[[2.346034,48.867973],[2.345477,48.867877],[2.345873,48.869128],[2.346565,48.868986],[2.347145,48.868327],[2.346034,48.867973]]],[[[2.340021,48.869023],[2.340018,48.869023],[2.340026,48.869186],[2.340219,48.869301],[2.340212,48.869288],[2.340142,48.869159],[2.340141,48.869158],[2.34009,48.869064],[2.340082,48.869054],[2.340079,48.869051],[2.340072,48.869044],[2.340063,48.869036],[2.340056,48.869033],[2.340048,48.869029],[2.340041,48.869027],[2.340031,48.869025],[2.340021,48.869023]]],[[[2.341782,48.868659],[2.340555,48.868918],[2.340868,48.869614],[2.342132,48.869372],[2.341782,48.868659]]],[[[2.343145,48.868665],[2.342015,48.868644],[2.342464,48.869642],[2.342771,48.869686],[2.343145,48.868665]]],[[[2.345767,48.869168],[2.345567,48.8686],[2.345141,48.86867],[2.343269,48.869162],[2.342966,48.869836],[2.345767,48.869168]]],[[[2.340398,48.869631],[2.340291,48.869435],[2.34027,48.86966],[2.340492,48.869877],[2.340521,48.869855],[2.340398,48.869631]]],[[[2.342525,48.869723],[2.342497,48.869716],[2.34251,48.869748],[2.342554,48.869847],[2.34258,48.869903],[2.342608,48.869967],[2.342651,48.869967],[2.342668,48.869925],[2.342689,48.869874],[2.342733,48.869768],[2.342525,48.869723]]],[[[2.342494,48.870092],[2.342248,48.869542],[2.340693,48.86986],[2.342494,48.870092]]],[[[2.341325,48.870281],[2.342149,48.870199],[2.34123,48.870055],[2.341325,48.870281]]],[[[2.340951,48.87033],[2.34112,48.870043],[2.340807,48.869995],[2.340951,48.87033]]],[[[2.340698,48.870177],[2.340578,48.869964],[2.340549,48.870109],[2.340591,48.870188],[2.340629,48.870257],[2.34074,48.870362],[2.34078,48.870323],[2.340698,48.870177]]],[[[2.346785,48.870715],[2.347809,48.870522],[2.346926,48.869504],[2.347398,48.869447],[2.34705,48.869197],[2.347688,48.868846],[2.345955,48.869213],[2.346785,48.870715]]],[[[2.34536,48.870027],[2.345009,48.869481],[2.342865,48.869954],[2.342803,48.870316],[2.342978,48.870783],[2.345496,48.870321],[2.34536,48.870027]]],[[[2.346231,48.869982],[2.345865,48.869309],[2.345196,48.869494],[2.345977,48.870843],[2.346606,48.87074],[2.346231,48.869982]]],[[[2.34402,48.87117],[2.345827,48.870838],[2.345556,48.870421],[2.344631,48.87059],[2.343009,48.870889],[2.343113,48.871319],[2.34402,48.87117]]],[[[2.342735,48.871385],[2.342936,48.871362],[2.342487,48.870319],[2.341061,48.870477],[2.341624,48.871564],[2.342735,48.871385]]],[[[2.341467,48.871591],[2.34084,48.870441],[2.340807,48.87142],[2.341467,48.871591]]]],"type":"MultiPolygon"},"properties":{"id_projet":"COLLEGES (année scolaire 2024/2025)","libelle":"CESAR FRANCK","annee_scol":"2024-2025","zone_commune":0,"etiquette":"Secteur du collège CESAR FRANCK","lib_etab_1":"CESAR FRANCK","lib_etab_2":null,"lib_etab_3":null,"lib_etab_4":null,"adr_etab_1":"5 RUE DE LA JUSSIENNE","adr_etab_2":null,"adr_etab_3":null,"adr_etab_4":null,"st_area_shape":356767.39040455525,"st_perimeter_shape":21156.27575733884,"type_etabl":"Collège","geo_point_2d":{"lon":2.3449955460211216,"lat":48.867516305552925}}},{"type":"Feature","geometry":{"coordinates":[[[[2.340707,48.868688],[2.341184,48.868525],[2.339928,48.866227],[2.338751,48.866359],[2.340002,48.868642],[2.340707,48.868688]]],[[[2.34536,48.870027],[2.345009,48.869481],[2.342865,48.869954],[2.342803,48.870316],[2.342978,48.870783],[2.345496,48.870321],[2.34536,48.870027]]],[[[2.343731,48.867696],[2.343591,48.867258],[2.341071,48.866408],[2.341617,48.867551],[2.343731,48.867696]]],[[[2.346885,48.867364],[2.347216,48.867275],[2.347086,48.866398],[2.344332,48.866851],[2.34627,48.86748],[2.346885,48.867364]]],[[[2.346785,48.870715],[2.347809,48.870522],[2.346926,48.869504],[2.347398,48.869447],[2.34705,48.869197],[2.347688,48.868846],[2.345955,48.869213],[2.346785,48.870715]]],[[[2.345767,48.869168],[2.345567,48.8686],[2.345141,48.86867],[2.343269,48.869162],[2.342966,48.869836],[2.345767,48.869168]]],[[[2.342735,48.871385],[2.342936,48.871362],[2.342487,48.870319],[2.341061,48.870477],[2.341624,48.871564],[2.342735,48.871385]]],[[[2.348615,48.866862],[2.349327,48.866732],[2.348962,48.865996],[2.347236,48.866353],[2.347378,48.867129],[2.348615,48.866862]]],[[[2.346727,48.864863],[2.345194,48.864881],[2.344814,48.865732],[2.346901,48.865503],[2.346727,48.864863]]],[[[2.34402,48.87117],[2.345827,48.870838],[2.345556,48.870421],[2.344631,48.87059],[2.343009,48.870889],[2.343113,48.871319],[2.34402,48.87117]]],[[[2.346034,48.867973],[2.345477,48.867877],[2.345873,48.869128],[2.346565,48.868986],[2.347145,48.868327],[2.346034,48.867973]]],[[[2.350411,48.866529],[2.350952,48.866424],[2.350532,48.865736],[2.349069,48.86608],[2.349388,48.866723],[2.350411,48.866529]]],[[[2.346557,48.866405],[2.347087,48.866331],[2.346959,48.865919],[2.344616,48.866246],[2.344434,48.866625],[2.346557,48.866405]]],[[[2.348773,48.865306],[2.350227,48.865108],[2.350068,48.864373],[2.348471,48.864709],[2.348773,48.865306]]],[[[2.346231,48.869982],[2.345865,48.869309],[2.345196,48.869494],[2.345977,48.870843],[2.346606,48.87074],[2.346231,48.869982]]],[[[2.348795,48.865594],[2.348566,48.865394],[2.347106,48.865685],[2.34723,48.866305],[2.348937,48.865953],[2.348795,48.865594]]],[[[2.341782,48.868659],[2.340555,48.868918],[2.340868,48.869614],[2.342132,48.869372],[2.341782,48.868659]]],[[[2.348402,48.864619],[2.350016,48.864179],[2.348938,48.863981],[2.347731,48.864271],[2.347825,48.8647],[2.348402,48.864619]]],[[[2.342975,48.868212],[2.343634,48.867806],[2.341629,48.867664],[2.341935,48.868417],[2.342975,48.868212]]],[[[2.342654,48.865504],[2.341675,48.865875],[2.343589,48.866558],[2.343182,48.865762],[2.342654,48.865504]]],[[[2.343706,48.86677],[2.341614,48.865963],[2.341339,48.866278],[2.343723,48.867186],[2.343706,48.86677]]],[[[2.344492,48.865997],[2.344654,48.86557],[2.343896,48.865191],[2.343262,48.865364],[2.343515,48.865838],[2.344377,48.866243],[2.344492,48.865997]]],[[[2.343145,48.868665],[2.342015,48.868644],[2.342464,48.869642],[2.342771,48.869686],[2.343145,48.868665]]],[[[2.349019,48.865935],[2.350501,48.865673],[2.350276,48.865176],[2.348783,48.865399],[2.349019,48.865935]],[[2.350248,48.865523],[2.350317,48.865511],[2.350324,48.86553],[2.350263,48.865539],[2.350209,48.865548],[2.350091,48.865567],[2.349857,48.865608],[2.349739,48.865628],[2.349569,48.865655],[2.349459,48.865676],[2.349335,48.865696],[2.349262,48.865709],[2.349254,48.865684],[2.349453,48.865652],[2.349697,48.865611],[2.349775,48.8656],[2.349833,48.86559],[2.350022,48.865558],[2.350248,48.865523]]],[[[2.344217,48.868579],[2.345469,48.868239],[2.345351,48.867909],[2.343682,48.868245],[2.343464,48.86874],[2.344217,48.868579]]],[[[2.341435,48.86754],[2.340999,48.866468],[2.340296,48.866523],[2.340873,48.867634],[2.341435,48.86754]]],[[[2.347402,48.86557],[2.348541,48.865346],[2.348413,48.865005],[2.347383,48.865087],[2.347022,48.865198],[2.347096,48.865629],[2.347402,48.86557]]],[[[2.345716,48.867617],[2.346025,48.867524],[2.344249,48.866961],[2.344087,48.867328],[2.345716,48.867617]]],[[[2.351275,48.865116],[2.350858,48.864371],[2.350238,48.864347],[2.350432,48.865073],[2.351275,48.865116]]],[[[2.346919,48.865574],[2.344812,48.865825],[2.344663,48.866092],[2.346968,48.865809],[2.346919,48.865574]]],[[[2.342494,48.870092],[2.342248,48.869542],[2.340693,48.86986],[2.342494,48.870092]]],[[[2.351198,48.865818],[2.351577,48.865765],[2.351361,48.865266],[2.350473,48.865195],[2.350821,48.865905],[2.351198,48.865818]]],[[[2.347505,48.868231],[2.346522,48.867663],[2.345834,48.867783],[2.347505,48.868231]]],[[[2.344938,48.868661],[2.345542,48.868537],[2.345469,48.86829],[2.343321,48.869046],[2.344938,48.868661]]],[[[2.341486,48.867663],[2.340939,48.867755],[2.341401,48.868549],[2.341812,48.868459],[2.341486,48.867663]]],[[[2.351007,48.863902],[2.350775,48.863541],[2.350122,48.863715],[2.350155,48.863972],[2.350755,48.863884],[2.350201,48.864031],[2.351016,48.864216],[2.351007,48.863902]]],[[[2.344211,48.867445],[2.343812,48.868025],[2.345139,48.867742],[2.344211,48.867445]]],[[[2.341467,48.871591],[2.34084,48.870441],[2.340807,48.87142],[2.341467,48.871591]]],[[[2.347695,48.865002],[2.348341,48.864944],[2.348256,48.864733],[2.346876,48.864801],[2.346968,48.865084],[2.347695,48.865002]]],[[[2.339855,48.868634],[2.339482,48.867951],[2.339026,48.868187],[2.339539,48.868709],[2.339855,48.868634]]],[[[2.347365,48.864724],[2.347725,48.864708],[2.347547,48.864315],[2.346783,48.864518],[2.347365,48.864724]]],[[[2.339287,48.867586],[2.338639,48.866404],[2.339128,48.867756],[2.339431,48.867889],[2.339287,48.867586]]],[[[2.351739,48.865946],[2.35083,48.865923],[2.351039,48.866251],[2.351739,48.865946]]],[[[2.343968,48.866648],[2.344346,48.86633],[2.343626,48.866005],[2.343968,48.866648]]],[[[2.344755,48.865381],[2.344877,48.864956],[2.344176,48.865124],[2.344755,48.865381]]],[[[2.351755,48.865277],[2.351571,48.865267],[2.351546,48.865287],[2.351649,48.865471],[2.351719,48.865598],[2.351858,48.865848],[2.351929,48.865975],[2.352061,48.866212],[2.352119,48.866229],[2.352247,48.866202],[2.352273,48.866165],[2.352138,48.865921],[2.352068,48.865796],[2.351929,48.865547],[2.351928,48.865545],[2.351885,48.865468],[2.351871,48.865442],[2.351859,48.865421],[2.351858,48.865419],[2.351788,48.865294],[2.351755,48.865277]]],[[[2.341258,48.866247],[2.340701,48.865907],[2.340046,48.86607],[2.341258,48.866247]]],[[[2.347427,48.868676],[2.347585,48.868464],[2.347291,48.868374],[2.346816,48.868915],[2.347427,48.868676]]],[[[2.351332,48.864481],[2.351121,48.864531],[2.351653,48.865163],[2.351332,48.864481]]],[[[2.351568,48.86635],[2.351808,48.866069],[2.351053,48.866271],[2.351568,48.86635]]],[[[2.352602,48.866753],[2.352198,48.8664],[2.352532,48.867055],[2.352602,48.866753]]],[[[2.347255,48.867496],[2.346711,48.867619],[2.347305,48.86781],[2.347255,48.867496]]],[[[2.343431,48.868327],[2.343402,48.868308],[2.34311,48.868372],[2.3427,48.86846],[2.342705,48.868488],[2.34311,48.868516],[2.343313,48.86853],[2.343348,48.868513],[2.34335,48.868509],[2.34339,48.868419],[2.343431,48.868327]]],[[[2.340951,48.87033],[2.34112,48.870043],[2.340807,48.869995],[2.340951,48.87033]]],[[[2.341325,48.870281],[2.342149,48.870199],[2.34123,48.870055],[2.341325,48.870281]]],[[[2.340166,48.866236],[2.340142,48.866233],[2.340117,48.866253],[2.340125,48.866268],[2.340216,48.866436],[2.340224,48.86645],[2.340261,48.866463],[2.340283,48.866459],[2.340508,48.866419],[2.340528,48.866395],[2.340472,48.866269],[2.340166,48.866236]]],[[[2.340473,48.865868],[2.340476,48.865867],[2.340476,48.865869],[2.340653,48.865828],[2.340401,48.865679],[2.3404,48.86568],[2.340341,48.865749],[2.340301,48.865794],[2.340248,48.865858],[2.339946,48.865974],[2.339932,48.865981],[2.339943,48.86599],[2.34011,48.865951],[2.340196,48.865931],[2.340473,48.865868]]],[[[2.34994,48.863764],[2.349543,48.863881],[2.349942,48.863972],[2.34994,48.863764]]],[[[2.349412,48.86704],[2.34938,48.867029],[2.349361,48.867104],[2.349539,48.867511],[2.349624,48.867704],[2.349695,48.867729],[2.349708,48.867712],[2.349613,48.867497],[2.349412,48.86704]]],[[[2.346633,48.864557],[2.346598,48.864544],[2.34614,48.864653],[2.346153,48.864697],[2.346646,48.86469],[2.346669,48.864669],[2.346633,48.864557]]],[[[2.349875,48.867443],[2.34971,48.8671],[2.349641,48.866956],[2.349603,48.867001],[2.349658,48.867111],[2.349665,48.867126],[2.349664,48.867127],[2.349699,48.867206],[2.349701,48.867206],[2.34977,48.867363],[2.349768,48.867364],[2.34981,48.867458],[2.3499,48.867663],[2.349931,48.867674],[2.349877,48.867449],[2.349875,48.867445],[2.349874,48.867443],[2.349875,48.867443]]],[[[2.346221,48.863919],[2.346271,48.863919],[2.346272,48.863921],[2.346377,48.863918],[2.346356,48.863846],[2.346155,48.863854],[2.346095,48.863857],[2.346074,48.863858],[2.346071,48.863858],[2.345996,48.863861],[2.345993,48.863861],[2.345863,48.863866],[2.345821,48.863868],[2.345821,48.863933],[2.345824,48.863933],[2.345912,48.86393],[2.345998,48.863927],[2.346141,48.863922],[2.346165,48.863922],[2.346219,48.86392],[2.346221,48.863919]]],[[[2.347661,48.868252],[2.347667,48.868017],[2.34771,48.868419],[2.347917,48.868313],[2.347661,48.868252]]],[[[2.340398,48.869631],[2.340291,48.869435],[2.34027,48.86966],[2.340492,48.869877],[2.340521,48.869855],[2.340398,48.869631]]],[[[2.340698,48.870177],[2.340578,48.869964],[2.340549,48.870109],[2.340591,48.870188],[2.340629,48.870257],[2.34074,48.870362],[2.34078,48.870323],[2.340698,48.870177]]],[[[2.342525,48.869723],[2.342497,48.869716],[2.34251,48.869748],[2.342554,48.869847],[2.34258,48.869903],[2.342608,48.869967],[2.342651,48.869967],[2.342668,48.869925],[2.342689,48.869874],[2.342733,48.869768],[2.342525,48.869723]]],[[[2.347422,48.86785],[2.347641,48.867837],[2.347643,48.867837],[2.347645,48.867838],[2.347677,48.867786],[2.347675,48.867785],[2.347605,48.867769],[2.347539,48.86775],[2.347537,48.867749],[2.347537,48.867749],[2.347537,48.867749],[2.347432,48.867663],[2.347427,48.867722],[2.347425,48.867777],[2.347425,48.867779],[2.347422,48.867779],[2.347421,48.867846],[2.347421,48.867847],[2.347422,48.867848],[2.347422,48.867849],[2.347422,48.86785]]],[[[2.352222,48.866812],[2.352185,48.866797],[2.352122,48.866802],[2.352145,48.866839],[2.352193,48.866917],[2.352252,48.867014],[2.35226,48.867026],[2.352361,48.867111],[2.352377,48.867089],[2.352326,48.866996],[2.35227,48.866896],[2.352262,48.866891],[2.352173,48.866836],[2.352169,48.866833],[2.352228,48.86682],[2.352222,48.866812]]],[[[2.343056,48.86558],[2.343072,48.865573],[2.343073,48.865574],[2.343081,48.865569],[2.343077,48.86556],[2.343075,48.865561],[2.343067,48.865545],[2.343069,48.865545],[2.343064,48.865535],[2.343062,48.865535],[2.343052,48.865515],[2.343054,48.865515],[2.34305,48.865508],[2.343048,48.865508],[2.343038,48.865488],[2.343039,48.865488],[2.343035,48.86548],[2.343034,48.86548],[2.343024,48.86546],[2.343025,48.86546],[2.34302,48.86545],[2.343018,48.865451],[2.34301,48.865435],[2.343011,48.865435],[2.343007,48.865426],[2.34297,48.865414],[2.342957,48.865418],[2.342958,48.865419],[2.342934,48.865425],[2.342933,48.865424],[2.34292,48.865426],[2.34292,48.865427],[2.342881,48.865437],[2.34288,48.865436],[2.342871,48.865438],[2.342872,48.865439],[2.342839,48.865447],[2.342839,48.865446],[2.342828,48.865448],[2.342822,48.865475],[2.342831,48.865479],[2.342832,48.865479],[2.342859,48.865492],[2.342858,48.865492],[2.342866,48.865497],[2.342867,48.865496],[2.343005,48.865563],[2.343004,48.865564],[2.343017,48.865569],[2.343018,48.865569],[2.343038,48.865578],[2.343037,48.865579],[2.343049,48.865585],[2.343057,48.865581],[2.343056,48.86558]]],[[[2.340021,48.869023],[2.340018,48.869023],[2.340026,48.869186],[2.340219,48.869301],[2.340212,48.869288],[2.340142,48.869159],[2.340141,48.869158],[2.34009,48.869064],[2.340082,48.869054],[2.340079,48.869051],[2.340072,48.869044],[2.340063,48.869036],[2.340056,48.869033],[2.340048,48.869029],[2.340041,48.869027],[2.340031,48.869025],[2.340021,48.869023]]],[[[2.347545,48.86755],[2.347532,48.867413],[2.347463,48.867428],[2.347438,48.867453],[2.347453,48.867531],[2.347456,48.867531],[2.347456,48.867534],[2.347442,48.867613],[2.347554,48.867643],[2.347545,48.86755]]],[[[2.352109,48.866606],[2.352083,48.866562],[2.352053,48.866568],[2.352127,48.866697],[2.35215,48.866676],[2.352109,48.866606]]],[[[2.352028,48.866463],[2.351984,48.866449],[2.352033,48.866534],[2.352065,48.866528],[2.352064,48.866527],[2.352028,48.866463]]]],"type":"MultiPolygon"},"properties":{"id_projet":"COLLEGES (année scolaire 2022/2023)","libelle":"CESAR FRANCK","annee_scol":"2022-2023","zone_commune":0,"etiquette":"Secteur du collège CESAR FRANCK","lib_etab_1":"CESAR FRANCK","lib_etab_2":null,"lib_etab_3":null,"lib_etab_4":null,"adr_etab_1":"5 RUE DE LA JUSSIENNE","adr_etab_2":null,"adr_etab_3":null,"adr_etab_4":null,"st_area_shape":356767.39040455536,"st_perimeter_shape":21156.275757338844,"type_etabl":"Collège","geo_point_2d":{"lon":2.3449955460211234,"lat":48.86751630555303}}},{"type":"Feature","geometry":{"coordinates":[[[[2.340105,48.868762],[2.340561,48.86834],[2.341184,48.868525],[2.339908,48.86619],[2.338751,48.866359],[2.340105,48.868762]]],[[[2.347677,48.867786],[2.347675,48.867785],[2.347643,48.867837],[2.347643,48.867837],[2.347645,48.867838],[2.347677,48.867786]]],[[[2.347545,48.86755],[2.347463,48.867428],[2.347438,48.867453],[2.347453,48.867531],[2.347456,48.867531],[2.347456,48.867534],[2.347442,48.867613],[2.347545,48.86755]]],[[[2.347537,48.867749],[2.347432,48.867663],[2.347427,48.867722],[2.347425,48.867777],[2.347425,48.867779],[2.347422,48.867779],[2.347421,48.867846],[2.347421,48.867847],[2.347422,48.867848],[2.347422,48.867849],[2.347422,48.86785],[2.347485,48.867846],[2.34751,48.867802],[2.347539,48.86775],[2.347539,48.86775],[2.347537,48.867749],[2.347537,48.867749],[2.347537,48.867749]]],[[[2.342733,48.869768],[2.342497,48.869716],[2.342629,48.869967],[2.342733,48.869768]]],[[[2.343056,48.86558],[2.343072,48.865573],[2.343073,48.865574],[2.343081,48.865569],[2.343077,48.86556],[2.343075,48.865561],[2.343067,48.865545],[2.343069,48.865545],[2.343064,48.865535],[2.343062,48.865535],[2.343052,48.865515],[2.343054,48.865515],[2.34305,48.865508],[2.343048,48.865508],[2.343038,48.865488],[2.343039,48.865488],[2.343035,48.86548],[2.343034,48.86548],[2.343024,48.86546],[2.343025,48.86546],[2.34302,48.86545],[2.343018,48.865451],[2.34301,48.865435],[2.343011,48.865435],[2.343007,48.865426],[2.34297,48.865414],[2.342957,48.865418],[2.342958,48.865419],[2.342934,48.865425],[2.342933,48.865424],[2.34292,48.865426],[2.34292,48.865427],[2.342881,48.865437],[2.34288,48.865436],[2.342871,48.865438],[2.342872,48.865439],[2.342839,48.865447],[2.342839,48.865446],[2.342828,48.865448],[2.342822,48.865475],[2.342831,48.865479],[2.342832,48.865479],[2.342859,48.865492],[2.342858,48.865492],[2.342866,48.865497],[2.342867,48.865496],[2.343005,48.865563],[2.343004,48.865564],[2.343017,48.865569],[2.343018,48.865569],[2.343038,48.865578],[2.343037,48.865579],[2.343049,48.865585],[2.343057,48.865581],[2.343056,48.86558]]],[[[2.347661,48.868252],[2.347667,48.868017],[2.347584,48.868138],[2.347571,48.868146],[2.34762,48.868243],[2.347684,48.868369],[2.34771,48.868419],[2.347773,48.86839],[2.347758,48.868355],[2.34772,48.868267],[2.347663,48.868254],[2.347664,48.868253],[2.347661,48.868252]]],[[[2.346633,48.864557],[2.346598,48.864544],[2.34614,48.864653],[2.346153,48.864697],[2.346646,48.86469],[2.346669,48.864669],[2.346633,48.864557]]],[[[2.34994,48.863764],[2.349543,48.863881],[2.349942,48.863972],[2.34994,48.863764]]],[[[2.340166,48.866236],[2.340142,48.866233],[2.340117,48.866253],[2.340125,48.866268],[2.340216,48.866436],[2.340224,48.86645],[2.340261,48.866463],[2.340283,48.866459],[2.340508,48.866419],[2.340528,48.866395],[2.340472,48.866269],[2.340166,48.866236]]],[[[2.343431,48.868327],[2.343402,48.868308],[2.34311,48.868372],[2.3427,48.86846],[2.342705,48.868488],[2.34311,48.868516],[2.343313,48.86853],[2.343348,48.868513],[2.34335,48.868509],[2.34339,48.868419],[2.343431,48.868327]]],[[[2.347255,48.867496],[2.346711,48.867619],[2.347305,48.86781],[2.347255,48.867496]]],[[[2.347518,48.864113],[2.347509,48.864089],[2.347474,48.864073],[2.347239,48.864093],[2.347079,48.864108],[2.347078,48.864104],[2.347075,48.864105],[2.347075,48.864108],[2.347072,48.864108],[2.347069,48.864103],[2.347014,48.864109],[2.346958,48.864115],[2.346653,48.864146],[2.346652,48.864147],[2.346656,48.864158],[2.34667,48.864199],[2.346707,48.864305],[2.346743,48.864318],[2.346958,48.864266],[2.346959,48.864266],[2.347127,48.864226],[2.347277,48.86419],[2.347496,48.864137],[2.347518,48.864113]]],[[[2.351568,48.86635],[2.351808,48.866069],[2.351053,48.866271],[2.351568,48.86635]]],[[[2.351332,48.864481],[2.351121,48.864531],[2.351653,48.865163],[2.351332,48.864481]]],[[[2.347427,48.868676],[2.347585,48.868464],[2.347291,48.868374],[2.346816,48.868915],[2.347427,48.868676]]],[[[2.341258,48.866247],[2.340701,48.865907],[2.340046,48.86607],[2.341258,48.866247]]],[[[2.351755,48.865277],[2.351571,48.865267],[2.351546,48.865287],[2.351649,48.865471],[2.351719,48.865598],[2.351858,48.865848],[2.351929,48.865975],[2.352061,48.866212],[2.352119,48.866229],[2.352247,48.866202],[2.352273,48.866165],[2.352138,48.865921],[2.352068,48.865796],[2.351929,48.865547],[2.351928,48.865545],[2.351885,48.865468],[2.351871,48.865442],[2.351859,48.865421],[2.351858,48.865419],[2.351788,48.865294],[2.351755,48.865277]]],[[[2.344755,48.865381],[2.344877,48.864956],[2.344176,48.865124],[2.344755,48.865381]]],[[[2.343968,48.866648],[2.344346,48.86633],[2.343626,48.866005],[2.343968,48.866648]]],[[[2.347856,48.863688],[2.347503,48.863633],[2.347681,48.864093],[2.348535,48.863888],[2.347856,48.863688]]],[[[2.351739,48.865946],[2.35083,48.865923],[2.351039,48.866251],[2.351739,48.865946]]],[[[2.339287,48.867586],[2.338639,48.866404],[2.339128,48.867756],[2.339431,48.867889],[2.339287,48.867586]]],[[[2.347365,48.864724],[2.347725,48.864708],[2.347547,48.864315],[2.346783,48.864518],[2.347365,48.864724]]],[[[2.339855,48.868634],[2.339482,48.867951],[2.339026,48.868187],[2.339539,48.868709],[2.339855,48.868634]]],[[[2.347695,48.865002],[2.348341,48.864944],[2.348256,48.864733],[2.346876,48.864801],[2.346968,48.865084],[2.347695,48.865002]]],[[[2.344211,48.867445],[2.343812,48.868025],[2.345139,48.867742],[2.344211,48.867445]]],[[[2.341364,48.868536],[2.341812,48.868459],[2.341486,48.867663],[2.340958,48.867731],[2.341364,48.868536]]],[[[2.351007,48.863902],[2.350775,48.863541],[2.350122,48.863715],[2.350155,48.863972],[2.350755,48.863884],[2.350201,48.864031],[2.351016,48.864216],[2.351007,48.863902]]],[[[2.344938,48.868661],[2.345542,48.868537],[2.345469,48.86829],[2.343321,48.869046],[2.344938,48.868661]]],[[[2.347505,48.868231],[2.346522,48.867663],[2.345834,48.867783],[2.347505,48.868231]]],[[[2.343145,48.868665],[2.342033,48.868622],[2.342618,48.868822],[2.342464,48.869642],[2.342771,48.869686],[2.343145,48.868665]]],[[[2.346568,48.863397],[2.346623,48.864103],[2.347469,48.863963],[2.347336,48.863576],[2.346568,48.863397]]],[[[2.351198,48.865818],[2.351577,48.865765],[2.351361,48.865266],[2.350473,48.865195],[2.350821,48.865905],[2.351198,48.865818]]],[[[2.346919,48.865574],[2.344812,48.865825],[2.344663,48.866092],[2.346968,48.865809],[2.346919,48.865574]]],[[[2.351275,48.865116],[2.350858,48.864371],[2.350238,48.864347],[2.350432,48.865073],[2.351275,48.865116]]],[[[2.345716,48.867617],[2.346025,48.867524],[2.344249,48.866961],[2.344087,48.867328],[2.345716,48.867617]]],[[[2.347402,48.86557],[2.348541,48.865346],[2.348413,48.865005],[2.347383,48.865087],[2.347022,48.865198],[2.347096,48.865629],[2.347402,48.86557]]],[[[2.341435,48.86754],[2.340999,48.866468],[2.340296,48.866523],[2.340873,48.867634],[2.341435,48.86754]]],[[[2.344217,48.868579],[2.345469,48.868239],[2.345351,48.867909],[2.343682,48.868245],[2.343464,48.86874],[2.344217,48.868579]]],[[[2.345213,48.863648],[2.345564,48.863785],[2.345882,48.863197],[2.344399,48.863344],[2.345392,48.864077],[2.345542,48.863828],[2.345213,48.863648]]],[[[2.349019,48.865935],[2.350501,48.865673],[2.350276,48.865176],[2.348783,48.865399],[2.349019,48.865935]],[[2.350248,48.865523],[2.350317,48.865511],[2.350324,48.86553],[2.350263,48.865539],[2.350209,48.865548],[2.350091,48.865567],[2.349857,48.865608],[2.349739,48.865628],[2.349569,48.865655],[2.349459,48.865676],[2.349335,48.865696],[2.349262,48.865709],[2.349254,48.865684],[2.349453,48.865652],[2.349697,48.865611],[2.349775,48.8656],[2.349833,48.86559],[2.350022,48.865558],[2.350248,48.865523]]],[[[2.346272,48.863399],[2.345323,48.864615],[2.346564,48.864342],[2.346272,48.863399]]],[[[2.344492,48.865997],[2.344654,48.86557],[2.343896,48.865191],[2.343262,48.865364],[2.343515,48.865838],[2.344377,48.866243],[2.344492,48.865997]]],[[[2.343706,48.86677],[2.341614,48.865963],[2.341339,48.866278],[2.343723,48.867186],[2.343706,48.86677]]],[[[2.342654,48.865504],[2.341675,48.865875],[2.343589,48.866558],[2.343182,48.865762],[2.342654,48.865504]]],[[[2.342975,48.868212],[2.343634,48.867806],[2.341629,48.867664],[2.341935,48.868417],[2.342975,48.868212]]],[[[2.348402,48.864619],[2.350016,48.864179],[2.348938,48.863981],[2.347731,48.864271],[2.347825,48.8647],[2.348402,48.864619]]],[[[2.348795,48.865594],[2.348566,48.865394],[2.347106,48.865685],[2.34723,48.866305],[2.348937,48.865953],[2.348795,48.865594]]],[[[2.346231,48.869982],[2.345865,48.869309],[2.345196,48.869494],[2.345977,48.870843],[2.346606,48.87074],[2.346231,48.869982]]],[[[2.348773,48.865306],[2.350227,48.865108],[2.350068,48.864373],[2.348471,48.864709],[2.348773,48.865306]]],[[[2.346557,48.866405],[2.347087,48.866331],[2.346959,48.865919],[2.344616,48.866246],[2.344434,48.866625],[2.346557,48.866405]]],[[[2.350411,48.866529],[2.350952,48.866424],[2.350532,48.865736],[2.349069,48.86608],[2.349388,48.866723],[2.350411,48.866529]]],[[[2.346034,48.867973],[2.345477,48.867877],[2.345873,48.869128],[2.346565,48.868986],[2.347145,48.868327],[2.346034,48.867973]]],[[[2.34402,48.87117],[2.345827,48.870838],[2.345556,48.870421],[2.344631,48.87059],[2.343009,48.870889],[2.343113,48.871319],[2.34402,48.87117]]],[[[2.345136,48.864558],[2.345362,48.864132],[2.343992,48.863404],[2.343001,48.863691],[2.344977,48.864724],[2.345136,48.864558]]],[[[2.343212,48.865168],[2.344733,48.86477],[2.342779,48.863791],[2.342526,48.86394],[2.343212,48.865168]]],[[[2.346727,48.864863],[2.345194,48.864881],[2.344814,48.865732],[2.346901,48.865503],[2.346727,48.864863]]],[[[2.348615,48.866862],[2.349327,48.866732],[2.348962,48.865996],[2.347236,48.866353],[2.347378,48.867129],[2.348615,48.866862]]],[[[2.345767,48.869168],[2.345567,48.8686],[2.345141,48.86867],[2.343269,48.869162],[2.342966,48.869836],[2.345767,48.869168]]],[[[2.346785,48.870715],[2.347809,48.870522],[2.346926,48.869504],[2.347398,48.869447],[2.34705,48.869197],[2.347688,48.868846],[2.345955,48.869213],[2.346785,48.870715]]],[[[2.346885,48.867364],[2.347216,48.867275],[2.347086,48.866398],[2.344332,48.866851],[2.34627,48.86748],[2.346885,48.867364]]],[[[2.343731,48.867696],[2.343591,48.867258],[2.341071,48.866408],[2.341617,48.867551],[2.343731,48.867696]]],[[[2.34536,48.870027],[2.345009,48.869481],[2.342865,48.869954],[2.342803,48.870316],[2.342978,48.870783],[2.345496,48.870321],[2.34536,48.870027]]]],"type":"MultiPolygon"},"properties":{"id_projet":"COLLEGES (année scolaire 2026/2027)","libelle":"CESAR FRANCK","annee_scol":"2026-2027","zone_commune":0,"etiquette":"Secteur du collège CESAR FRANCK","lib_etab_1":"CESAR FRANCK","lib_etab_2":null,"lib_etab_3":null,"lib_etab_4":null,"adr_etab_1":null,"adr_etab_2":null,"adr_etab_3":null,"adr_etab_4":null,"st_area_shape":362347.8043018627,"st_perimeter_shape":20610.485872955036,"type_etabl":"Collège","geo_point_2d":{"lon":2.345273279111421,"lat":48.86686345651283}}}]}