{"type":"FeatureCollection","features":[{"type":"Feature","geometry":{"coordinates":[[[-2.183373,47.30424],[-2.182606,47.3021],[-2.18149,47.301091],[-2.182458,47.2997],[-2.182186,47.298827],[-2.182532,47.298665],[-2.182004,47.298105],[-2.182369,47.297852],[-2.180615,47.295988],[-2.180784,47.293967],[-2.181836,47.293263],[-2.180592,47.292017],[-2.183691,47.290235],[-2.183562,47.289751],[-2.184322,47.28908],[-2.187686,47.292509],[-2.187062,47.292954],[-2.187945,47.29479],[-2.188943,47.295915],[-2.188964,47.296515],[-2.189571,47.296486],[-2.18982,47.297644],[-2.191473,47.29744],[-2.194324,47.297743],[-2.194702,47.297479],[-2.196448,47.298075],[-2.185331,47.306747],[-2.182025,47.305976],[-2.181981,47.305506],[-2.183373,47.30424]]],"type":"Polygon"},"properties":{"geo_point_2d":{"lon":-2.1863542304328645,"lat":47.29842082818708},"identifiant":"12","commune":"Saint-Nazaire","code_insee":"44184","nom":"Ecole Ernest Renan","type":"Ecole de proximité","secteur":"1"}},{"type":"Feature","geometry":{"coordinates":[[[-2.18732,47.280764],[-2.187001,47.280708],[-2.187186,47.28106],[-2.186288,47.281478],[-2.185607,47.281348],[-2.181737,47.283497],[-2.181905,47.28411],[-2.180884,47.284404],[-2.184853,47.288511],[-2.184322,47.28908],[-2.187686,47.292509],[-2.187062,47.292954],[-2.187945,47.29479],[-2.188943,47.295915],[-2.188964,47.296515],[-2.189571,47.296486],[-2.18982,47.297644],[-2.191473,47.29744],[-2.194324,47.297743],[-2.194702,47.297479],[-2.196448,47.298075],[-2.199275,47.294899],[-2.198792,47.294613],[-2.198717,47.293751],[-2.198302,47.293524],[-2.200122,47.288857],[-2.202564,47.279796],[-2.199528,47.279412],[-2.198315,47.278801],[-2.197015,47.275657],[-2.196235,47.275608],[-2.195022,47.275751],[-2.193106,47.276842],[-2.192755,47.277064],[-2.192912,47.277516],[-2.18732,47.280764]]],"type":"Polygon"},"properties":{"geo_point_2d":{"lon":-2.1929010179467054,"lat":47.286823035692905},"identifiant":"17","commune":"Saint-Nazaire","code_insee":"44184","nom":"Ecole Bert - Lemonnier","type":"Ecole de proximité","secteur":"1"}},{"type":"Feature","geometry":{"coordinates":[[[-2.198028,47.274829],[-2.19811,47.274504],[-2.197443,47.274515],[-2.197375,47.273375],[-2.197999,47.272273],[-2.198639,47.27214],[-2.198468,47.271718],[-2.196907,47.271272],[-2.198441,47.271588],[-2.20144,47.267076],[-2.202277,47.266475],[-2.200787,47.268494],[-2.201019,47.268879],[-2.200615,47.26874],[-2.200102,47.269563],[-2.200673,47.269858],[-2.200449,47.270026],[-2.200709,47.27032],[-2.201599,47.270415],[-2.202014,47.270053],[-2.202137,47.270727],[-2.202675,47.270133],[-2.202771,47.270523],[-2.203197,47.27065],[-2.204429,47.270357],[-2.204687,47.267338],[-2.204019,47.266091],[-2.204766,47.267217],[-2.204496,47.270737],[-2.209631,47.270472],[-2.211383,47.269982],[-2.21314,47.268816],[-2.216271,47.268365],[-2.218606,47.271789],[-2.218616,47.272455],[-2.214498,47.273734],[-2.214309,47.274371],[-2.211895,47.274077],[-2.211166,47.276768],[-2.209008,47.276493],[-2.208896,47.276904],[-2.207049,47.276679],[-2.206939,47.277065],[-2.205399,47.276874],[-2.205512,47.276469],[-2.203594,47.276099],[-2.202564,47.279796],[-2.199528,47.279412],[-2.198315,47.278801],[-2.196918,47.275386],[-2.198794,47.275279],[-2.19897,47.275005],[-2.198028,47.274829]]],"type":"Polygon"},"properties":{"geo_point_2d":{"lon":-2.2065123411321816,"lat":47.2734909454975},"identifiant":"15","commune":"Saint-Nazaire","code_insee":"44184","nom":"Ecole Sadi Carnot","type":"Ecole de proximité","secteur":"2"}},{"type":"Feature","geometry":{"coordinates":[[[-2.21125,47.28752],[-2.209665,47.288498],[-2.210533,47.285231],[-2.211805,47.285271],[-2.213072,47.28438],[-2.214359,47.282812],[-2.21618,47.281474],[-2.216378,47.280743],[-2.224276,47.280545],[-2.224794,47.280232],[-2.224663,47.281286],[-2.225459,47.281212],[-2.225506,47.283203],[-2.22648,47.282724],[-2.226728,47.284902],[-2.226015,47.288541],[-2.228782,47.289633],[-2.231563,47.29169],[-2.224322,47.293662],[-2.221347,47.294913],[-2.221001,47.29456],[-2.218885,47.294957],[-2.218145,47.29481],[-2.217699,47.294415],[-2.21805,47.29369],[-2.217852,47.292161],[-2.21706,47.29126],[-2.217648,47.29057],[-2.214877,47.28951],[-2.213058,47.289172],[-2.211171,47.287894],[-2.21125,47.28752]]],"type":"Polygon"},"properties":{"geo_point_2d":{"lon":-2.220530555718924,"lat":47.28740508124904},"identifiant":"10","commune":"Saint-Nazaire","code_insee":"44184","nom":"Ecole Léon Gambetta","type":"Ecole de proximité","secteur":"2"}},{"type":"Feature","geometry":{"coordinates":[[[-2.218095,47.272619],[-2.214498,47.273734],[-2.214301,47.274374],[-2.211895,47.274077],[-2.211166,47.276768],[-2.212896,47.276983],[-2.212689,47.277768],[-2.212917,47.277795],[-2.211914,47.280941],[-2.21618,47.281474],[-2.216378,47.280743],[-2.219706,47.280775],[-2.220942,47.280436],[-2.221263,47.279679],[-2.222371,47.279746],[-2.223035,47.278418],[-2.222549,47.278248],[-2.223786,47.276612],[-2.223043,47.276425],[-2.222934,47.274822],[-2.221843,47.273308],[-2.218496,47.272898],[-2.218616,47.272455],[-2.218095,47.272619]]],"type":"Polygon"},"properties":{"geo_point_2d":{"lon":-2.217425063908931,"lat":47.27703174013374},"identifiant":"1","commune":"Saint-Nazaire","code_insee":"44184","nom":"Ecole Jean Jaurès","type":"Ecole de proximité","secteur":"2"}},{"type":"Feature","geometry":{"coordinates":[[[-2.200935,47.293899],[-2.199275,47.294899],[-2.198792,47.294613],[-2.198717,47.293751],[-2.198302,47.293524],[-2.199996,47.289249],[-2.201385,47.284263],[-2.210533,47.285231],[-2.209665,47.288498],[-2.200935,47.293899]]],"type":"Polygon"},"properties":{"geo_point_2d":{"lon":-2.2039907688486315,"lat":47.288697281940124},"identifiant":"3","commune":"Saint-Nazaire","code_insee":"44184","nom":"Ecole Waldeck Rousseau","type":"Ecole de proximité","secteur":"2"}},{"type":"Feature","geometry":{"coordinates":[[[-2.20595,47.284855],[-2.211805,47.285271],[-2.216016,47.281479],[-2.211914,47.280941],[-2.212917,47.277795],[-2.212689,47.277768],[-2.212896,47.276983],[-2.209008,47.276493],[-2.208896,47.276904],[-2.207049,47.276679],[-2.206939,47.277065],[-2.205399,47.276874],[-2.205512,47.276469],[-2.203594,47.276099],[-2.201385,47.284263],[-2.20595,47.284855]]],"type":"Polygon"},"properties":{"geo_point_2d":{"lon":-2.207930588121542,"lat":47.28102411973006},"identifiant":"4","commune":"Saint-Nazaire","code_insee":"44184","nom":"Ecole Alphonse de Lamartine","type":"Ecole de proximité","secteur":"2"}},{"type":"Feature","geometry":{"coordinates":[[[-2.24037,47.266484],[-2.240683,47.267756],[-2.240325,47.268738],[-2.239317,47.269992],[-2.237849,47.269318],[-2.237076,47.269954],[-2.235809,47.272037],[-2.234328,47.273716],[-2.233819,47.275195],[-2.232641,47.276909],[-2.238985,47.278016],[-2.241043,47.278879],[-2.24359,47.279035],[-2.248483,47.278552],[-2.248347,47.274775],[-2.248869,47.272924],[-2.249643,47.271534],[-2.249537,47.27116],[-2.2452,47.271014],[-2.244729,47.270604],[-2.245238,47.268383],[-2.247302,47.266711],[-2.245406,47.265791],[-2.244568,47.266634],[-2.24293,47.265145],[-2.24037,47.266484]]],"type":"Polygon"},"properties":{"geo_point_2d":{"lon":-2.241866393205425,"lat":47.27337661838256},"identifiant":"14","commune":"Saint-Nazaire","code_insee":"44184","nom":"Ecole Albert Camus","type":"Ecole de proximité","secteur":"3"}},{"type":"Feature","geometry":{"coordinates":[[[-2.240565,47.279432],[-2.239563,47.281187],[-2.237706,47.28255],[-2.232325,47.28101],[-2.229866,47.280743],[-2.22648,47.282724],[-2.226728,47.284902],[-2.226015,47.288541],[-2.228782,47.289633],[-2.231563,47.29169],[-2.244805,47.288211],[-2.249727,47.286377],[-2.249973,47.285637],[-2.249562,47.284712],[-2.248483,47.278552],[-2.24359,47.279035],[-2.240924,47.27886],[-2.240565,47.279432]]],"type":"Polygon"},"properties":{"geo_point_2d":{"lon":-2.2379423839608164,"lat":47.28501458581085},"identifiant":"8","commune":"Saint-Nazaire","code_insee":"44184","nom":"Ecole Pierre Brossolette","type":"Ecole de proximité","secteur":"3"}},{"type":"Feature","geometry":{"coordinates":[[[-2.221546,47.280419],[-2.224276,47.280545],[-2.224794,47.280232],[-2.224663,47.281286],[-2.225459,47.281212],[-2.225506,47.283203],[-2.229866,47.280743],[-2.232325,47.28101],[-2.237706,47.28255],[-2.239643,47.281097],[-2.240924,47.27886],[-2.239201,47.278076],[-2.236677,47.277558],[-2.232065,47.276838],[-2.229645,47.276892],[-2.230079,47.275777],[-2.229874,47.27483],[-2.22776,47.275097],[-2.223709,47.273632],[-2.221843,47.273308],[-2.222934,47.274822],[-2.223043,47.276425],[-2.223786,47.276612],[-2.222549,47.278248],[-2.223035,47.278418],[-2.222371,47.279746],[-2.221263,47.279679],[-2.220916,47.280384],[-2.221546,47.280419]]],"type":"Polygon"},"properties":{"geo_point_2d":{"lon":-2.230213033038222,"lat":47.27872313235492},"identifiant":"2","commune":"Saint-Nazaire","code_insee":"44184","nom":"Ecole Victor Hugo","type":"Ecole de proximité","secteur":"3"}},{"type":"Feature","geometry":{"coordinates":[[[-2.236824,47.256538],[-2.236257,47.260149],[-2.238911,47.262687],[-2.229197,47.264521],[-2.227327,47.264552],[-2.227106,47.263509],[-2.22566,47.264702],[-2.22502,47.26457],[-2.225067,47.263518],[-2.223757,47.260273],[-2.22276,47.258907],[-2.222944,47.258481],[-2.227338,47.257382],[-2.228261,47.256226],[-2.229745,47.255784],[-2.232646,47.255836],[-2.236824,47.256538]]],"type":"Polygon"},"properties":{"geo_point_2d":{"lon":-2.2306206675151987,"lat":47.26023465553574},"identifiant":"18","commune":"Saint-Nazaire","code_insee":"44184","nom":"Ecole Michelet","type":"Ecole de proximité","secteur":"4"}},{"type":"Feature","geometry":{"coordinates":[[[-2.236824,47.256538],[-2.236257,47.260149],[-2.238911,47.262687],[-2.240291,47.262083],[-2.242389,47.260405],[-2.246986,47.259211],[-2.246497,47.258643],[-2.244882,47.258295],[-2.244833,47.257491],[-2.242906,47.257432],[-2.243244,47.255974],[-2.240875,47.256249],[-2.239758,47.256019],[-2.239287,47.256327],[-2.237475,47.256159],[-2.23658,47.256279],[-2.236824,47.256538]]],"type":"Polygon"},"properties":{"geo_point_2d":{"lon":-2.240462409044877,"lat":47.258896639879595},"identifiant":"7","commune":"Saint-Nazaire","code_insee":"44184","nom":"Ecole Jean Zay","type":"Ecole de proximité","secteur":"4"}},{"type":"Feature","geometry":{"coordinates":[[[-2.22502,47.26457],[-2.224312,47.265297],[-2.220996,47.267096],[-2.216271,47.268365],[-2.218586,47.271712],[-2.218496,47.272898],[-2.223305,47.273521],[-2.227844,47.2751],[-2.228588,47.270947],[-2.228339,47.269316],[-2.232757,47.267976],[-2.232372,47.26755],[-2.232763,47.266841],[-2.229682,47.265981],[-2.229512,47.265433],[-2.230368,47.264342],[-2.227327,47.264552],[-2.227106,47.263509],[-2.22566,47.264702],[-2.22502,47.26457]]],"type":"Polygon"},"properties":{"geo_point_2d":{"lon":-2.2245842332078585,"lat":47.26934531644255},"identifiant":"5","commune":"Saint-Nazaire","code_insee":"44184","nom":"Ecole Pierre et Marie Curie","type":"Ecole de proximité","secteur":"4"}},{"type":"Feature","geometry":{"coordinates":[[[-2.24037,47.266484],[-2.240683,47.267756],[-2.240325,47.268738],[-2.239317,47.269992],[-2.237849,47.269318],[-2.237076,47.269954],[-2.235809,47.272037],[-2.234328,47.273716],[-2.233892,47.275052],[-2.232731,47.276854],[-2.229645,47.276892],[-2.230079,47.275777],[-2.229874,47.27483],[-2.227918,47.27507],[-2.228588,47.270947],[-2.228339,47.269316],[-2.232757,47.267976],[-2.232372,47.26755],[-2.232763,47.266841],[-2.229602,47.26589],[-2.229555,47.265342],[-2.230368,47.264342],[-2.238911,47.262687],[-2.239727,47.263666],[-2.24037,47.266484]]],"type":"Polygon"},"properties":{"geo_point_2d":{"lon":-2.2339779945169727,"lat":47.26916976783467},"identifiant":"13","commune":"Saint-Nazaire","code_insee":"44184","nom":"Ecole Jules Ferry","type":"Ecole de proximité","secteur":"4"}},{"type":"Feature","geometry":{"coordinates":[[[-2.253063,47.258243],[-2.258366,47.257398],[-2.262376,47.257197],[-2.265061,47.256596],[-2.268246,47.256805],[-2.268301,47.257102],[-2.267142,47.257649],[-2.261784,47.261621],[-2.263256,47.26254],[-2.267349,47.263193],[-2.268137,47.259268],[-2.269088,47.257322],[-2.269726,47.257044],[-2.269598,47.256518],[-2.272691,47.255229],[-2.273642,47.254285],[-2.273633,47.253326],[-2.274121,47.252511],[-2.274663,47.249762],[-2.273406,47.249488],[-2.272691,47.248819],[-2.273224,47.246653],[-2.268947,47.245532],[-2.266733,47.244022],[-2.266311,47.242877],[-2.265891,47.242675],[-2.26562,47.242958],[-2.265324,47.242206],[-2.264598,47.242343],[-2.263945,47.241736],[-2.263334,47.241711],[-2.263285,47.242062],[-2.262785,47.242076],[-2.262647,47.242682],[-2.262107,47.242601],[-2.262034,47.243154],[-2.262631,47.243677],[-2.262231,47.244165],[-2.261772,47.24417],[-2.26142,47.244758],[-2.261211,47.245934],[-2.260625,47.246594],[-2.260798,47.247236],[-2.260079,47.247824],[-2.259292,47.24792],[-2.259894,47.24857],[-2.259623,47.2493],[-2.257791,47.250034],[-2.255951,47.250167],[-2.256165,47.250629],[-2.255675,47.250896],[-2.255955,47.251053],[-2.253715,47.252621],[-2.253598,47.25318],[-2.249244,47.253901],[-2.248554,47.254423],[-2.24905,47.254824],[-2.248962,47.25531],[-2.248194,47.255759],[-2.246004,47.256099],[-2.243979,47.255802],[-2.243244,47.255974],[-2.242906,47.257432],[-2.244833,47.257491],[-2.244882,47.258295],[-2.246497,47.258643],[-2.246986,47.259211],[-2.249258,47.258571],[-2.253063,47.258243]]],"type":"Polygon"},"properties":{"geo_point_2d":{"lon":-2.262431369193791,"lat":47.252763802372975},"identifiant":"16","commune":"Saint-Nazaire","code_insee":"44184","nom":"Ecole Ferdinand Buisson","type":"Ecole de proximité","secteur":"5"}},{"type":"Feature","geometry":{"coordinates":[[[-2.257406,47.264208],[-2.257648,47.264564],[-2.252792,47.267975],[-2.249863,47.27113],[-2.244802,47.270906],[-2.245147,47.268527],[-2.247302,47.266711],[-2.251929,47.265511],[-2.253858,47.264055],[-2.255643,47.264695],[-2.257406,47.264208]]],"type":"Polygon"},"properties":{"geo_point_2d":{"lon":-2.250130947483228,"lat":47.26786444309339},"identifiant":"11","commune":"Saint-Nazaire","code_insee":"44184","nom":"Ecole Andrée Chédid","type":"Ecole de proximité","secteur":"5"}},{"type":"Feature","geometry":{"coordinates":[[[-2.265704,47.24079],[-2.26611,47.24091],[-2.266969,47.240361],[-2.267256,47.238793],[-2.267734,47.238595],[-2.268125,47.238854],[-2.26841,47.23837],[-2.269055,47.239004],[-2.273934,47.239642],[-2.275363,47.239286],[-2.276318,47.237967],[-2.277289,47.237425],[-2.278565,47.237616],[-2.280269,47.237246],[-2.286062,47.237564],[-2.287056,47.237147],[-2.29007,47.237285],[-2.29098,47.236673],[-2.291537,47.235496],[-2.292621,47.235223],[-2.292774,47.234727],[-2.293111,47.235048],[-2.293376,47.234808],[-2.294379,47.235083],[-2.295503,47.235087],[-2.295928,47.234728],[-2.297277,47.234879],[-2.297876,47.234263],[-2.298306,47.234364],[-2.298381,47.233243],[-2.299368,47.234292],[-2.299881,47.234231],[-2.29971,47.234577],[-2.300302,47.234694],[-2.300621,47.235382],[-2.302047,47.235594],[-2.301458,47.235819],[-2.30343,47.237153],[-2.302818,47.237809],[-2.302833,47.23826],[-2.301713,47.23888],[-2.299986,47.239368],[-2.29999,47.239614],[-2.298499,47.239595],[-2.298435,47.240083],[-2.298032,47.240019],[-2.297768,47.240767],[-2.298482,47.240804],[-2.298315,47.241605],[-2.299762,47.241759],[-2.298865,47.243145],[-2.298204,47.243228],[-2.296866,47.244381],[-2.298229,47.244762],[-2.298757,47.245574],[-2.299432,47.245955],[-2.298345,47.248537],[-2.297639,47.248937],[-2.297165,47.250419],[-2.297595,47.254271],[-2.296931,47.257206],[-2.29601,47.259066],[-2.292483,47.259459],[-2.28045,47.259235],[-2.275358,47.258605],[-2.269906,47.257141],[-2.269598,47.256518],[-2.272691,47.255229],[-2.27355,47.254465],[-2.274663,47.249762],[-2.273406,47.249488],[-2.272691,47.248819],[-2.273224,47.246653],[-2.268947,47.245532],[-2.266733,47.244022],[-2.266311,47.242877],[-2.265891,47.242675],[-2.26562,47.242958],[-2.265324,47.242206],[-2.264598,47.242343],[-2.264072,47.242032],[-2.264227,47.241668],[-2.265038,47.241605],[-2.265336,47.240924],[-2.265704,47.24079]]],"type":"Polygon"},"properties":{"geo_point_2d":{"lon":-2.2852087050240515,"lat":47.24717763395983},"identifiant":"19","commune":"Saint-Nazaire","code_insee":"44184","nom":"Ecole François-René de Chateaubriand","type":"Ecole de proximité","secteur":"5"}},{"type":"Feature","geometry":{"coordinates":[[[-2.242937,47.260226],[-2.24201,47.260612],[-2.240291,47.262083],[-2.238911,47.262687],[-2.239727,47.263666],[-2.24037,47.266484],[-2.24293,47.265145],[-2.244568,47.266634],[-2.245406,47.265791],[-2.247302,47.266711],[-2.251223,47.265753],[-2.253417,47.264569],[-2.254643,47.262418],[-2.251385,47.26249],[-2.251208,47.261405],[-2.250806,47.261437],[-2.250657,47.260401],[-2.250364,47.260392],[-2.25074,47.260064],[-2.250364,47.259768],[-2.250039,47.25849],[-2.242937,47.260226]]],"type":"Polygon"},"properties":{"geo_point_2d":{"lon":-2.2466174381832222,"lat":47.26301315025166},"identifiant":"6","commune":"Saint-Nazaire","code_insee":"44184","nom":"Ecole Léon Blum","type":"Ecole de proximité","secteur":"5"}},{"type":"Feature","geometry":{"coordinates":[[[-2.253063,47.258243],[-2.250039,47.25849],[-2.250364,47.259768],[-2.25074,47.260064],[-2.250364,47.260392],[-2.250657,47.260401],[-2.250806,47.261437],[-2.251208,47.261405],[-2.251385,47.26249],[-2.254643,47.262418],[-2.253858,47.264055],[-2.255643,47.264695],[-2.257285,47.264153],[-2.258015,47.264282],[-2.267142,47.257649],[-2.268425,47.257001],[-2.265061,47.256596],[-2.262376,47.257197],[-2.258366,47.257398],[-2.253063,47.258243]]],"type":"Polygon"},"properties":{"geo_point_2d":{"lon":-2.2581059393876184,"lat":47.26011227846535},"identifiant":"9","commune":"Saint-Nazaire","code_insee":"44184","nom":"Ecole Madeleine Rébérioux","type":"Ecole de proximité","secteur":"5"}},{"type":"Feature","geometry":{"coordinates":[[[-2.222897,47.296258],[-2.221347,47.294913],[-2.223483,47.293951],[-2.244439,47.288317],[-2.249727,47.286377],[-2.249973,47.285637],[-2.249375,47.283794],[-2.248251,47.275728],[-2.248705,47.273353],[-2.249643,47.271534],[-2.24944,47.271249],[-2.249863,47.27113],[-2.253094,47.267738],[-2.261784,47.261621],[-2.263256,47.26254],[-2.267349,47.263193],[-2.268137,47.259268],[-2.269088,47.257322],[-2.269752,47.256985],[-2.270615,47.25751],[-2.275902,47.258694],[-2.282769,47.259386],[-2.287948,47.259327],[-2.287297,47.260516],[-2.289184,47.262827],[-2.288843,47.263181],[-2.288926,47.263787],[-2.290885,47.263626],[-2.292212,47.263813],[-2.29226,47.264209],[-2.293058,47.264079],[-2.293373,47.264777],[-2.293239,47.265384],[-2.28989,47.269396],[-2.290143,47.270384],[-2.290495,47.270487],[-2.2912,47.271874],[-2.289282,47.273462],[-2.290349,47.273313],[-2.290374,47.274146],[-2.289296,47.274893],[-2.287983,47.277768],[-2.288219,47.278691],[-2.290116,47.278452],[-2.290101,47.278908],[-2.288739,47.279559],[-2.290453,47.2816],[-2.293938,47.280978],[-2.295303,47.281275],[-2.295944,47.279696],[-2.295922,47.278503],[-2.300915,47.279074],[-2.304671,47.280879],[-2.310561,47.28258],[-2.307318,47.284789],[-2.304994,47.286979],[-2.303859,47.29033],[-2.300309,47.295292],[-2.300121,47.297053],[-2.299631,47.298189],[-2.29984,47.299984],[-2.299367,47.300719],[-2.299921,47.300926],[-2.297427,47.30244],[-2.297023,47.303196],[-2.295738,47.302611],[-2.292883,47.305201],[-2.293595,47.306067],[-2.291934,47.307384],[-2.290609,47.307639],[-2.288407,47.308865],[-2.283653,47.309641],[-2.280913,47.312611],[-2.280004,47.314812],[-2.278708,47.314819],[-2.275657,47.315991],[-2.26929,47.316524],[-2.269042,47.316482],[-2.269402,47.315784],[-2.268641,47.315365],[-2.268281,47.315497],[-2.2682,47.314165],[-2.263569,47.314094],[-2.261989,47.314482],[-2.258224,47.316066],[-2.257239,47.319364],[-2.257558,47.320166],[-2.249637,47.320367],[-2.249592,47.31977],[-2.247758,47.319956],[-2.246225,47.319595],[-2.24585,47.318652],[-2.246236,47.317743],[-2.244554,47.31712],[-2.242575,47.31564],[-2.24253,47.315113],[-2.238308,47.312919],[-2.237743,47.311487],[-2.238406,47.309619],[-2.237061,47.309306],[-2.237159,47.308672],[-2.234465,47.30857],[-2.236121,47.307255],[-2.234796,47.30598],[-2.233698,47.303623],[-2.232523,47.303146],[-2.232882,47.302433],[-2.232815,47.301782],[-2.231213,47.300834],[-2.229918,47.301265],[-2.228517,47.300055],[-2.22759,47.300062],[-2.227565,47.299274],[-2.228284,47.298537],[-2.227081,47.298026],[-2.225484,47.298094],[-2.225809,47.297239],[-2.224479,47.297063],[-2.222897,47.296258]]],"type":"Polygon"},"properties":{"geo_point_2d":{"lon":-2.2678944558174816,"lat":47.29053638148273},"identifiant":"20","commune":"Saint-Nazaire","code_insee":"44184","nom":"Ecole Jules Simon","type":"Ecole de proximité","secteur":"6"}}]}